"STATION","DATE","SOURCE","LATITUDE","LONGITUDE","ELEVATION","NAME","REPORT_TYPE","CALL_SIGN","QUALITY_CONTROL","WND","CIG","VIS","TMP","DEW","SLP","AA1","AJ1","AW1","AY1","AY2","AZ1","GA1","GF1","IA1","IA2","KA1","MA1","MD1","MW1","OA1","REM","EQD"
"31725099999","2000-01-01T00:00:00","4","48.6166666","133.8333333","52.0","SMIDOVICH, RS","FM-12","99999","V020","999,9,C,0000,1","22000,1,9,N","020000,1,N,1","-0298,1","-0321,1","10351,1","06,0000,9,1","","","","","","","02,99,1,99,9,02,1,99999,9,00,1,04,1","23,9","","120,N,-0310,1","99999,9,10275,1","3,1,008,1,+999,9","","","SYN082AAXX  01001 31725 32998 20000 11298 21321 30275 40351 53000 88204 333 21310 47010;","Q01  00002PRCP06"
"31725099999","2000-01-01T03:00:00","4","48.6166666","133.8333333","52.0","SMIDOVICH, RS","FM-12","99999","V020","999,9,C,0000,1","22000,1,9,N","020000,1,N,1","-0251,1","-0275,1","10347,1","","","","","","","00,1,+99999,9,99,9","00,99,1,00,1,00,1,99999,9,00,1,00,1","","","","","8,1,002,1,+999,9","","","SYN054AAXX  01031 31725 42998 00000 11251 21275 40347 58002;",
"31725099999","2000-01-01T06:00:00","4","48.6166666","133.8333333","52.0","SMIDOVICH, RS","FM-12","99999","V020","999,9,C,0000,1","22000,1,9,N","020000,1,N,1","-0233,1","-0248,1","10342,1","","","","","","","00,1,+99999,9,99,9","00,99,1,00,1,00,1,99999,9,00,1,00,1","","","","","7,1,004,1,+999,9","","","SYN054AAXX  01061 31725 42998 00000 11233 21248 40342 57004;",
"31725099999","2000-01-01T09:00:00","4","48.6166666","133.8333333","52.0","SMIDOVICH, RS","FM-12","99999","V020","999,9,C,0000,1","22000,1,9,N","020000,1,N,1","-0271,1","-0294,1","10344,1","06,0000,9,1","","","","","","00,1,+99999,9,99,9","00,99,1,00,1,00,1,99999,9,00,1,00,1","","","999,M,-0226,1","","4,1,000,1,+999,9","","","SYN064AAXX  01091 31725 32998 00000 11271 21294 40344 54000 333 11226;","Q01  00002PRCP06"
"31725099999","2000-01-01T12:00:00","4","48.6166666","133.8333333","52.0","SMIDOVICH, RS","FM-12","99999","V020","999,9,C,0000,1","22000,1,9,N","020000,1,N,1","-0290,1","-0313,1","10343,1","06,0000,9,1","","","","","","00,1,+99999,9,99,9","00,99,1,00,1,00,1,99999,9,00,1,00,1","","","999,M,-0226,1","99999,9,10267,1","8,1,002,1,+999,9","","","SYN070AAXX  01121 31725 32998 00000 11290 21313 30267 40343 58002 333 11226;","Q01  00002PRCP06"
"31725099999","2000-01-01T15:00:00","4","48.6166666","133.8333333","52.0","SMIDOVICH, RS","FM-12","99999","V020","999,9,C,0000,1","22000,1,9,N","020000,1,N,1","-0293,1","-0317,1","10347,1","","","","","","","00,1,+99999,9,99,9","00,99,1,00,1,00,1,99999,9,00,1,00,1","","","","","3,1,004,1,+999,9","","","SYN054AAXX  01151 31725 42998 00000 11293 21317 40347 53004;",
"31725099999","2000-01-01T18:00:00","4","48.6166666","133.8333333","52.0","SMIDOVICH, RS","FM-12","99999","V020","999,9,C,0000,1","22000,1,9,N","020000,1,N,1","-0293,1","-0317,1","10332,1","","","","","","","00,1,+99999,9,99,9","00,99,1,00,1,00,1,99999,9,00,1,00,1","","","","","8,1,015,1,+999,9","","","SYN054AAXX  01181 31725 42998 00000 11293 21317 40332 58015;",
"31725099999","2000-01-01T21:00:00","4","48.6166666","133.8333333","52.0","SMIDOVICH, RS","FM-12","99999","V020","999,9,C,0000,1","22000,1,9,N","020000,1,N,1","-0297,1","-0321,1","10327,1","06,0000,9,1","","","","","","00,1,+99999,9,99,9","00,99,1,00,1,00,1,99999,9,00,1,00,1","","","","","7,1,002,1,+999,9","","","SYN054AAXX  01211 31725 32998 00000 11297 21321 40327 57002;","Q01  00002PRCP06"
"31725099999","2000-01-02T00:00:00","4","48.6166666","133.8333333","52.0","SMIDOVICH, RS","FM-12","99999","V020","999,9,C,0000,1","22000,1,9,N","010000,1,N,1","-0290,1","-0313,1","10314,1","06,0000,9,1","","","0,1,06,1","0,1,06,1","","00,1,+99999,9,99,9","00,99,1,00,1,00,1,99999,9,00,1,00,1","23,9","","120,N,-0306,1","99999,9,10238,1","7,1,013,1,+999,9","10,1","","SYN082AAXX  02001 31725 31997 00000 11290 21313 30238 40314 57013 71000 333 21306 47010;","Q01  00002PRCP06"
"31725099999","2000-01-02T03:00:00","4","48.6166666","133.8333333","52.0","SMIDOVICH, RS","FM-12","99999","V020","360,1,N,0020,1","99999,9,9,N","010000,1,N,1","-0235,1","-0260,1","10273,1","","","","1,1,03,1","1,1,03,1","","","08,99,1,00,1,00,1,99999,9,00,1,06,1","","","","","7,1,039,1,+999,9","10,1","","SYN066AAXX  02031 31725 41997 83602 11235 21260 40273 57039 71011 80006;",
"31725099999","2000-01-02T06:00:00","4","48.6166666","133.8333333","52.0","SMIDOVICH, RS","FM-12","99999","V020","360,1,N,0020,1","03600,1,9,N","010000,1,N,1","-0212,1","-0237,1","10248,1","","","","1,1,06,1","1,1,06,1","","","08,99,1,04,1,03,1,00450,1,02,1,02,1","","","","","7,1,023,1,+999,9","10,1","","SYN066AAXX  02061 31725 41497 83602 11212 21237 40248 57023 71011 84322;",
"31725099999","2000-01-02T09:00:00","4","48.6166666","133.8333333","52.0","SMIDOVICH, RS","FM-12","99999","V020","360,1,N,0020,1","09000,1,9,N","010000,1,N,1","-0196,1","-0222,1","10239,1","06,0000,9,1","","","2,1,03,1","2,1,03,1","","","08,99,1,03,1,03,1,00450,1,00,1,02,1","","","999,M,-0192,1","","7,1,009,1,+999,9","10,1","","SYN076AAXX  02091 31725 31497 83602 11196 21222 40239 57009 71022 83302 333 11192;","Q01  00002PRCP06"
"31725099999","2000-01-02T12:00:00","4","48.6166666","133.8333333","52.0","SMIDOVICH, RS","FM-12","99999","V020","360,1,N,0020,1","03600,1,9,N","020000,1,N,1","-0183,1","-0209,1","10235,1","06,0000,9,1","","","","","","","08,99,1,03,1,03,1,00450,1,04,1,99,9","","","999,M,+9999,9","99999,9,10163,1","7,1,004,1,+999,9","","","SYN076AAXX  02121 31725 32498 83602 11183 21209 30163 40235 57004 8334/ 333 11192;","Q01  00002PRCP06Q02 -01922ATMX  "
"31725099999","2000-01-02T15:00:00","4","48.6166666","133.8333333","52.0","SMIDOVICH, RS","FM-12","99999","V020","360,1,N,0010,1","03600,1,9,N","020000,1,N,1","-0180,1","-0206,1","10224,1","","","","","","","","08,99,1,02,1,03,1,00450,1,04,1,99,9","","","","","7,1,011,1,+999,9","","","SYN060AAXX  02151 31725 42498 83601 11180 21206 40224 57011 8234/;",
"31725099999","2000-01-02T18:00:00","4","48.6166666","133.8333333","52.0","SMIDOVICH, RS","FM-12","99999","V020","999,9,C,0000,1","09000,1,9,N","020000,1,N,1","-0160,1","-0179,1","10220,1","","","","","","","","08,99,1,02,1,03,1,00450,1,00,1,02,1","","","","","7,1,003,1,+999,9","","","SYN060AAXX  02181 31725 42498 80000 11160 21179 40220 57003 82302;",
"31725099999","2000-01-02T21:00:00","4","48.6166666","133.8333333","52.0","SMIDOVICH, RS","FM-12","99999","V020","999,9,C,0000,1","00420,1,9,N","020000,1,N,1","-0120,1","-0140,1","10210,1","06,0000,9,1","","","","","","","08,99,1,06,1,03,1,00450,1,00,1,02,1","","","","","7,1,009,1,+999,9","","","SYN060AAXX  02211 31725 32498 80000 11120 21140 40210 57009 86302;","Q01  00002PRCP06"
"31725099999","2000-01-03T00:00:00","4","48.6166666","133.8333333","52.0","SMIDOVICH, RS","FM-12","99999","V020","090,1,N,0020,1","00420,1,9,N","010000,1,N,1","-0099,1","-0121,1","10216,1","06,0000,2,1","","","8,1,06,1","2,1,06,1","","","08,99,1,08,1,03,1,00450,1,99,9,99,9","23,9","","120,N,-0196,1","99999,9,10147,1","3,1,007,1,+999,9","85,1","","SYN088AAXX  03001 31725 31497 80902 11099 21121 30147 40216 53007 78582 883// 333 21196 47010;",
"31725099999","2000-01-03T03:00:00","4","48.6166666","133.8333333","52.0","SMIDOVICH, RS","FM-12","99999","V020","140,1,N,0020,1","00420,1,9,N","010000,1,N,1","-0076,1","-0111,1","10221,1","","","","8,1,03,1","2,1,03,1","","","08,99,1,08,1,03,1,00450,1,99,9,99,9","","","","","2,1,004,1,+999,9","85,1","","SYN066AAXX  03031 31725 41497 81402 11076 21111 40221 52004 78582 883//;",
"31725099999","2000-01-03T06:00:00","4","48.6166666","133.8333333","52.0","SMIDOVICH, RS","FM-12","99999","V020","090,1,N,0030,1","00420,1,9,N","020000,1,N,1","-0068,1","-0115,1","10219,1","","","","8,1,06,1","2,1,06,1","","","08,99,1,08,1,03,1,00450,1,99,9,99,9","","","","","8,1,001,1,+999,9","02,1","","SYN066AAXX  03061 31725 41498 80903 11068 21115 40219 58001 70282 883//;",
"31725099999","2000-01-03T09:00:00","4","48.6166666","133.8333333","52.0","SMIDOVICH, RS","FM-12","99999","V020","999,9,C,0000,1","00420,1,9,N","002000,1,N,1","-0084,1","-0121,1","10230,1","","","","","","","","08,99,1,08,1,03,1,00450,1,99,9,99,9","","","999,M,-0066,1","","0,1,010,1,+999,9","","","SYN070AAXX  03091 31725 /2495 80000 11084 21121 40230 50010 883// 333 11066;",
"31725099999","2000-01-03T12:00:00","4","48.6166666","133.8333333","52.0","SMIDOVICH, RS","FM-12","99999","V020","999,9,C,0000,1","00420,1,9,N","020000,1,N,1","-0105,1","-0133,1","10242,1","00,0005,9,1","","","","","","","08,99,1,05,1,03,1,00450,1,00,1,02,1","","","999,M,-0066,1","99999,9,10172,1","2,1,012,1,+999,9","","","SYN082AAXX  03121 31725 12498 80000 11105 21133 30172 40242 52012 69940 85302 333 11066;",
"31725099999","2000-01-03T15:00:00","4","48.6166666","133.8333333","52.0","SMIDOVICH, RS","FM-12","99999","V020","999,9,C,0000,1","00420,1,9,N","020000,1,N,1","-0114,1","-0134,1","10249,1","","","","","","","","08,99,1,05,1,03,1,00450,1,00,1,02,1","","","","","2,1,007,1,+999,9","","","SYN060AAXX  03151 31725 42498 80000 11114 21134 40249 52007 85302;",
"31725099999","2000-01-03T18:00:00","4","48.6166666","133.8333333","52.0","SMIDOVICH, RS","FM-12","99999","V020","999,9,C,0000,1","00420,1,9,N","010000,1,N,1","-0113,1","-0133,1","10260,1","","","","8,1,06,1","2,1,06,1","","","08,99,1,08,1,03,1,00450,1,99,9,99,9","","","","","2,1,011,1,+999,9","85,1","","SYN066AAXX  03181 31725 41497 80000 11113 21133 40260 52011 78582 883//;",
"31725099999","2000-01-03T21:00:00","4","48.6166666","133.8333333","52.0","SMIDOVICH, RS","FM-12","99999","V020","999,9,C,0000,1","09000,1,9,N","020000,1,N,1","-0119,1","-0139,1","10265,1","","","","8,1,03,1","2,1,03,1","","","08,99,1,03,1,03,1,00450,1,00,1,02,1","","","","","2,1,005,1,+999,9","26,1","","SYN066AAXX  03211 31725 /1498 80000 11119 21139 40265 52005 72682 83302;",
"31725099999","2000-01-04T00:00:00","4","48.6166666","133.8333333","52.0","SMIDOVICH, RS","FM-12","99999","V020","999,9,C,0000,1","03600,1,9,N","020000,1,N,1","-0130,1","-0143,1","10278,1","00,0001,9,1","","","8,1,06,1","2,1,06,1","","","08,99,1,02,1,03,1,00450,1,04,1,02,1","23,9","","120,N,-0130,1","99999,9,10207,1","2,1,012,1,+999,9","02,1","","SYN094AAXX  04001 31725 11498 80000 11130 21143 30207 40278 52012 69920 70282 82342 333 21130 47010;",
"31725099999","2000-01-04T03:00:00","4","48.6166666","133.8333333","52.0","SMIDOVICH, RS","FM-12","99999","V020","999,9,C,0000,1","09000,1,9,N","010000,1,N,1","-0106,1","-0142,1","10277,1","","","","8,1,03,1","2,1,03,1","","","08,99,1,02,1,03,1,00450,1,00,1,02,1","","","","","4,1,000,1,+999,9","85,1","","SYN066AAXX  04031 31725 41497 80000 11106 21142 40277 54000 78582 82302;",
"31725099999","2000-01-04T06:00:00","4","48.6166666","133.8333333","52.0","SMIDOVICH, RS","FM-12","99999","V020","999,9,C,0000,1","99999,9,9,N","020000,1,N,1","-0136,1","-0171,1","10280,1","","","","8,1,06,1","2,1,06,1","","","08,99,1,00,1,00,1,99999,9,00,1,02,1","","","","","3,1,002,1,+999,9","01,1","","SYN066AAXX  04061 31725 41998 80000 11136 21171 40280 53002 70182 80002;",
"31725099999","2000-01-04T09:00:00","4","48.6166666","133.8333333","52.0","SMIDOVICH, RS","FM-12","99999","V020","999,9,C,0000,1","22000,1,9,N","020000,1,N,1","-0184,1","-0203,1","10291,1","","","","","","","","03,99,1,00,1,00,1,99999,9,00,1,02,1","","","999,M,-0096,1","","2,1,010,1,+999,9","","","SYN070AAXX  04091 31725 /2998 30000 11184 21203 40291 52010 80002 333 11096;",
"31725099999","2000-01-04T12:00:00","4","48.6166666","133.8333333","52.0","SMIDOVICH, RS","FM-12","99999","V020","999,9,C,0000,1","22000,1,9,N","020000,1,N,1","-0205,1","-0224,1","10298,1","00,0001,9,1","","","","","","","02,99,1,00,1,00,1,99999,9,00,1,02,1","","","999,M,-0096,1","99999,9,10226,1","2,1,007,1,+999,9","","","SYN082AAXX  04121 31725 12998 20000 11205 21224 30226 40298 52007 69920 80002 333 11096;",
"31725099999","2000-01-04T15:00:00","4","48.6166666","133.8333333","52.0","SMIDOVICH, RS","FM-12","99999","V020","999,9,C,0000,1","99999,9,9,N","020000,1,N,1","-0221,1","-0240,1","10305,1","","","","","","","","08,99,1,02,1,00,1,99999,9,04,1,02,1","","","","","2,1,006,1,+999,9","","","SYN060AAXX  04151 31725 42998 80000 11221 21240 40305 52006 82042;",
"31725099999","2000-01-04T18:00:00","4","48.6166666","133.8333333","52.0","SMIDOVICH, RS","FM-12","99999","V020","999,9,C,0000,1","09000,1,9,N","020000,1,N,1","-0210,1","-0228,1","10309,1","","","","1,1,06,1","1,1,06,1","","","08,99,1,02,1,03,1,00450,1,00,1,02,1","","","","","2,1,005,1,+999,9","26,1","","SYN066AAXX  04181 31725 41498 80000 11210 21228 40309 52005 72611 82302;",
"31725099999","2000-01-04T21:00:00","4","48.6166666","133.8333333","52.0","SMIDOVICH, RS","FM-12","99999","V020","999,9,C,0000,1","09000,1,9,N","020000,1,N,1","-0215,1","-0233,1","10313,1","","","","","","","","08,99,1,03,1,03,1,00450,1,00,1,02,1","","","","","2,1,003,1,+999,9","","","SYN060AAXX  04211 31725 /2498 80000 11215 21233 40313 52003 83302;",
"31725099999","2000-01-05T00:00:00","4","48.6166666","133.8333333","52.0","SMIDOVICH, RS","FM-12","99999","V020","999,9,C,0000,1","09000,1,9,N","020000,1,N,1","-0211,1","-0229,1","10321,1","00,0007,9,1","","","","","","","06,99,1,02,1,03,1,00450,1,00,1,02,1","23,9","","120,N,-0221,1","99999,9,10249,1","2,1,009,1,+999,9","","","SYN088AAXX  05001 31725 12498 60000 11211 21229 30249 40321 52009 69900 82302 333 21221 47011;",
"31725099999","2000-01-05T03:00:00","4","48.6166666","133.8333333","52.0","SMIDOVICH, RS","FM-12","99999","V020","999,9,C,0000,1","99999,9,9,N","020000,1,N,1","-0168,1","-0202,1","10322,1","","","","","","","","07,99,1,02,1,00,1,99999,9,04,1,02,1","","","","","1,1,002,1,+999,9","","","SYN060AAXX  05031 31725 42998 70000 11168 21202 40322 51002 82042;",
"31725099999","2000-01-05T06:00:00","4","48.6166666","133.8333333","52.0","SMIDOVICH, RS","FM-12","99999","V020","999,9,C,0000,1","22000,1,9,N","020000,1,N,1","-0158,1","-0200,1","10316,1","","","","","","","","02,99,1,01,1,00,1,99999,9,04,1,02,1","","","","","8,1,007,1,+999,9","","","SYN060AAXX  05061 31725 42998 20000 11158 21200 40316 58007 81042;",
"31725099999","2000-01-05T09:00:00","4","48.6166666","133.8333333","52.0","SMIDOVICH, RS","FM-12","99999","V020","999,9,C,0000,1","22000,1,9,N","020000,1,N,1","-0208,1","-0226,1","10315,1","06,0000,9,1","","","","","","","02,99,1,00,1,00,1,99999,9,00,1,02,1","","","999,M,-0138,1","","6,1,002,1,+999,9","","","SYN070AAXX  05091 31725 32998 20000 11208 21226 40315 56002 80002 333 11138;","Q01  00002PRCP06"
"31725099999","2000-01-05T12:00:00","4","48.6166666","133.8333333","52.0","SMIDOVICH, RS","FM-12","99999","V020","999,9,C,0000,1","22000,1,9,N","020000,1,N,1","-0218,1","-0236,1","10328,1","06,0000,9,1","","","","","","","02,99,1,00,1,00,1,99999,9,00,1,02,1","","","999,M,-0138,1","99999,9,10255,1","3,1,012,1,+999,9","","","SYN076AAXX  05121 31725 32998 20000 11218 21236 30255 40328 53012 80002 333 11138;","Q01  00002PRCP06"
"31725099999","2000-01-05T15:00:00","4","48.6166666","133.8333333","52.0","SMIDOVICH, RS","FM-12","99999","V020","999,9,C,0000,1","22000,1,9,N","020000,1,N,1","-0245,1","-0263,1","10329,1","","","","","","","","02,99,1,00,1,00,1,99999,9,00,1,02,1","","","","","4,1,000,1,+999,9","","","SYN060AAXX  05151 31725 42998 20000 11245 21263 40329 54000 80002;",
"31725099999","2000-01-05T18:00:00","4","48.6166666","133.8333333","52.0","SMIDOVICH, RS","FM-12","99999","V020","999,9,C,0000,1","22000,1,9,N","020000,1,N,1","-0248,1","-0266,1","10317,1","","","","","","","","03,99,1,02,1,00,1,99999,9,04,1,02,1","","","","","8,1,012,1,+999,9","","","SYN060AAXX  05181 31725 42998 30000 11248 21266 40317 58012 82042;",
"31725099999","2000-01-05T21:00:00","4","48.6166666","133.8333333","52.0","SMIDOVICH, RS","FM-12","99999","V020","999,9,C,0000,1","99999,9,9,N","020000,1,N,1","-0223,1","-0241,1","10286,1","06,0000,9,1","","","","","","","05,99,1,05,1,00,1,99999,9,04,1,00,1","","","","","7,1,030,1,+999,9","","","SYN060AAXX  05211 31725 32998 50000 11223 21241 40286 57030 85040;","Q01  00002PRCP06"
"31725099999","2000-01-06T03:00:00","4","48.6166666","133.8333333","52.0","SMIDOVICH, RS","FM-12","99999","V020","050,1,N,0040,1","02100,1,9,N","020000,1,N,1","-0156,1","-0175,1","10229,1","","","","","","","","08,99,1,08,1,00,1,02250,1,02,1,99,9","","","","","7,1,047,1,+999,9","","","SYN060AAXX  06031 31725 42898 80504 11156 21175 40229 57047 8802/;",
"31725099999","2000-01-06T06:00:00","4","48.6166666","133.8333333","52.0","SMIDOVICH, RS","FM-12","99999","V020","050,1,N,0040,1","02100,1,9,N","020000,1,N,1","-0111,1","-0139,1","10189,1","","","","","","","","08,99,1,08,1,00,1,02250,1,02,1,99,9","","","","","7,1,038,1,+999,9","","","SYN060AAXX  06061 31725 42898 80504 11111 21139 40189 57038 8802/;",
"31725099999","2000-01-06T09:00:00","4","48.6166666","133.8333333","52.0","SMIDOVICH, RS","FM-12","99999","V020","050,1,N,0040,1","02100,1,9,N","020000,1,N,1","-0102,1","-0138,1","10155,1","06,0000,9,1","","","","","","","08,99,1,08,1,00,1,02250,1,02,1,99,9","","","999,M,-0095,1","","7,1,034,1,+999,9","","","SYN070AAXX  06091 31725 32898 80504 11102 21138 40155 57034 8802/ 333 11095;","Q01  00002PRCP06"
"31725099999","2000-01-06T12:00:00","4","48.6166666","133.8333333","52.0","SMIDOVICH, RS","FM-12","99999","V020","050,1,N,0080,1","02100,1,9,N","000000,1,N,1","-0080,1","-0090,1","10126,1","06,0000,2,1","","","7,1,06,1","3,1,06,1","","","08,99,1,08,1,00,1,02250,1,02,1,99,9","","","120,M,+9999,9","99999,9,10057,1","7,1,029,1,+999,9","73,1","4,99,0120,1","SYN094AAXX  06121 31725 31890 80508 11080 21090 30057 40126 57029 77373 8802/ 333 11095 91112 92993;","Q01 -00952ATMX  "
"31725099999","2000-01-06T15:00:00","4","48.6166666","133.8333333","52.0","SMIDOVICH, RS","FM-12","99999","V020","050,1,N,0100,1","02100,1,9,N","000000,1,N,1","-0083,1","-0093,1","10074,1","","","","7,1,03,1","3,1,03,1","","","08,99,1,08,1,00,1,02250,1,02,1,99,9","","","","","7,1,051,1,+999,9","75,1","4,99,0200,1","SYN082AAXX  06151 31725 41890 80510 11083 21093 40074 57051 77573 8802/ 333 91120 92992;",
"31725099999","2000-01-06T21:00:00","4","48.6166666","133.8333333","52.0","SMIDOVICH, RS","FM-12","99999","V020","050,1,N,0100,1","02100,1,9,N","000200,1,N,1","-0035,1","-0049,1","09969,2","","","","7,1,03,1","3,1,03,1","","","08,99,1,08,1,00,1,02250,1,02,1,99,9","","","","","7,1,052,2,+999,9","71,1","4,99,0200,1","SYN082AAXX  06211 31725 /1892 80510 11035 21049 49969 57052 77173 8802/ 333 91120 92992;","Q01+099693APOSLPQ02+000522APC3  "
"31725099999","2000-01-07T00:00:00","4","48.6166666","133.8333333","52.0","SMIDOVICH, RS","FM-12","99999","V020","140,1,N,0120,1","02100,1,9,N","000200,1,N,1","-0163,1","-0189,1","09977,1","00,0079,9,1","0011,9,1,999999,9,9","","7,1,06,1","3,1,06,1","","","08,99,1,08,1,00,1,02250,1,02,1,99,9","24,9","","120,N,-0163,1","99999,9,09908,1","3,1,006,1,+999,9","71,1","4,01,0120,1","SYN106AAXX  07001 31725 11892 81412 11163 21189 39908 49977 53006 60080 77173 8802/ 333 21163 48011 91012 91120;",
"31725099999","2000-01-07T03:00:00","4","48.6166666","133.8333333","52.0","SMIDOVICH, RS","FM-12","99999","V020","180,1,N,0120,1","00750,1,9,N","000100,1,N,1","-0190,1","-0216,1","10002,1","","","","7,1,03,1","3,1,03,1","","","08,99,1,08,1,00,1,00800,1,02,1,99,9","","","","","2,1,024,1,+999,9","73,1","4,99,0200,1","SYN082AAXX  07031 31725 41591 81812 11190 21216 40002 52024 77373 8802/ 333 91120 92992;",
"31725099999","2000-01-07T09:00:00","4","48.6166666","133.8333333","52.0","SMIDOVICH, RS","FM-12","99999","V020","180,1,N,0100,1","02100,1,9,N","000200,1,N,1","-0214,1","-0247,1","10041,1","","","","7,1,03,1","3,1,03,1","","","08,99,1,08,1,00,1,02250,1,02,1,99,9","","","120,M,-0035,1","","3,1,035,1,+999,9","71,1","4,99,0170,1","SYN088AAXX  07091 31725 /1892 81810 11214 21247 40041 53035 77173 8802/ 333 11035 91117 92992;",
"31725099999","2000-01-07T12:00:00","4","48.6166666","133.8333333","52.0","SMIDOVICH, RS","FM-12","99999","V020","230,1,N,0100,1","02100,1,9,N","000200,1,N,1","-0215,1","-0247,1","10064,1","","","","7,1,06,1","3,1,06,1","","","08,99,1,08,1,00,1,02250,1,02,1,99,9","","","","","2,1,022,1,+999,9","71,1","4,99,0170,1","SYN082AAXX  07121 31725 41892 82310 11215 21247 40064 52022 77173 8802/ 333 91117 92992;",
"31725099999","2000-01-07T15:00:00","4","48.6166666","133.8333333","52.0","SMIDOVICH, RS","FM-12","99999","V020","230,1,N,0100,1","99999,9,9,N","000200,1,N,1","-0227,1","-0259,1","10074,1","","","","7,1,03,1","3,1,03,1","","","08,99,1,05,1,00,1,99999,9,02,1,02,1","","","","","2,1,010,1,+999,9","27,1","4,99,0170,1","SYN082AAXX  07151 31725 41992 82310 11227 21259 40074 52010 72773 85022 333 91117 92992;",
"31725099999","2000-01-07T18:00:00","4","48.6166666","133.8333333","52.0","SMIDOVICH, RS","FM-12","99999","V020","250,1,N,0040,1","99999,9,9,N","020000,1,N,1","-0250,1","-0281,1","10084,1","","","","7,1,06,1","3,1,06,1","","","08,99,1,03,1,00,1,99999,9,04,1,02,1","","","","","2,1,009,1,+999,9","02,1","","SYN066AAXX  07181 31725 41998 82504 11250 21281 40084 52009 70273 83042;",
"31725099999","2000-01-07T21:00:00","4","48.6166666","133.8333333","52.0","SMIDOVICH, RS","FM-12","99999","V020","180,1,N,0020,1","99999,9,9,N","050000,1,N,1","-0255,1","-0286,1","10081,1","","","","","","","09,1,+99999,9,99,9","09,99,1,09,1,99,9,99999,9,99,9,99,9","","","","","8,1,007,1,+999,9","","","SYN060AAXX  07211 31725 /2999 91802 11255 21286 40081 58007 80001;",
"31725099999","2000-01-08T00:00:00","4","48.6166666","133.8333333","52.0","SMIDOVICH, RS","FM-12","99999","V020","999,9,C,0000,1","00420,1,9,N","010000,1,N,1","-0255,1","-0286,1","10083,1","00,0005,9,1","","","2,1,06,1","2,1,06,1","","","08,99,1,06,1,03,1,00450,1,04,1,02,1","24,9","","120,N,-0256,1","99999,9,10009,1","3,1,002,1,+999,9","10,1","","SYN094AAXX  08001 31725 11497 80000 11255 21286 30009 40083 53002 69940 71022 86342 333 21256 48010;",
"31725099999","2000-01-08T03:00:00","4","48.6166666","133.8333333","52.0","SMIDOVICH, RS","FM-12","99999","V020","999,9,C,0000,1","99999,9,9,N","010000,1,N,1","-0231,1","-0263,1","10080,1","","","","2,1,03,1","2,1,03,1","","","08,99,1,00,1,00,1,99999,9,00,1,07,1","","","","","8,1,002,1,+999,9","10,1","","SYN066AAXX  08031 31725 41997 80000 11231 21263 40080 58002 71022 80007;",
"31725099999","2000-01-08T06:00:00","4","48.6166666","133.8333333","52.0","SMIDOVICH, RS","FM-12","99999","V020","999,9,C,0000,1","99999,9,9,N","004000,1,N,1","-0209,1","-0242,1","10079,1","","","","7,1,06,1","2,1,06,1","","","08,99,1,00,1,00,1,99999,9,00,1,07,1","","","","","4,1,000,1,+999,9","71,1","","SYN066AAXX  08061 31725 41996 80000 11209 21242 40079 54000 77172 80007;",
"31725099999","2000-01-08T09:00:00","4","48.6166666","133.8333333","52.0","SMIDOVICH, RS","FM-12","99999","V020","050,1,N,0010,1","22000,1,9,N","010000,1,N,1","-0244,1","-0276,1","10082,1","","","","7,1,03,1","1,1,03,1","","","03,99,1,00,1,00,1,99999,9,00,1,02,1","","","999,M,-0201,1","","3,1,002,1,+999,9","10,1","","SYN076AAXX  08091 31725 /1997 30501 11244 21276 40082 53002 71071 80002 333 11201;",
"31725099999","2000-01-08T12:00:00","4","48.6166666","133.8333333","52.0","SMIDOVICH, RS","FM-12","99999","V020","360,1,N,0010,1","22000,1,9,N","020000,1,N,1","-0264,1","-0295,1","10099,1","00,0001,9,1","","","7,1,06,1","1,1,06,1","","00,1,+99999,9,99,9","00,99,1,00,1,00,1,99999,9,00,1,00,1","","","999,M,-0201,1","99999,9,10025,1","2,1,016,1,+999,9","01,1","","SYN082AAXX  08121 31725 11998 03601 11264 21295 30025 40099 52016 69920 70171 333 11201;",
"31725099999","2000-01-08T15:00:00","4","48.6166666","133.8333333","52.0","SMIDOVICH, RS","FM-12","99999","V020","360,1,N,0010,1","22000,1,9,N","020000,1,N,1","-0277,1","-0308,1","10112,1","","","","","","","00,1,+99999,9,99,9","00,99,1,00,1,00,1,99999,9,00,1,00,1","","","","","2,1,013,1,+999,9","","","SYN054AAXX  08151 31725 42998 03601 11277 21308 40112 52013;",
"31725099999","2000-01-08T18:00:00","4","48.6166666","133.8333333","52.0","SMIDOVICH, RS","FM-12","99999","V020","999,9,C,0000,1","00420,1,9,N","010000,1,N,1","-0290,1","-0320,1","10123,1","","","","8,1,06,1","8,1,06,1","","","08,99,1,08,1,03,1,00450,1,99,9,99,9","","","","","2,1,010,1,+999,9","85,1","","SYN066AAXX  08181 31725 41497 80000 11290 21320 40123 52010 78588 883//;",
"31725099999","2000-01-08T21:00:00","4","48.6166666","133.8333333","52.0","SMIDOVICH, RS","FM-12","99999","V020","999,9,C,0000,1","99999,9,9,N","010000,1,N,1","-0260,1","-0291,1","99999,9","","","","","","","","08,99,1,99,9,99,9,00450,1,99,9,99,9","","","","","","","","SYN065AAXX  08211 31725 /1497 80000 11260 21291 4012 52010 78582 883//;",
"31725099999","2000-01-09T00:00:00","4","48.6166666","133.8333333","52.0","SMIDOVICH, RS","FM-12","99999","V020","999,9,C,0000,1","00420,1,9,N","020000,1,N,1","-0255,1","-0286,1","10157,1","00,0003,9,1","","","8,1,06,1","2,1,06,1","","","08,99,1,06,1,03,1,00450,1,04,1,99,9","23,9","","120,N,-0301,1","99999,9,10083,1","2,1,025,1,+999,9","01,1","","SYN094AAXX  09001 31725 12498 80000 11255 21286 30083 40157 52025 69930 70182 8634/ 333 21301 47012;",
"31725099999","2000-01-09T03:00:00","4","48.6166666","133.8333333","52.0","SMIDOVICH, RS","FM-12","99999","V020","999,9,C,0000,1","00420,1,9,N","004000,1,N,1","-0219,1","-0251,1","10165,1","","","","7,1,03,1","2,1,03,1","","","08,99,1,08,1,03,1,00450,1,99,9,99,9","","","","","2,1,009,1,+999,9","71,1","","SYN066AAXX  09031 31725 41496 80000 11219 21251 40165 52009 77172 883//;",
"31725099999","2000-01-09T09:00:00","4","48.6166666","133.8333333","52.0","SMIDOVICH, RS","FM-12","99999","V020","999,9,C,0000,1","00420,1,9,N","004000,1,N,1","-0198,1","-0231,1","10180,1","","","","8,1,03,1","2,1,03,1","","","08,99,1,08,1,03,1,00450,1,99,9,99,9","","","999,M,-0192,1","","2,1,010,1,+999,9","85,1","","SYN076AAXX  09091 31725 /2496 80000 11198 21231 40180 52010 78582 883// 333 11192;",
"31725099999","2000-01-09T12:00:00","4","48.6166666","133.8333333","52.0","SMIDOVICH, RS","FM-12","99999","V020","999,9,C,0000,1","03600,1,9,N","020000,1,N,1","-0220,1","-0245,1","10190,1","00,0005,9,1","","","8,1,06,1","2,1,06,1","","","06,99,1,03,1,03,1,00450,1,04,1,99,9","","","999,M,-0192,1","99999,9,10117,1","2,1,009,1,+999,9","01,1","","SYN088AAXX  09121 31725 11498 60000 11220 21245 30117 40190 52009 69960 70182 8334/ 333 11192;",
"31725099999","2000-01-09T15:00:00","4","48.6166666","133.8333333","52.0","SMIDOVICH, RS","FM-12","99999","V020","999,9,C,0000,1","00420,1,9,N","020000,1,N,1","-0212,1","-0237,1","10190,1","","","","","","","","06,99,1,06,1,03,1,00450,1,04,1,99,9","","","","","1,1,001,1,+999,9","","","SYN060AAXX  09151 31725 42498 60000 11212 21237 40190 51001 8634/;",
"31725099999","2000-01-09T18:00:00","4","48.6166666","133.8333333","52.0","SMIDOVICH, RS","FM-12","99999","V020","999,9,C,0000,1","99999,9,9,N","020000,1,N,1","-0219,1","-0244,1","10189,1","","","","","","","","06,99,1,06,1,00,1,99999,9,04,1,00,1","","","","","8,1,002,1,+999,9","","","SYN060AAXX  09181 31725 42998 60000 11219 21244 40189 58002 86040;",
"31725099999","2000-01-09T21:00:00","4","48.6166666","133.8333333","52.0","SMIDOVICH, RS","FM-12","99999","V020","999,9,C,0000,1","99999,9,9,N","020000,1,N,1","-0230,1","-0255,1","10187,1","","","","","","","","06,99,1,06,1,00,1,99999,9,04,1,00,1","","","","","6,1,002,1,+999,9","","","SYN060AAXX  09211 31725 /2998 60000 11230 21255 40187 56002 86040;",
"31725099999","2000-01-10T00:00:00","4","48.6166666","133.8333333","52.0","SMIDOVICH, RS","FM-12","99999","V020","180,1,N,0010,1","00420,1,9,N","010000,1,N,1","-0209,1","-0234,1","10199,1","00,0003,9,1","","","2,1,06,1","2,1,06,1","","","08,99,1,05,1,03,1,00450,1,04,1,99,9","24,9","","120,N,-0230,1","99999,9,10127,1","3,1,013,1,+999,9","10,1","","SYN094AAXX  10001 31725 11497 81801 11209 21234 30127 40199 53013 69930 71022 8534/ 333 21230 48013;",
"31725099999","2000-01-10T03:00:00","4","48.6166666","133.8333333","52.0","SMIDOVICH, RS","FM-12","99999","V020","180,1,N,0010,1","00420,1,9,N","004000,1,N,1","-0185,1","-0218,1","10206,1","","","","8,1,03,1","2,1,03,1","","","08,99,1,06,1,03,1,00450,1,04,1,99,9","","","","","2,1,007,1,+999,9","85,1","","SYN066AAXX  10031 31725 41496 81801 11185 21218 40206 52007 78582 8634/;",
"31725099999","2000-01-10T06:00:00","4","48.6166666","133.8333333","52.0","SMIDOVICH, RS","FM-12","99999","V020","200,1,N,0010,1","03600,1,9,N","020000,1,N,1","-0165,1","-0199,1","10205,1","","","","8,1,06,1","2,1,06,1","","","08,99,1,02,1,03,1,00450,1,04,1,01,1","","","","","4,1,000,1,+999,9","01,1","","SYN066AAXX  10061 31725 41498 82001 11165 21199 40205 54000 70182 82341;",
"31725099999","2000-01-10T09:00:00","4","48.6166666","133.8333333","52.0","SMIDOVICH, RS","FM-12","99999","V020","230,1,N,0010,1","99999,9,9,N","020000,1,N,1","-0173,1","-0207,1","10214,1","","","","8,1,03,1","1,1,03,1","","","08,99,1,05,1,00,1,99999,9,04,1,02,1","","","999,M,-0159,1","","3,1,009,1,+999,9","01,1","","SYN076AAXX  10091 31725 /1998 82301 11173 21207 40214 53009 70181 85042 333 11159;",
"31725099999","2000-01-10T12:00:00","4","48.6166666","133.8333333","52.0","SMIDOVICH, RS","FM-12","99999","V020","230,1,N,0010,1","22000,1,9,N","020000,1,N,1","-0222,1","-0247,1","10238,1","00,0001,9,1","","","8,1,06,1","1,1,06,1","","","02,99,1,00,1,00,1,99999,9,00,1,02,1","","","999,M,-0159,1","99999,9,10165,1","2,1,022,1,+999,9","01,1","","SYN088AAXX  10121 31725 11998 22301 11222 21247 30165 40238 52022 69920 70181 80002 333 11159;",
"31725099999","2000-01-10T15:00:00","4","48.6166666","133.8333333","52.0","SMIDOVICH, RS","FM-12","99999","V020","230,1,N,0010,1","22000,1,9,N","020000,1,N,1","-0239,1","-0264,1","10251,1","","","","","","","00,1,+99999,9,99,9","00,99,1,00,1,00,1,99999,9,00,1,00,1","","","","","2,1,012,1,+999,9","","","SYN054AAXX  10151 31725 42998 02301 11239 21264 40251 52012;",
"31725099999","2000-01-10T18:00:00","4","48.6166666","133.8333333","52.0","SMIDOVICH, RS","FM-12","99999","V020","999,9,C,0000,1","22000,1,9,N","020000,1,N,1","-0236,1","-0268,1","10260,1","","","","","","","00,1,+99999,9,99,9","00,99,1,00,1,00,1,99999,9,00,1,00,1","","","","","2,1,009,1,+999,9","","","SYN054AAXX  10181 31725 42998 00000 11236 21268 40260 52009;",
"31725099999","2000-01-10T21:00:00","4","48.6166666","133.8333333","52.0","SMIDOVICH, RS","FM-12","99999","V020","320,1,N,0020,1","22000,1,9,N","020000,1,N,1","-0216,1","-0256,1","10265,1","06,0000,9,1","","","","","","00,1,+99999,9,99,9","00,99,1,00,1,00,1,99999,9,00,1,00,1","","","","","2,1,006,1,+999,9","","","SYN054AAXX  10211 31725 32998 03202 11216 21256 40265 52006;","Q01  00002PRCP06"
"31725099999","2000-01-11T00:00:00","4","48.6166666","133.8333333","52.0","SMIDOVICH, RS","FM-12","99999","V020","320,1,N,0030,1","99999,9,9,N","020000,1,N,1","-0231,1","-0270,1","10281,1","06,0000,9,1","","","","","","","08,99,1,00,1,00,1,99999,9,00,1,04,1","24,9","","120,N,-0299,1","99999,9,10208,1","2,1,016,1,+999,9","","","SYN082AAXX  11001 31725 32998 83203 11231 21270 30208 40281 52016 80004 333 21299 48013;","Q01  00002PRCP06"
"31725099999","2000-01-11T03:00:00","4","48.6166666","133.8333333","52.0","SMIDOVICH, RS","FM-12","99999","V020","230,1,N,0020,1","22000,1,9,N","020000,1,N,1","-0180,1","-0248,1","10283,1","","","","","","","","02,99,1,00,1,00,1,99999,9,00,1,02,1","","","","","2,1,003,1,+999,9","","","SYN060AAXX  11031 31725 42998 22302 11180 21248 40283 52003 80002;",
"31725099999","2000-01-11T06:00:00","4","48.6166666","133.8333333","52.0","SMIDOVICH, RS","FM-12","99999","V020","230,1,N,0010,1","22000,1,9,N","020000,1,N,1","-0205,1","-0272,1","10289,1","","","","","","","","02,99,1,00,1,00,1,99999,9,00,1,02,1","","","","","2,1,006,1,+999,9","","","SYN060AAXX  11061 31725 42998 22301 11205 21272 40289 52006 80002;",
"31725099999","2000-01-11T09:00:00","4","48.6166666","133.8333333","52.0","SMIDOVICH, RS","FM-12","99999","V020","230,1,N,0010,1","22000,1,9,N","020000,1,N,1","-0237,1","-0276,1","10300,1","06,0000,9,1","","","","","","00,1,+99999,9,99,9","00,99,1,00,1,00,1,99999,9,00,1,00,1","","","999,M,-0157,1","","2,1,009,1,+999,9","","","SYN064AAXX  11091 31725 32998 02301 11237 21276 40300 52009 333 11157;","Q01  00002PRCP06"
"31725099999","2000-01-11T12:00:00","4","48.6166666","133.8333333","52.0","SMIDOVICH, RS","FM-12","99999","V020","999,9,C,0000,1","22000,1,9,N","020000,1,N,1","-0283,1","-0320,1","10301,1","06,0000,9,1","","","","","","00,1,+99999,9,99,9","00,99,1,00,1,00,1,99999,9,00,1,00,1","","","999,M,-0157,1","99999,9,10226,1","4,1,000,1,+999,9","","","SYN070AAXX  11121 31725 32998 00000 11283 21320 30226 40301 54000 333 11157;","Q01  00002PRCP06"
"31725099999","2000-01-11T15:00:00","4","48.6166666","133.8333333","52.0","SMIDOVICH, RS","FM-12","99999","V020","270,1,N,0010,1","22000,1,9,N","020000,1,N,1","-0270,1","-0301,1","10301,1","","","","","","","00,1,+99999,9,99,9","00,99,1,00,1,00,1,99999,9,00,1,00,1","","","","","4,1,000,1,+999,9","","","SYN054AAXX  11151 31725 42998 02701 11270 21301 40301 54000;",
"31725099999","2000-01-11T18:00:00","4","48.6166666","133.8333333","52.0","SMIDOVICH, RS","FM-12","99999","V020","270,1,N,0020,1","22000,1,9,N","020000,1,N,1","-0255,1","-0294,1","10283,1","","","","","","","00,1,+99999,9,99,9","00,99,1,00,1,00,1,99999,9,00,1,00,1","","","","","7,1,007,1,+999,9","","","SYN054AAXX  11181 31725 42998 02702 11255 21294 40283 57007;",
"31725099999","2000-01-11T21:00:00","4","48.6166666","133.8333333","52.0","SMIDOVICH, RS","FM-12","99999","V020","270,1,N,0020,1","22000,1,9,N","020000,1,N,1","-0273,1","-0304,1","10275,1","06,0000,9,1","","","","","","00,1,+99999,9,99,9","00,99,1,00,1,00,1,99999,9,00,1,00,1","","","","","7,1,009,1,+999,9","","","SYN054AAXX  11211 31725 32998 02702 11273 21304 40275 57009;","Q01  00002PRCP06"
"31725099999","2000-01-12T00:00:00","4","48.6166666","133.8333333","52.0","SMIDOVICH, RS","FM-12","99999","V020","180,1,N,0020,1","22000,1,9,N","020000,1,N,1","-0303,1","-0334,1","10276,1","06,0000,9,1","","","","","","00,1,+99999,9,99,9","00,99,1,00,1,00,1,99999,9,00,1,00,1","24,9","","120,N,-0305,1","99999,9,10200,1","4,1,000,1,+999,9","","","SYN076AAXX  12001 31725 32998 01802 11303 21334 30200 40276 54000 333 21305 48013;","Q01  00002PRCP06"
"31725099999","2000-01-12T03:00:00","4","48.6166666","133.8333333","52.0","SMIDOVICH, RS","FM-12","99999","V020","230,1,N,0020,1","22000,1,9,N","020000,1,N,1","-0231,1","-0278,1","10257,1","","","","","","","00,1,+99999,9,99,9","00,99,1,00,1,00,1,99999,9,00,1,00,1","","","","","8,1,016,1,+999,9","","","SYN054AAXX  12031 31725 42998 02302 11231 21278 40257 58016;",
"31725099999","2000-01-12T06:00:00","4","48.6166666","133.8333333","52.0","SMIDOVICH, RS","FM-12","99999","V020","999,9,C,0000,1","22000,1,9,N","020000,1,N,1","-0202,1","-0260,1","10237,1","","","","","","","","02,99,1,00,1,00,1,99999,9,00,1,02,1","","","","","7,1,019,1,+999,9","","","SYN060AAXX  12061 31725 42998 20000 11202 21260 40237 57019 80002;",
"31725099999","2000-01-12T09:00:00","4","48.6166666","133.8333333","52.0","SMIDOVICH, RS","FM-12","99999","V020","230,1,N,0010,1","22000,1,9,N","020000,1,N,1","-0239,1","-0264,1","10251,1","","","","","","","00,1,+99999,9,99,9","00,99,1,00,1,00,1,99999,9,00,1,00,1","","","","","2,1,012,1,+999,9","","","SYN054AAXX  12091 31725 42998 02301 11239 21264 40251 52012;",
"31725099999","2000-01-12T12:00:00","4","48.6166666","133.8333333","52.0","SMIDOVICH, RS","FM-12","99999","V020","230,1,N,0010,1","22000,1,9,N","020000,1,N,1","-0245,1","-0277,1","10228,1","06,0000,9,1","","","","","","","02,99,1,02,1,00,1,99999,9,04,1,00,1","","","999,M,-0199,1","99999,9,10154,1","7,1,006,1,+999,9","","","SYN076AAXX  12121 31725 32998 22301 11245 21277 30154 40228 57006 82040 333 11199;","Q01  00002PRCP06"
"31725099999","2000-01-12T15:00:00","4","48.6166666","133.8333333","52.0","SMIDOVICH, RS","FM-12","99999","V020","230,1,N,0020,1","22000,1,9,N","020000,1,N,1","-0258,1","-0289,1","10218,1","","","","","","","","02,99,1,00,1,00,1,99999,9,00,1,02,1","","","","","7,1,010,1,+999,9","","","SYN060AAXX  12151 31725 42998 22302 11258 21289 40218 57010 80002;",
"31725099999","2000-01-12T21:00:00","4","48.6166666","133.8333333","52.0","SMIDOVICH, RS","FM-12","99999","V020","999,9,C,0000,1","22000,1,9,N","020000,1,N,1","-0245,1","-0277,1","10215,1","06,0000,9,1","","","","","","00,1,+99999,9,99,9","00,99,1,00,1,00,1,99999,9,00,1,00,1","","","","","6,1,002,1,+999,9","","","SYN054AAXX  12211 31725 32998 00000 11245 21277 40215 56002;","Q01  00002PRCP06"
"31725099999","2000-01-13T00:00:00","4","48.6166666","133.8333333","52.0","SMIDOVICH, RS","FM-12","99999","V020","270,1,N,0010,1","22000,1,9,N","020000,1,N,1","-0289,1","-0320,1","10223,1","06,0000,9,1","","","","","","00,1,+99999,9,99,9","00,99,1,00,1,00,1,99999,9,00,1,00,1","24,9","","120,N,-0315,1","99999,9,10148,1","3,1,007,1,+999,9","","","SYN076AAXX  13001 31725 32998 02701 11289 21320 30148 40223 53007 333 21315 48013;","Q01  00002PRCP06"
"31725099999","2000-01-13T03:00:00","4","48.6166666","133.8333333","52.0","SMIDOVICH, RS","FM-12","99999","V020","230,1,N,0030,1","22000,1,9,N","020000,1,N,1","-0230,1","-0263,1","10221,1","","","","","","","00,1,+99999,9,99,9","00,99,1,00,1,00,1,99999,9,00,1,00,1","","","","","4,1,000,1,+999,9","","","SYN054AAXX  13031 31725 42998 02303 11230 21263 40221 54000;",
"31725099999","2000-01-13T06:00:00","4","48.6166666","133.8333333","52.0","SMIDOVICH, RS","FM-12","99999","V020","230,1,N,0020,1","22000,1,9,N","020000,1,N,1","-0213,1","-0270,1","10221,1","","","","","","","00,1,+99999,9,99,9","00,99,1,00,1,00,1,99999,9,00,1,00,1","","","","","1,1,001,1,+999,9","","","SYN054AAXX  13061 31725 42998 02302 11213 21270 40221 51001;",
"31725099999","2000-01-13T09:00:00","4","48.6166666","133.8333333","52.0","SMIDOVICH, RS","FM-12","99999","V020","999,9,C,0000,1","22000,1,9,N","020000,1,N,1","-0260,1","-0298,1","10233,1","06,0000,9,1","","","","","","00,1,+99999,9,99,9","00,99,1,00,1,00,1,99999,9,00,1,00,1","","","999,M,-0203,1","","2,1,010,1,+999,9","","","SYN064AAXX  13091 31725 32998 00000 11260 21298 40233 52010 333 11203;","Q01  00002PRCP06"
"31725099999","2000-01-13T12:00:00","4","48.6166666","133.8333333","52.0","SMIDOVICH, RS","FM-12","99999","V020","999,9,C,0000,1","22000,1,9,N","020000,1,N,1","-0303,1","-0334,1","10241,1","06,0000,9,1","","","","","","00,1,+99999,9,99,9","00,99,1,00,1,00,1,99999,9,00,1,00,1","","","999,M,-0203,1","99999,9,10165,1","2,1,006,1,+999,9","","","SYN070AAXX  13121 31725 32998 00000 11303 21334 30165 40241 52006 333 11203;","Q01  00002PRCP06"
"31725099999","2000-01-13T15:00:00","4","48.6166666","133.8333333","52.0","SMIDOVICH, RS","FM-12","99999","V020","999,9,C,0000,1","22000,1,9,N","020000,1,N,1","-0318,1","-0347,1","10245,1","","","","","","","00,1,+99999,9,99,9","00,99,1,00,1,00,1,99999,9,00,1,00,1","","","","","8,1,003,1,+999,9","","","SYN054AAXX  13151 31725 42998 00000 11318 21347 40245 58003;",
"31725099999","2000-01-13T18:00:00","4","48.6166666","133.8333333","52.0","SMIDOVICH, RS","FM-12","99999","V020","999,9,C,0000,1","22000,1,9,N","020000,1,N,1","-0341,1","-0371,1","10246,1","","","","","","","00,1,+99999,9,99,9","00,99,1,00,1,00,1,99999,9,00,1,00,1","","","","","4,1,000,1,+999,9","","","SYN054AAXX  13181 31725 42998 00000 11341 21371 40246 54000;",
"31725099999","2000-01-13T21:00:00","4","48.6166666","133.8333333","52.0","SMIDOVICH, RS","FM-12","99999","V020","999,9,C,0000,1","22000,1,9,N","020000,1,N,1","-0356,1","-0383,1","10252,1","99,0000,9,1","","","","","","00,1,+99999,9,99,9","00,99,1,00,1,00,1,99999,9,00,1,00,1","","","","","2,1,006,1,+999,9","","","SYN058    AAXX  13211 31725 32998 00000 11356 21383 40252 52006;","Q01  00002PRCP99"
"31725099999","2000-01-14T00:00:00","4","48.6166666","133.8333333","52.0","SMIDOVICH, RS","FM-12","99999","V020","999,9,C,0000,1","22000,1,9,N","010000,1,N,1","-0336,1","-0372,1","10262,1","99,0000,9,1","0013,9,1,999999,9,9","","0,1,06,1","0,1,06,1","","00,1,+99999,9,99,9","00,99,1,00,1,00,1,99999,9,00,1,00,1","24,9","","120,N,-0360,1","99999,9,10184,1","2,1,010,1,+999,9","10,1","","SYN086    AAXX  14001 31725 31997 00000 11336 21372 30184 40262 52010 71000 333 21360 48013;","Q01  00002PRCP99"
"31725099999","2000-01-14T03:00:00","4","48.6166666","133.8333333","52.0","SMIDOVICH, RS","FM-12","99999","V020","230,1,N,0020,1","22000,1,9,N","020000,1,N,1","-0255,1","-0286,1","10263,1","","","","","","","00,1,+99999,9,99,9","00,99,1,00,1,00,1,99999,9,00,1,00,1","","","","","2,1,005,1,+999,9","","","SYN058    AAXX  14031 31725 42998 02302 11255 21286 40263 52005;",
"31725099999","2000-01-14T06:00:00","4","48.6166666","133.8333333","52.0","SMIDOVICH, RS","FM-12","99999","V020","999,9,C,0000,1","22000,1,9,N","020000,1,N,1","-0244,1","-0300,1","10264,1","","","","","","","00,1,+99999,9,99,9","00,99,1,00,1,00,1,99999,9,00,1,00,1","","","","","1,1,001,1,+999,9","","","SYN058    AAXX  14061 31725 42998 00000 11244 21300 40264 51001;",
"31725099999","2000-01-14T09:00:00","4","48.6166666","133.8333333","52.0","SMIDOVICH, RS","FM-12","99999","V020","999,9,C,0000,1","22000,1,9,N","020000,1,N,1","-0285,1","-0315,1","10277,1","99,0000,9,1","","","","","","00,1,+99999,9,99,9","00,99,1,00,1,00,1,99999,9,00,1,00,1","","","999,M,-0211,1","","3,1,011,1,+999,9","","","SYN068    AAXX  14091 31725 32998 00000 11285 21315 40277 53011 333 11211;","Q01  00002PRCP99"
"31725099999","2000-01-14T12:00:00","4","48.6166666","133.8333333","52.0","SMIDOVICH, RS","FM-12","99999","V020","999,9,C,0000,1","22000,1,9,N","020000,1,N,1","-0290,1","-0320,1","10287,1","99,0000,9,1","","","","","","00,1,+99999,9,99,9","00,99,1,00,1,00,1,99999,9,00,1,00,1","","","999,M,-0211,1","99999,9,10211,1","2,1,010,1,+999,9","","","SYN074    AAXX  14121 31725 32998 00000 11290 21320 30211 40287 52010 333 11211;","Q01  00002PRCP99"
"31725099999","2000-01-14T15:00:00","4","48.6166666","133.8333333","52.0","SMIDOVICH, RS","FM-12","99999","V020","999,9,C,0000,1","22000,1,9,N","020000,1,N,1","-0301,1","-0332,1","10294,1","","","","","","","00,1,+99999,9,99,9","00,99,1,00,1,00,1,99999,9,00,1,00,1","","","","","2,1,007,1,+999,9","","","SYN058    AAXX  14151 31725 42998 00000 11301 21332 40294 52007;",
"31725099999","2000-01-14T18:00:00","4","48.6166666","133.8333333","52.0","SMIDOVICH, RS","FM-12","99999","V020","999,9,C,0000,1","22000,1,9,N","020000,1,N,1","-0330,1","-0362,1","10300,1","","","","","","","00,1,+99999,9,99,9","00,99,1,00,1,00,1,99999,9,00,1,00,1","","","","","2,1,005,1,+999,9","","","SYN058    AAXX  14181 31725 42998 00000 1133/ 21362 40300 52005;",
"31725099999","2000-01-14T21:00:00","4","48.6166666","133.8333333","52.0","SMIDOVICH, RS","FM-12","99999","V020","999,9,C,0000,1","22000,1,9,N","020000,1,N,1","-0335,1","-0365,1","10301,1","99,0000,9,1","","","","","","00,1,+99999,9,99,9","00,99,1,00,1,00,1,99999,9,00,1,00,1","","","","","4,1,000,1,+999,9","","","SYN058    AAXX  14211 31725 32998 00000 11335 21365 40301 54000;","Q01  00002PRCP99"
"31725099999","2000-01-15T00:00:00","4","48.6166666","133.8333333","52.0","SMIDOVICH, RS","FM-12","99999","V020","999,9,C,0000,1","22000,1,9,N","002000,1,N,1","-0339,1","-0368,1","10312,1","99,0000,9,1","0013,9,1,999999,9,9","","0,1,06,1","0,1,06,1","","","02,99,1,02,1,00,1,99999,9,04,1,02,1","24,9","","120,N,-0370,1","99999,9,10234,1","3,1,011,1,+999,9","10,1","","SYN092    AAXX  15001 31725 31995 20000 11339 21368 30234 40312 53011 71000 82042 333 21370 48013;","Q01  00002PRCP99"
"31725099999","2000-01-15T03:00:00","4","48.6166666","133.8333333","52.0","SMIDOVICH, RS","FM-12","99999","V020","999,9,C,0000,1","22000,1,9,N","010000,1,N,1","-0278,1","-0309,1","10310,1","","","","0,1,03,1","0,1,03,1","","","02,99,1,02,1,00,1,99999,9,04,1,02,1","","","","","1,1,001,1,+999,9","10,1","","SYN070    AAXX  15031 31725 41997 20000 11278 21309 40310 51001 71000 82042;",
"31725099999","2000-01-15T06:00:00","4","48.6166666","133.8333333","52.0","SMIDOVICH, RS","FM-12","99999","V020","180,1,N,0010,1","99999,9,9,N","020000,1,N,1","-0256,1","-0295,1","10299,1","","","","","","","","08,99,1,05,1,00,1,99999,9,04,1,02,1","","","","","8,1,010,1,+999,9","","","SYN064    AAXX  15061 31725 42998 81801 11256 21295 40299 58010 85042;",
"31725099999","2000-01-15T09:00:00","4","48.6166666","133.8333333","52.0","SMIDOVICH, RS","FM-12","99999","V020","999,9,C,0000,1","22000,1,9,N","020000,1,N,1","-0278,1","-0317,1","10301,1","99,0000,9,1","","","","","","","02,99,1,02,1,00,1,99999,9,04,1,00,1","","","999,N,+9999,9","","3,1,001,1,+999,9","","","SYN074    AAXX  15091 31725 32998 20000 11278 21317 40301 53001 82040 333 21247;","Q01  00002PRCP99Q02 -02472ATMN  "
"31725099999","2000-01-15T12:00:00","4","48.6166666","133.8333333","52.0","SMIDOVICH, RS","FM-12","99999","V020","999,9,C,0000,1","99999,9,9,N","020000,1,N,1","-0293,1","-0324,1","10304,1","99,0000,9,1","","","","","","","05,99,1,03,1,00,1,99999,9,04,1,02,1","","","999,M,-0247,1","99999,9,10228,1","1,1,002,1,+999,9","","","SYN080    AAXX  15121 31725 32998 50000 11293 21324 30228 40304 51002 83042 333 11247;","Q01  00002PRCP99"
"31725099999","2000-01-15T15:00:00","4","48.6166666","133.8333333","52.0","SMIDOVICH, RS","FM-12","99999","V020","999,9,C,0000,1","99999,9,9,N","020000,1,N,1","-0314,1","-0342,1","10297,1","","","","","","","","08,99,1,05,1,00,1,99999,9,04,1,02,1","","","","","8,1,007,1,+999,9","","","SYN064    AAXX  15151 31725 42998 80000 11314 21342 40297 58007 85042;",
"31725099999","2000-01-15T18:00:00","4","48.6166666","133.8333333","52.0","SMIDOVICH, RS","FM-12","99999","V020","999,9,C,0000,1","22000,1,9,N","020000,1,N,1","-0318,1","-0347,1","10293,1","","","","","","","","02,99,1,00,1,00,1,99999,9,00,1,01,1","","","","","7,1,005,1,+999,9","","","SYN064    AAXX  15181 31725 42998 20000 11318 21347 40293 57005 80001;",
"31725099999","2000-01-15T21:00:00","4","48.6166666","133.8333333","52.0","SMIDOVICH, RS","FM-12","99999","V020","999,9,C,0000,1","22000,1,9,N","010000,1,N,1","-0330,1","-0360,1","10287,1","99,0000,9,1","","","0,1,03,1","0,1,03,1","","00,1,+99999,9,99,9","00,99,1,00,1,00,1,99999,9,00,1,00,1","","","","","7,1,006,1,+999,9","10,1","","SYN064    AAXX  15211 31725 31997 00000 11330 21360 40287 57006 71000;","Q01  00002PRCP99"
"31725099999","2000-01-16T00:00:00","4","48.6166666","133.8333333","52.0","SMIDOVICH, RS","FM-12","99999","V020","999,9,C,0000,1","99999,9,9,N","020000,1,N,1","-0339,1","-0368,1","10288,1","99,0000,9,1","0013,9,1,999999,9,9","","","","","","08,99,1,00,1,00,1,99999,9,00,1,02,1","24,9","","120,N,-0357,1","99999,9,10210,1","4,1,000,1,+999,9","","","SYN086    AAXX  16001 31725 32998 80000 11339 21368 30210 40288 54000 80002 333 21357 48013;","Q01  00002PRCP99"
"31725099999","2000-01-16T03:00:00","4","48.6166666","133.8333333","52.0","SMIDOVICH, RS","FM-12","99999","V020","230,1,N,0010,1","99999,9,9,N","020000,1,N,1","-0256,1","-0288,1","10279,1","","","","","","","","08,99,1,03,1,00,1,99999,9,04,1,02,1","","","","","8,1,005,1,+999,9","","","SYN064    AAXX  16031 31725 42998 82301 11256 21288 40279 58005 83042;",
"31725099999","2000-01-16T06:00:00","4","48.6166666","133.8333333","52.0","SMIDOVICH, RS","FM-12","99999","V020","230,1,N,0010,1","22000,1,9,N","020000,1,N,1","-0231,1","-0278,1","10266,1","","","","","","","","02,99,1,00,1,00,1,99999,9,00,1,02,1","","","","","7,1,012,1,+999,9","","","SYN064    AAXX  16061 31725 42998 22301 11231 21278 40266 57012 80002;",
"31725099999","2000-01-16T09:00:00","4","48.6166666","133.8333333","52.0","SMIDOVICH, RS","FM-12","99999","V020","999,9,C,0000,1","22000,1,9,N","020000,1,N,1","-0265,1","-0304,1","10268,1","99,0000,9,1","","","","","","00,1,+99999,9,99,9","00,99,1,00,1,00,1,99999,9,00,1,00,1","","","999,M,-0225,1","","4,1,000,1,+999,9","","","SYN068    AAXX  16091 31725 32998 00000 11265 21304 40268 54000 333 11225;","Q01  00002PRCP99"
"31725099999","2000-01-16T12:00:00","4","48.6166666","133.8333333","52.0","SMIDOVICH, RS","FM-12","99999","V020","999,9,C,0000,1","22000,1,9,N","020000,1,N,1","-0286,1","-0316,1","10274,1","99,0000,9,1","","","","","","00,1,+99999,9,99,9","00,99,1,00,1,00,1,99999,9,00,1,00,1","","","999,M,-0225,1","99999,9,10198,1","3,1,005,1,+999,9","","","SYN074    AAXX  16121 31725 32998 00000 11286 21316 30198 40274 53005 333 11225;","Q01  00002PRCP99"
"31725099999","2000-01-16T15:00:00","4","48.6166666","133.8333333","52.0","SMIDOVICH, RS","FM-12","99999","V020","999,9,C,0000,1","22000,1,9,N","020000,1,N,1","-0303,1","-0334,1","10266,1","","","","","","","00,1,+99999,9,99,9","00,99,1,00,1,00,1,99999,9,00,1,00,1","","","","","8,1,008,1,+999,9","","","SYN058    AAXX  16151 31725 42998 00000 11303 21334 40266 58008;",
"31725099999","2000-01-16T18:00:00","4","48.6166666","133.8333333","52.0","SMIDOVICH, RS","FM-12","99999","V020","999,9,C,0000,1","22000,1,9,N","010000,1,N,1","-0310,1","-0340,1","10269,1","","","","0,1,06,1","0,1,06,1","","00,1,+99999,9,99,9","00,99,1,00,1,00,1,99999,9,00,1,00,1","","","","","3,1,003,1,+999,9","10,1","","SYN064    AAXX  16181 31725 41997 00000 11310 21340 40269 53003 71000;",
"31725099999","2000-01-16T21:00:00","4","48.6166666","133.8333333","52.0","SMIDOVICH, RS","FM-12","99999","V020","999,9,C,0000,1","22000,1,9,N","010000,1,N,1","-0320,1","-0350,1","10275,1","99,0000,9,1","","","0,1,03,1","0,1,03,1","","00,1,+99999,9,99,9","00,99,1,00,1,00,1,99999,9,00,1,00,1","","","","","2,1,005,1,+999,9","10,1","","SYN064    AAXX  16211 31725 31997 00000 11320 21350 40275 52005 71000;","Q01  00002PRCP99"
"31725099999","2000-01-17T00:00:00","4","48.6166666","133.8333333","52.0","SMIDOVICH, RS","FM-12","99999","V020","999,9,C,0000,1","22000,1,9,N","010000,1,N,1","-0320,1","-0350,1","10288,1","99,0000,9,1","0013,9,1,999999,9,9","","0,1,06,1","0,1,06,1","","00,1,+99999,9,99,9","00,99,1,00,1,00,1,99999,9,00,1,00,1","24,9","","120,N,-0335,1","99999,9,10211,1","2,1,013,1,+999,9","10,1","","SYN086    AAXX  17001 31725 31997 00000 11320 21350 30211 40288 52013 71000 333 21335 48013;","Q01  00002PRCP99"
"31725099999","2000-01-17T03:00:00","4","48.6166666","133.8333333","52.0","SMIDOVICH, RS","FM-12","99999","V020","999,9,C,0000,1","22000,1,9,N","010000,1,N,1","-0262,1","-0294,1","10280,1","","","","0,1,03,1","0,1,03,1","","00,1,+99999,9,99,9","00,99,1,00,1,00,1,99999,9,00,1,00,1","","","","","8,1,006,1,+999,9","10,1","","SYN064    AAXX  17031 31725 41997 00000 11262 21294 40280 58006 71000;",
"31725099999","2000-01-17T06:00:00","4","48.6166666","133.8333333","52.0","SMIDOVICH, RS","FM-12","99999","V020","999,9,C,0000,1","22000,1,9,N","020000,1,N,1","-0241,1","-0289,1","10276,1","","","","","","","00,1,+99999,9,99,9","00,99,1,00,1,00,1,99999,9,00,1,00,1","","","","","7,1,004,1,+999,9","","","SYN058    AAXX  17061 31725 42998 00000 11241 21289 40276 57004;",
"31725099999","2000-01-17T09:00:00","4","48.6166666","133.8333333","52.0","SMIDOVICH, RS","FM-12","99999","V020","999,9,C,0000,1","22000,1,9,N","020000,1,N,1","-0290,1","-0320,1","10276,1","99,0000,9,1","","","","","","00,1,+99999,9,99,9","00,99,1,00,1,00,1,99999,9,00,1,00,1","","","999,M,-0229,1","","6,1,002,1,+999,9","","","SYN068    AAXX  17091 31725 32998 00000 11290 21320 40276 56002 333 11229;","Q01  00002PRCP99"
"31725099999","2000-01-17T12:00:00","4","48.6166666","133.8333333","52.0","SMIDOVICH, RS","FM-12","99999","V020","999,9,C,0000,1","22000,1,9,N","020000,1,N,1","-0308,1","-0338,1","10285,1","99,0000,9,1","","","","","","00,1,+99999,9,99,9","00,99,1,00,1,00,1,99999,9,00,1,00,1","","","999,M,-0229,1","99999,9,10209,1","3,1,009,1,+999,9","","","SYN074    AAXX  17121 31725 32998 00000 11308 21338 30209 40285 53009 333 11229;","Q01  00002PRCP99"
"31725099999","2000-01-17T15:00:00","4","48.6166666","133.8333333","52.0","SMIDOVICH, RS","FM-12","99999","V020","999,9,C,0000,1","22000,1,9,N","020000,1,N,1","-0310,1","-0340,1","10284,1","","","","","","","00,1,+99999,9,99,9","00,99,1,00,1,00,1,99999,9,00,1,00,1","","","","","8,1,001,1,+999,9","","","SYN058    AAXX  17151 31725 42998 00000 11310 21340 40284 58001;",
"31725099999","2000-01-17T18:00:00","4","48.6166666","133.8333333","52.0","SMIDOVICH, RS","FM-12","99999","V020","999,9,C,0000,1","22000,1,9,N","020000,1,N,1","-0342,1","-0371,1","10282,1","","","","","","","00,1,+99999,9,99,9","00,99,1,00,1,00,1,99999,9,00,1,00,1","","","","","7,1,004,1,+999,9","","","SYN058    AAXX  17181 31725 42998 00000 11342 21371 40282 57004;",
"31725099999","2000-01-17T21:00:00","4","48.6166666","133.8333333","52.0","SMIDOVICH, RS","FM-12","99999","V020","999,9,C,0000,1","22000,1,9,N","010000,1,N,1","-0345,1","-0374,1","10276,1","99,0000,9,1","","","0,1,03,1","0,1,03,1","","00,1,+99999,9,99,9","00,99,1,00,1,00,1,99999,9,00,1,00,1","","","","","7,1,006,1,+999,9","10,1","","SYN064    AAXX  17211 31725 31997 00000 11345 21374 40276 57006 71000;","Q01  00002PRCP99"
"31725099999","2000-01-18T00:00:00","4","48.6166666","133.8333333","52.0","SMIDOVICH, RS","FM-12","99999","V020","999,9,C,0000,1","22000,1,9,N","010000,1,N,1","-0335,1","-0365,1","10279,1","99,0000,9,1","0013,9,1,999999,9,9","","0,1,06,1","0,1,06,1","","00,1,+99999,9,99,9","00,99,1,00,1,00,1,99999,9,00,1,00,1","24,9","","120,N,-0396,1","99999,9,10201,1","3,1,003,1,+999,9","10,1","","SYN086    AAXX  18001 31725 31997 00000 11335 21365 30201 40279 53003 71000 333 21396 48013;","Q01  00002PRCP99"
"31725099999","2000-01-18T03:00:00","4","48.6166666","133.8333333","52.0","SMIDOVICH, RS","FM-12","99999","V020","999,9,C,0000,1","99999,9,9,N","010000,1,N,1","-0280,1","-0311,1","10279,1","","","","1,1,03,1","1,1,03,1","","","05,99,1,00,1,00,1,99999,9,00,1,02,1","","","","","2,1,003,1,+999,9","10,1","","SYN070    AAXX  18031 31725 41997 50000 11280 21311 40279 52003 71011 80002;",
"31725099999","2000-01-18T06:00:00","4","48.6166666","133.8333333","52.0","SMIDOVICH, RS","FM-12","99999","V020","999,9,C,0000,1","22000,1,9,N","010000,1,N,1","-0255,1","-0294,1","10265,1","","","","1,1,06,1","1,1,06,1","","00,1,+99999,9,99,9","00,99,1,00,1,00,1,99999,9,00,1,00,1","","","","","8,1,013,1,+999,9","10,1","","SYN064    AAXX  18061 31725 41997 00000 11255 21294 40265 58013 71011;",
"31725099999","2000-01-18T09:00:00","4","48.6166666","133.8333333","52.0","SMIDOVICH, RS","FM-12","99999","V020","999,9,C,0000,1","22000,1,9,N","010000,1,N,1","-0275,1","-0306,1","10267,1","99,0000,9,1","","","0,1,03,1","0,1,03,1","","00,1,+99999,9,99,9","00,99,1,00,1,00,1,99999,9,00,1,00,1","","","999,M,-0248,1","","3,1,001,1,+999,9","10,1","","SYN074    AAXX  18091 31725 31997 00000 11275 21306 40267 53001 71000 333 11248;","Q01  00002PRCP99"
"31725099999","2000-01-18T12:00:00","4","48.6166666","133.8333333","52.0","SMIDOVICH, RS","FM-12","99999","V020","999,9,C,0000,1","22000,1,9,N","010000,1,N,1","-0290,1","-0320,1","10268,1","99,0000,9,1","","","0,1,06,1","0,1,06,1","","00,1,+99999,9,99,9","00,99,1,00,1,00,1,99999,9,00,1,00,1","","","999,M,-0248,1","99999,9,10192,1","4,1,000,1,+999,9","10,1","","SYN080    AAXX  18121 31725 31997 00000 11290 21320 30192 40268 54000 71000 333 11248;","Q01  00002PRCP99"
"31725099999","2000-01-18T15:00:00","4","48.6166666","133.8333333","52.0","SMIDOVICH, RS","FM-12","99999","V020","999,9,C,0000,1","22000,1,9,N","010000,1,N,1","-0303,1","-0334,1","10267,1","","","","","","","00,1,+99999,9,99,9","00,99,1,00,1,00,1,99999,9,00,1,00,1","","","","","8,1,001,1,+999,9","","","SYN058    AAXX  18151 31725 41997 00000 11303 21334 40267 58001;",
"31725099999","2000-01-18T18:00:00","4","48.6166666","133.8333333","52.0","SMIDOVICH, RS","FM-12","99999","V020","999,9,C,0000,1","22000,1,9,N","010000,1,N,1","-0330,1","-0360,1","10269,1","","","","1,1,06,1","1,1,06,1","","00,1,+99999,9,99,9","00,99,1,00,1,00,1,99999,9,00,1,00,1","","","","","3,1,001,1,+999,9","10,1","","SYN064    AAXX  18181 31725 41997 00000 11330 21360 40269 53001 71011;",
"31725099999","2000-01-18T21:00:00","4","48.6166666","133.8333333","52.0","SMIDOVICH, RS","FM-12","99999","V020","999,9,C,0000,1","22000,1,9,N","010000,1,N,1","-0330,1","-0360,1","10262,1","99,0000,9,1","","","1,1,03,1","1,1,03,1","","00,1,+99999,9,99,9","00,99,1,00,1,00,1,99999,9,00,1,00,1","","","","","8,1,007,1,+999,9","10,1","","SYN064    AAXX  18211 31725 32997 00000 11330 21360 40262 58007 71011;","Q01  00002PRCP99"
"31725099999","2000-01-19T00:00:00","4","48.6166666","133.8333333","52.0","SMIDOVICH, RS","FM-12","99999","V020","999,9,C,0000,1","99999,9,9,N","010000,1,N,1","-0313,1","-0342,1","10267,1","99,0000,9,1","0013,9,1,999999,9,9","","1,1,06,1","1,1,06,1","","","08,99,1,05,1,00,1,99999,9,04,1,02,1","24,9","","120,N,-0330,1","99999,9,10191,1","7,1,006,1,+999,9","10,1","","SYN092    AAXX  19001 31725 31997 80000 11313 21342 30191 40267 57006 71011 85042 333 21330 48013;","Q01  00002PRCP99"
"31725099999","2000-01-19T03:00:00","4","48.6166666","133.8333333","52.0","SMIDOVICH, RS","FM-12","99999","V020","230,1,N,0010,1","22000,1,9,N","010000,1,N,1","-0249,1","-0281,1","10263,1","","","","1,1,03,1","1,1,03,1","","","03,99,1,02,1,00,1,99999,9,04,1,02,1","","","","","6,1,002,1,+999,9","10,1","","SYN070    AAXX  19031 31725 41997 32301 11249 21281 40263 56002 71011 82042;",
"31725099999","2000-01-19T06:00:00","4","48.6166666","133.8333333","52.0","SMIDOVICH, RS","FM-12","99999","V020","999,9,C,0000,1","22000,1,9,N","020000,1,N,1","-0206,1","-0263,1","10252,1","","","","","","","","02,99,1,00,1,00,1,99999,9,00,1,02,1","","","","","7,1,009,1,+999,9","","","SYN064    AAXX  19061 31725 42998 20000 11206 21263 40252 57009 80002;",
"31725099999","2000-01-19T09:00:00","4","48.6166666","133.8333333","52.0","SMIDOVICH, RS","FM-12","99999","V020","270,1,N,0010,1","22000,1,9,N","020000,1,N,1","-0269,1","-0307,1","10247,1","99,0000,9,1","","","","","","","03,99,1,03,1,00,1,99999,9,04,1,00,1","","","999,M,-0203,1","","7,1,008,1,+999,9","","","SYN074    AAXX  19091 31725 32998 32701 11269 21307 40247 57008 83040 333 11203;","Q01  00002PRCP99"
"31725099999","2000-01-19T12:00:00","4","48.6166666","133.8333333","52.0","SMIDOVICH, RS","FM-12","99999","V020","999,9,C,0000,1","22000,1,9,N","020000,1,N,1","-0255,1","-0286,1","10262,1","99,0000,9,1","","","","","","00,1,+99999,9,99,9","00,99,1,00,1,00,1,99999,9,00,1,00,1","","","999,M,-0203,1","99999,9,10188,1","3,1,016,1,+999,9","","","SYN074    AAXX  19121 31725 32998 00000 11255 21286 30188 40262 53016 333 11203;","Q01  00002PRCP99"
"31725099999","2000-01-19T15:00:00","4","48.6166666","133.8333333","52.0","SMIDOVICH, RS","FM-12","99999","V020","320,1,N,0010,1","22000,1,9,N","020000,1,N,1","-0264,1","-0297,1","10262,1","","","","","","","","02,99,1,02,1,00,1,99999,9,04,1,00,1","","","","","4,1,000,1,+999,9","","","SYN060AAXX  19151 31725 42998 23201 11264 21297 40262 54000 82040;",
"31725099999","2000-01-19T18:00:00","4","48.6166666","133.8333333","52.0","SMIDOVICH, RS","FM-12","99999","V020","999,9,C,0000,1","22000,1,9,N","020000,1,N,1","-0313,1","-0342,1","10259,1","","","","","","","00,1,+99999,9,99,9","00,99,1,00,1,00,1,99999,9,00,1,00,1","","","","","8,1,005,1,+999,9","","","SYN054AAXX  19181 31725 42998 00000 11313 21342 40259 58005;",
"31725099999","2000-01-19T21:00:00","4","48.6166666","133.8333333","52.0","SMIDOVICH, RS","FM-12","99999","V020","999,9,C,0000,1","22000,1,9,N","020000,1,N,1","-0345,1","-0374,1","10269,1","99,0000,9,1","","","","","","00,1,+99999,9,99,9","00,99,1,00,1,00,1,99999,9,00,1,00,1","","","","","3,1,008,1,+999,9","","","SYN054AAXX  19211 31725 32998 00000 11345 21374 40269 53008;","Q01  00002PRCP99"
"31725099999","2000-01-20T00:00:00","4","48.6166666","133.8333333","52.0","SMIDOVICH, RS","FM-12","99999","V020","999,9,C,0000,1","22000,1,9,N","010000,1,N,1","-0285,1","-0315,1","10284,1","99,0000,9,1","0013,9,1,999999,9,9","","0,1,06,1","0,1,06,1","","00,1,+99999,9,99,9","00,99,1,00,1,00,1,99999,9,00,1,00,1","24,9","","120,N,-0356,1","99999,9,10208,1","2,1,017,1,+999,9","10,1","","SYN082AAXX  20001 31725 31997 00000 11285 21315 30208 40284 52017 71000 333 21356 48013;","Q01  00002PRCP99"
"31725099999","2000-01-20T03:00:00","4","48.6166666","133.8333333","52.0","SMIDOVICH, RS","FM-12","99999","V020","999,9,C,0000,1","22000,1,9,N","020000,1,N,1","-0215,1","-0247,1","10287,1","","","","","","","00,1,+99999,9,99,9","00,99,1,00,1,00,1,99999,9,00,1,00,1","","","","","2,1,006,1,+999,9","","","SYN054AAXX  20031 31725 42998 00000 11215 21247 40287 52006;",
"31725099999","2000-01-20T06:00:00","4","48.6166666","133.8333333","52.0","SMIDOVICH, RS","FM-12","99999","V020","230,1,N,0010,1","22000,1,9,N","020000,1,N,1","-0200,1","-0249,1","10280,1","","","","","","","00,1,+99999,9,99,9","00,99,1,00,1,00,1,99999,9,00,1,00,1","","","","","8,1,006,1,+999,9","","","SYN054AAXX  20061 31725 42998 02301 11200 21249 40280 58006;",
"31725099999","2000-01-20T09:00:00","4","48.6166666","133.8333333","52.0","SMIDOVICH, RS","FM-12","99999","V020","230,1,N,0010,1","22000,1,9,N","020000,1,N,1","-0250,1","-0288,1","10288,1","99,0000,9,1","","","","","","00,1,+99999,9,99,9","00,99,1,00,1,00,1,99999,9,00,1,00,1","","","999,M,-0179,1","","3,1,006,1,+999,9","","","SYN064AAXX  20091 31725 32998 02301 11250 21288 40288 53006 333 11179;","Q01  00002PRCP99"
"31725099999","2000-01-20T12:00:00","4","48.6166666","133.8333333","52.0","SMIDOVICH, RS","FM-12","99999","V020","230,1,N,0010,1","22000,1,9,N","020000,1,N,1","-0280,1","-0311,1","10298,1","99,0000,9,1","","","","","","00,1,+99999,9,99,9","00,99,1,00,1,00,1,99999,9,00,1,00,1","","","999,M,-0179,1","99999,9,10223,1","2,1,009,1,+999,9","","","SYN070AAXX  20121 31725 32998 02301 11280 21311 30223 40298 52009 333 11179;","Q01  00002PRCP99"
"31725099999","2000-01-20T15:00:00","4","48.6166666","133.8333333","52.0","SMIDOVICH, RS","FM-12","99999","V020","230,1,N,0010,1","22000,1,9,N","020000,1,N,1","-0292,1","-0322,1","10301,1","","","","","","","00,1,+99999,9,99,9","00,99,1,00,1,00,1,99999,9,00,1,00,1","","","","","1,1,002,1,+999,9","","","SYN054AAXX  20151 31725 42998 02301 11292 21322 40301 51002;",
"31725099999","2000-01-20T18:00:00","4","48.6166666","133.8333333","52.0","SMIDOVICH, RS","FM-12","99999","V020","999,9,C,0000,1","22000,1,9,N","020000,1,N,1","-0335,1","-0365,1","10306,1","","","","","","","00,1,+99999,9,99,9","00,99,1,00,1,00,1,99999,9,00,1,00,1","","","","","3,1,003,1,+999,9","","","SYN054AAXX  20181 31725 42998 00000 11335 21365 40306 53003;",
"31725099999","2000-01-20T21:00:00","4","48.6166666","133.8333333","52.0","SMIDOVICH, RS","FM-12","99999","V020","999,9,C,0000,1","22000,1,9,N","020000,1,N,1","-0320,1","-0350,1","10301,1","99,0000,9,1","","","","","","00,1,+99999,9,99,9","00,99,1,00,1,00,1,99999,9,00,1,00,1","","","","","8,1,004,1,+999,9","","","SYN054AAXX  20211 31725 32998 00000 11320 21350 40301 58004;","Q01  00002PRCP99"
"31725099999","2000-01-21T00:00:00","4","48.6166666","133.8333333","52.0","SMIDOVICH, RS","FM-12","99999","V020","230,1,N,0010,1","22000,1,9,N","020000,1,N,1","-0280,1","-0311,1","10308,1","99,0000,9,1","0013,9,1,999999,9,9","","","","","00,1,+99999,9,99,9","00,99,1,00,1,00,1,99999,9,00,1,00,1","24,9","","120,N,-0340,1","99999,9,10233,1","3,1,009,1,+999,9","","","SYN076AAXX  21001 31725 32998 02301 11280 21311 30233 40308 53009 333 21340 48013;","Q01  00002PRCP99"
"31725099999","2000-01-21T03:00:00","4","48.6166666","133.8333333","52.0","SMIDOVICH, RS","FM-12","99999","V020","230,1,N,0030,1","22000,1,9,N","020000,1,N,1","+9999,9","+9999,9","10306,1","","","","","","","00,1,+99999,9,99,9","00,99,1,00,1,00,1,99999,9,00,1,00,1","","","","","4,1,000,1,+999,9","","","SYN048AAXX  21031 31725 42998 02303 21264 40306 54000;",
"31725099999","2000-01-21T06:00:00","4","48.6166666","133.8333333","52.0","SMIDOVICH, RS","FM-12","99999","V020","200,1,N,0010,1","22000,1,9,N","020000,1,N,1","-0205,1","-0262,1","10304,1","","","","","","","","01,99,1,00,1,00,1,99999,9,00,1,02,1","","","","","8,1,001,1,+999,9","","","SYN060AAXX  21061 31725 42998 12001 11205 21262 40304 58001 80002;",
"31725099999","2000-01-21T09:00:00","4","48.6166666","133.8333333","52.0","SMIDOVICH, RS","FM-12","99999","V020","999,9,C,0000,1","22000,1,9,N","020000,1,N,1","-0231,1","-0270,1","10306,1","99,0000,9,1","","","","","","","01,99,1,00,1,00,1,99999,9,00,1,02,1","","","999,M,-0197,1","","3,1,001,1,+999,9","","","SYN070AAXX  21091 31725 32998 10000 11231 21270 40306 53001 80002 333 11197;","Q01  00002PRCP99"
"31725099999","2000-01-21T12:00:00","4","48.6166666","133.8333333","52.0","SMIDOVICH, RS","FM-12","99999","V020","999,9,C,0000,1","22000,1,9,N","020000,1,N,1","-0269,1","-0307,1","10307,1","99,0000,9,1","","","","","","00,1,+99999,9,99,9","00,99,1,00,1,00,1,99999,9,00,1,00,1","","","999,M,-0197,1","99999,9,10232,1","8,1,001,1,+999,9","","","SYN070AAXX  21121 31725 32998 00000 11269 21307 30232 40307 58001 333 11197;","Q01  00002PRCP99"
"31725099999","2000-01-21T15:00:00","4","48.6166666","133.8333333","52.0","SMIDOVICH, RS","FM-12","99999","V020","999,9,C,0000,1","22000,1,9,N","020000,1,N,1","-0245,1","-0285,1","10299,1","","","","","","","","03,99,1,03,1,00,1,99999,9,04,1,00,1","","","","","7,1,007,1,+999,9","","","SYN060AAXX  21151 31725 42998 30000 11245 21285 40299 57007 83040;",
"31725099999","2000-01-21T18:00:00","4","48.6166666","133.8333333","52.0","SMIDOVICH, RS","FM-12","99999","V020","999,9,C,0000,1","22000,1,9,N","020000,1,N,1","-0222,1","-0261,1","10296,1","","","","","","","00,1,+99999,9,99,9","00,99,1,00,1,00,1,99999,9,00,1,00,1","","","","","6,1,002,1,+999,9","","","SYN054AAXX  21181 31725 42998 00000 11222 21261 40296 56002;",
"31725099999","2000-01-21T21:00:00","4","48.6166666","133.8333333","52.0","SMIDOVICH, RS","FM-12","99999","V020","230,1,N,0010,1","22000,1,9,N","020000,1,N,1","-0252,1","-0284,1","10289,1","99,0000,9,1","","","","","","00,1,+99999,9,99,9","00,99,1,00,1,00,1,99999,9,00,1,00,1","","","","","7,1,008,1,+999,9","","","SYN054AAXX  21211 31725 32998 02301 11252 21284 40289 57008;","Q01  00002PRCP99"
"31725099999","2000-01-22T00:00:00","4","48.6166666","133.8333333","52.0","SMIDOVICH, RS","FM-12","99999","V020","230,1,N,0020,1","22000,1,9,N","020000,1,N,1","-0271,1","-0301,1","10288,1","99,0000,9,1","0013,9,1,999999,9,9","","","","","00,1,+99999,9,99,9","00,99,1,00,1,00,1,99999,9,00,1,00,1","24,9","","120,N,-0290,1","99999,9,10213,1","6,1,002,1,+999,9","","","SYN076AAXX  22001 31725 32998 02302 11271 21301 30213 40288 56002 333 21290 48013;","Q01  00002PRCP99"
"31725099999","2000-01-22T03:00:00","4","48.6166666","133.8333333","52.0","SMIDOVICH, RS","FM-12","99999","V020","230,1,N,0040,1","22000,1,9,N","020000,1,N,1","-0205,1","-0254,1","10279,1","","","","","","","","02,99,1,00,1,00,1,99999,9,00,1,02,1","","","","","8,1,006,1,+999,9","","","SYN060AAXX  22031 31725 42998 22304 11205 21254 40279 58006 80002;",
"31725099999","2000-01-22T06:00:00","4","48.6166666","133.8333333","52.0","SMIDOVICH, RS","FM-12","99999","V020","230,1,N,0010,1","22000,1,9,N","020000,1,N,1","-0195,1","-0253,1","10274,1","","","","","","","","02,99,1,00,1,00,1,99999,9,00,1,02,1","","","","","7,1,005,1,+999,9","","","SYN060AAXX  22061 31725 42998 22301 11195 21253 40274 57005 80002;",
"31725099999","2000-01-22T09:00:00","4","48.6166666","133.8333333","52.0","SMIDOVICH, RS","FM-12","99999","V020","230,1,N,0010,1","22000,1,9,N","020000,1,N,1","-0226,1","-0266,1","10272,1","99,0000,9,1","","","","","","","02,99,1,02,1,00,1,99999,9,04,1,00,1","","","999,M,-0175,1","","7,1,003,1,+999,9","","","SYN070AAXX  22091 31725 32998 22301 11226 21266 40272 57003 82040 333 11175;","Q01  00002PRCP99"
"31725099999","2000-01-22T12:00:00","4","48.6166666","133.8333333","52.0","SMIDOVICH, RS","FM-12","99999","V020","230,1,N,0010,1","22000,1,9,N","020000,1,N,1","-0270,1","-0301,1","10271,1","99,0000,9,1","","","","","","","02,99,1,02,1,00,1,99999,9,04,1,00,1","","","999,M,-0175,1","99999,9,10196,1","7,1,003,1,+999,9","","","SYN076AAXX  22121 31725 32998 22301 11270 21301 30196 40271 57003 82040 333 11175;","Q01  00002PRCP99"
"31725099999","2000-01-22T15:00:00","4","48.6166666","133.8333333","52.0","SMIDOVICH, RS","FM-12","99999","V020","230,1,N,0010,1","22000,1,9,N","020000,1,N,1","-0273,1","-0304,1","10266,1","","","","","","","","02,99,1,02,1,00,1,99999,9,04,1,00,1","","","","","7,1,005,1,+999,9","","","SYN060AAXX  22151 31725 42998 22301 11273 21304 40266 57005 82040;",
"31725099999","2000-01-22T18:00:00","4","48.6166666","133.8333333","52.0","SMIDOVICH, RS","FM-12","99999","V020","230,1,N,0010,1","99999,9,9,N","020000,1,N,1","-0320,1","-0350,1","10271,1","","","","","","","","08,99,1,00,1,00,1,99999,9,00,1,02,1","","","","","3,1,003,1,+999,9","","","SYN060AAXX  22181 31725 42998 82301 11320 21350 40271 53003 80002;",
"31725099999","2000-01-22T21:00:00","4","48.6166666","133.8333333","52.0","SMIDOVICH, RS","FM-12","99999","V020","230,1,N,0010,1","99999,9,9,N","020000,1,N,1","-0345,1","-0374,1","10270,1","99,0000,9,1","","","","","","","08,99,1,00,1,00,1,99999,9,00,1,02,1","","","","","8,1,002,1,+999,9","","","SYN060AAXX  22211 31725 32998 82301 11345 21374 40270 58002 80002;","Q01  00002PRCP99"
"31725099999","2000-01-23T00:00:00","4","48.6166666","133.8333333","52.0","SMIDOVICH, RS","FM-12","99999","V020","999,9,C,0000,1","22000,1,9,N","010000,1,N,1","-0271,1","-0301,1","10268,1","99,0000,9,1","0013,9,1,999999,9,9","","1,1,06,1","1,1,06,1","","","03,99,1,00,1,00,1,99999,9,00,1,01,1","24,9","","120,N,-0374,1","99999,9,10193,1","3,1,001,1,+999,9","10,1","","SYN088AAXX  23001 31725 31997 30000 11271 21301 30193 40268 53001 71011 80001 333 21374 48013;","Q01  00002PRCP99"
"31725099999","2000-01-23T03:00:00","4","48.6166666","133.8333333","52.0","SMIDOVICH, RS","FM-12","99999","V020","999,9,C,0000,1","22000,1,9,N","020000,1,N,1","-0208,1","-0275,1","10262,1","","","","","","","00,1,+99999,9,99,9","00,99,1,00,1,00,1,99999,9,00,1,00,1","","","","","8,1,003,1,+999,9","","","SYN054AAXX  23031 31725 42998 00000 11208 21275 40262 58003;",
"31725099999","2000-01-23T06:00:00","4","48.6166666","133.8333333","52.0","SMIDOVICH, RS","FM-12","99999","V020","200,1,N,0020,1","22000,1,9,N","020000,1,N,1","-0219,1","-0276,1","10259,1","","","","","","","00,1,+99999,9,99,9","00,99,1,00,1,00,1,99999,9,00,1,00,1","","","","","7,1,004,1,+999,9","","","SYN054AAXX  23061 31725 42998 02002 11219 21276 40259 57004;",
"31725099999","2000-01-23T09:00:00","4","48.6166666","133.8333333","52.0","SMIDOVICH, RS","FM-12","99999","V020","230,1,N,0020,1","22000,1,9,N","020000,1,N,1","-0264,1","-0310,1","10264,1","99,0000,9,1","","","","","","00,1,+99999,9,99,9","00,99,1,00,1,00,1,99999,9,00,1,00,1","","","999,M,-0201,1","","3,1,004,1,+999,9","","","SYN064AAXX  23091 31725 32998 02302 11264 21310 40264 53004 333 11201;","Q01  00002PRCP99"
"31725099999","2000-01-23T12:00:00","4","48.6166666","133.8333333","52.0","SMIDOVICH, RS","FM-12","99999","V020","230,1,N,0010,1","22000,1,9,N","020000,1,N,1","-0282,1","-0320,1","10270,1","99,0000,9,1","","","","","","00,1,+99999,9,99,9","00,99,1,00,1,00,1,99999,9,00,1,00,1","","","999,M,-0201,1","99999,9,10195,1","2,1,005,1,+999,9","","","SYN070AAXX  23121 31725 32998 02301 11282 21320 30195 40270 52005 333 11201;","Q01  00002PRCP99"
"31725099999","2000-01-23T15:00:00","4","48.6166666","133.8333333","52.0","SMIDOVICH, RS","FM-12","99999","V020","230,1,N,0010,1","22000,1,9,N","020000,1,N,1","-0315,1","-0352,1","10263,1","","","","","","","00,1,+99999,9,99,9","00,99,1,00,1,00,1,99999,9,00,1,00,1","","","","","8,1,009,1,+999,9","","","SYN054AAXX  23151 31725 42998 02301 11315 21352 40263 58009;",
"31725099999","2000-01-23T18:00:00","4","48.6166666","133.8333333","52.0","SMIDOVICH, RS","FM-12","99999","V020","230,1,N,0020,1","22000,1,9,N","020000,1,N,1","-0303,1","-0341,1","10264,1","","","","","","","00,1,+99999,9,99,9","00,99,1,00,1,00,1,99999,9,00,1,00,1","","","","","3,1,002,1,+999,9","","","SYN054AAXX  23181 31725 42998 02302 11303 21341 40264 53002;",
"31725099999","2000-01-23T21:00:00","4","48.6166666","133.8333333","52.0","SMIDOVICH, RS","FM-12","99999","V020","270,1,N,0020,1","22000,1,9,N","020000,1,N,1","-0329,1","-0371,1","10262,1","99,0000,9,1","","","","","","00,1,+99999,9,99,9","00,99,1,00,1,00,1,99999,9,00,1,00,1","","","","","8,1,003,1,+999,9","","","SYN054AAXX  23211 31725 32998 02702 11329 21371 40262 58003;","Q01  00002PRCP99"
"31725099999","2000-01-24T00:00:00","4","48.6166666","133.8333333","52.0","SMIDOVICH, RS","FM-12","99999","V020","230,1,N,0010,1","22000,1,9,N","020000,1,N,1","-0329,1","-0364,1","10273,1","99,0000,9,1","0013,9,1,999999,9,9","","","","","00,1,+99999,9,99,9","00,99,1,00,1,00,1,99999,9,00,1,00,1","24,9","","120,N,-0349,1","99999,9,10196,1","3,1,011,1,+999,9","","","SYN076AAXX  24001 31725 32998 02301 11329 21364 30196 40273 53011 333 21349 48013;","Q01  00002PRCP99"
"31725099999","2000-01-24T03:00:00","4","48.6166666","133.8333333","52.0","SMIDOVICH, RS","FM-12","99999","V020","230,1,N,0040,1","22000,1,9,N","020000,1,N,1","-0260,1","-0314,1","10270,1","","","","","","","00,1,+99999,9,99,9","00,99,1,00,1,00,1,99999,9,00,1,00,1","","","","","4,1,000,1,+999,9","","","SYN054AAXX  24031 31725 42998 02304 11260 21314 40270 54000;",
"31725099999","2000-01-24T06:00:00","4","48.6166666","133.8333333","52.0","SMIDOVICH, RS","FM-12","99999","V020","230,1,N,0030,1","22000,1,9,N","020000,1,N,1","-0242,1","-0316,1","10262,1","","","","","","","00,1,+99999,9,99,9","00,99,1,00,1,00,1,99999,9,00,1,00,1","","","","","8,1,008,1,+999,9","","","SYN054AAXX  24061 31725 42998 02303 11242 21316 40262 58008;",
"31725099999","2000-01-24T09:00:00","4","48.6166666","133.8333333","52.0","SMIDOVICH, RS","FM-12","99999","V020","999,9,C,0000,1","22000,1,9,N","020000,1,N,1","-0290,1","-0335,1","10265,1","99,0000,9,1","","","","","","00,1,+99999,9,99,9","00,99,1,00,1,00,1,99999,9,00,1,00,1","","","999,M,-0223,1","","3,1,001,1,+999,9","","","SYN064AAXX  24091 31725 32998 00000 11290 21335 40265 53001 333 11223;","Q01  00002PRCP99"
"31725099999","2000-01-24T12:00:00","4","48.6166666","133.8333333","52.0","SMIDOVICH, RS","FM-12","99999","V020","999,9,C,0000,1","22000,1,9,N","020000,1,N,1","-0285,1","-0338,1","10258,1","99,0000,9,1","","","","","","00,1,+99999,9,99,9","00,99,1,00,1,00,1,99999,9,00,1,00,1","","","999,M,-0223,1","99999,9,10182,1","8,1,007,1,+999,9","","","SYN070AAXX  24121 31725 32998 00000 11285 21338 30182 40258 58007 333 11223;","Q01  00002PRCP99"
"31725099999","2000-01-24T15:00:00","4","48.6166666","133.8333333","52.0","SMIDOVICH, RS","FM-12","99999","V020","999,9,C,0000,1","22000,1,9,N","020000,1,N,1","-0296,1","-0340,1","10242,1","","","","","","","00,1,+99999,9,99,9","00,99,1,00,1,00,1,99999,9,00,1,00,1","","","","","7,1,016,1,+999,9","","","SYN054AAXX  24151 31725 42998 00000 11296 21340 40242 57016;",
"31725099999","2000-01-24T18:00:00","4","48.6166666","133.8333333","52.0","SMIDOVICH, RS","FM-12","99999","V020","999,9,C,0000,1","22000,1,9,N","020000,1,N,1","-0312,1","-0365,1","10243,1","","","","","","","00,1,+99999,9,99,9","00,99,1,00,1,00,1,99999,9,00,1,00,1","","","","","3,1,003,1,+999,9","","","SYN054AAXX  24181 31725 42998 00000 11312 21365 40243 53003;",
"31725099999","2000-01-25T00:00:00","4","48.6166666","133.8333333","52.0","SMIDOVICH, RS","FM-12","99999","V020","999,9,C,0000,1","22000,1,9,N","010000,1,N,1","-0291,1","-0345,1","10235,1","99,0000,9,1","0013,9,1,999999,9,9","","0,1,06,1","0,1,06,1","","00,1,+99999,9,99,9","00,99,1,00,1,00,1,99999,9,00,1,00,1","24,9","","120,N,-0360,1","99999,9,10159,1","7,1,002,1,+999,9","10,1","","SYN082AAXX  25001 31725 31997 00000 11291 21345 30159 40235 57002 71000 333 21360 48013;","Q01  00002PRCP99"
"31725099999","2000-01-25T03:00:00","4","48.6166666","133.8333333","52.0","SMIDOVICH, RS","FM-12","99999","V020","999,9,C,0000,1","22000,1,9,N","020000,1,N,1","-0260,1","-0333,1","10236,1","","","","","","","00,1,+99999,9,99,9","00,99,1,00,1,00,1,99999,9,00,1,00,1","","","","","3,1,006,1,+999,9","","","SYN054AAXX  25031 31725 42998 00000 11260 21333 40236 53006;",
"31725099999","2000-01-25T06:00:00","4","48.6166666","133.8333333","52.0","SMIDOVICH, RS","FM-12","99999","V020","230,1,N,0010,1","22000,1,9,N","020000,1,N,1","+9999,9","+9999,9","10234,1","","","","","","","00,1,+99999,9,99,9","00,99,1,00,1,00,1,99999,9,00,1,00,1","","","","","8,1,001,1,+999,9","","","SYN048AAXX  25061 31725 42998 02301 21306 40234 58001;",
"31725099999","2000-01-25T09:00:00","4","48.6166666","133.8333333","52.0","SMIDOVICH, RS","FM-12","99999","V020","999,9,C,0000,1","22000,1,9,N","020000,1,N,1","-0282,1","-0328,1","10249,1","99,0000,9,1","","","","","","00,1,+99999,9,99,9","00,99,1,00,1,00,1,99999,9,00,1,00,1","","","999,M,-0221,1","","3,1,013,1,+999,9","","","SYN064AAXX  25091 31725 32998 00000 11282 21328 40249 53013 333 11221;","Q01  00002PRCP99"
"31725099999","2000-01-25T12:00:00","4","48.6166666","133.8333333","52.0","SMIDOVICH, RS","FM-12","99999","V020","999,9,C,0000,1","22000,1,9,N","020000,1,N,1","-0306,1","-0336,1","10260,1","99,0000,9,1","","","","","","00,1,+99999,9,99,9","00,99,1,00,1,00,1,99999,9,00,1,00,1","","","999,M,-0221,1","99999,9,10184,1","2,1,010,1,+999,9","","","SYN070AAXX  25121 31725 32998 00000 11306 21336 30184 40260 52010 333 11221;","Q01  00002PRCP99"
"31725099999","2000-01-25T15:00:00","4","48.6166666","133.8333333","52.0","SMIDOVICH, RS","FM-12","99999","V020","999,9,C,0000,1","22000,1,9,N","020000,1,N,1","-0334,1","-0362,1","10274,1","","","","","","","00,1,+99999,9,99,9","00,99,1,00,1,00,1,99999,9,00,1,00,1","","","","","2,1,013,1,+999,9","","","SYN054AAXX  25151 31725 42998 00000 11334 21362 40274 52013;",
"31725099999","2000-01-25T18:00:00","4","48.6166666","133.8333333","52.0","SMIDOVICH, RS","FM-12","99999","V020","999,9,C,0000,1","22000,1,9,N","020000,1,N,1","-0357,1","-0393,1","10282,1","","","","","","","00,1,+99999,9,99,9","00,99,1,00,1,00,1,99999,9,00,1,00,1","","","","","","","","SYN048AAXX  25181 31725 42998 00000 11357 21393 40282;",
"31725099999","2000-01-25T21:00:00","4","48.6166666","133.8333333","52.0","SMIDOVICH, RS","FM-12","99999","V020","999,9,C,0000,1","22000,1,9,N","020000,1,N,1","-0362,1","-0397,1","10293,1","99,0000,9,1","","","","","","00,1,+99999,9,99,9","00,99,1,00,1,00,1,99999,9,00,1,00,1","","","","","2,1,011,1,+999,9","","","SYN054AAXX  25211 31725 32998 00000 11362 21397 40293 52011;","Q01  00002PRCP99"
"31725099999","2000-01-26T00:00:00","4","48.6166666","133.8333333","52.0","SMIDOVICH, RS","FM-12","99999","V020","999,9,C,0000,1","22000,1,9,N","020000,1,N,1","-0377,1","-0411,1","10307,1","99,0000,9,1","0013,9,1,999999,9,9","","","","","00,1,+99999,9,99,9","00,99,1,00,1,00,1,99999,9,00,1,00,1","24,9","","120,N,-0399,1","99999,9,10228,1","2,1,013,1,+999,9","","","SYN076AAXX  26001 31725 32998 00000 11377 21411 30228 40307 52013 333 21399 48013;","Q01  00002PRCP99"
"31725099999","2000-01-26T03:00:00","4","48.6166666","133.8333333","52.0","SMIDOVICH, RS","FM-12","99999","V020","230,1,N,0020,1","22000,1,9,N","050000,1,N,1","-0255,2","-0302,1","10292,1","","","","","","","00,1,+99999,9,99,9","00,99,1,00,1,00,1,99999,9,00,1,00,1","","","","","8,1,010,1,+999,9","","","SYN054AAXX  26031 31725 42999 02302 11255 21302 40292 58010;","Q01-002553ATOT  "
"31725099999","2000-01-26T06:00:00","4","48.6166666","133.8333333","52.0","SMIDOVICH, RS","FM-12","99999","V020","230,1,N,0020,1","22000,1,9,N","020000,1,N,1","-0214,1","-0271,1","10276,1","","","","","","","00,1,+99999,9,99,9","00,99,1,00,1,00,1,99999,9,00,1,00,1","","","","","7,1,014,1,+999,9","","","SYN054AAXX  26061 31725 42998 02302 11214 21271 40276 57014;",
"31725099999","2000-01-26T09:00:00","4","48.6166666","133.8333333","52.0","SMIDOVICH, RS","FM-12","99999","V020","230,1,N,0020,1","22000,1,9,N","020000,1,N,1","-0245,1","-0292,1","10282,1","99,0000,9,1","","","","","","00,1,+99999,9,99,9","00,99,1,00,1,00,1,99999,9,00,1,00,1","","","999,M,-0206,1","","3,1,004,1,+999,9","","","SYN064AAXX  26091 31725 32998 02302 11245 21292 40282 53004 333 11206;","Q01  00002PRCP99"
"31725099999","2000-01-26T12:00:00","4","48.6166666","133.8333333","52.0","SMIDOVICH, RS","FM-12","99999","V020","230,1,N,0020,1","22000,1,9,N","020000,1,N,1","-0266,1","-0304,1","10272,1","99,0000,9,1","","","","","","00,1,+99999,9,99,9","00,99,1,00,1,00,1,99999,9,00,1,00,1","","","999,M,-0206,1","99999,9,10197,1","8,1,011,1,+999,9","","","SYN070AAXX  26121 31725 32998 02302 11266 21304 30197 40272 58011 333 11206;","Q01  00002PRCP99"
"31725099999","2000-01-26T15:00:00","4","48.6166666","133.8333333","52.0","SMIDOVICH, RS","FM-12","99999","V020","230,1,N,0020,1","22000,1,9,N","020000,1,N,1","-0282,1","-0320,1","10265,1","99,0000,9,1","","","","","","00,1,+99999,9,99,9","00,99,1,00,1,00,1,99999,9,00,1,00,1","","","","","7,1,007,1,+999,9","","","SYN054AAXX  26151 31725 32998 02302 11282 21320 40265 57007;","Q01  00002PRCP99"
"31725099999","2000-01-26T18:00:00","4","48.6166666","133.8333333","52.0","SMIDOVICH, RS","FM-12","99999","V020","230,1,N,0020,1","22000,1,9,N","020000,1,N,1","-0290,1","-0327,1","10257,1","","","","","","","00,1,+99999,9,99,9","00,99,1,00,1,00,1,99999,9,00,1,00,1","","","","","7,1,009,1,+999,9","","","SYN054AAXX  26181 31725 42998 02302 11290 21327 40257 57009;",
"31725099999","2000-01-26T21:00:00","4","48.6166666","133.8333333","52.0","SMIDOVICH, RS","FM-12","99999","V020","230,1,N,0020,1","22000,1,9,N","020000,1,N,1","-0300,1","-0337,1","10248,1","99,0000,9,1","","","","","","00,1,+99999,9,99,9","00,99,1,00,1,00,1,99999,9,00,1,00,1","","","","","7,1,009,1,+999,9","","","SYN054AAXX  26211 31725 32998 02302 11300 21337 40248 57009;","Q01  00002PRCP99"
"31725099999","2000-01-27T00:00:00","4","48.6166666","133.8333333","52.0","SMIDOVICH, RS","FM-12","99999","V020","230,1,N,0020,1","22000,1,9,N","020000,1,N,1","-0279,1","-0317,1","10234,1","99,0000,9,1","0013,9,1,999999,9,9","","","","","","02,99,1,00,1,00,1,99999,9,00,1,02,1","24,9","","120,N,-0300,1","99999,9,10159,1","7,1,013,1,+999,9","","","SYN082AAXX  27001 31725 32998 22302 11279 21317 30159 40234 57013 80002 333 21300 48013;","Q01  00002PRCP99"
"31725099999","2000-01-27T03:00:00","4","48.6166666","133.8333333","52.0","SMIDOVICH, RS","FM-12","99999","V020","200,1,N,0030,1","99999,9,9,N","020000,1,N,1","-0197,1","-0246,1","10212,1","","","","","","","","05,99,1,03,1,00,1,99999,9,04,1,02,1","","","","","7,1,019,1,+999,9","","","SYN060AAXX  27031 31725 42998 52003 11197 21246 40212 57019 83042;",
"31725099999","2000-01-27T06:00:00","4","48.6166666","133.8333333","52.0","SMIDOVICH, RS","FM-12","99999","V020","180,1,N,0020,1","22000,1,9,N","020000,1,N,1","-0136,1","-0197,1","10191,1","","","","","","","","02,99,1,00,1,00,1,99999,9,00,1,02,1","","","","","7,1,019,1,+999,9","","","SYN060AAXX  27061 31725 42998 21802 11136 21197 40191 57019 80002;",
"31725099999","2000-01-27T09:00:00","4","48.6166666","133.8333333","52.0","SMIDOVICH, RS","FM-12","99999","V020","230,1,N,0010,1","22000,1,9,N","020000,1,N,1","-0176,1","-0226,1","10194,1","99,0000,9,1","","","","","","00,1,+99999,9,99,9","00,99,1,00,1,00,1,99999,9,00,1,00,1","","","999,M,-0134,1","","3,1,002,1,+999,9","","","SYN064AAXX  27091 31725 32998 02301 11176 21226 40194 53002 333 11134;","Q01  00002PRCP99"
"31725099999","2000-01-27T12:00:00","4","48.6166666","133.8333333","52.0","SMIDOVICH, RS","FM-12","99999","V020","290,1,N,0010,1","22000,1,9,N","020000,1,N,1","-0226,1","-0274,1","10205,1","99,0000,9,1","","","","","","00,1,+99999,9,99,9","00,99,1,00,1,00,1,99999,9,00,1,00,1","","","999,M,-0134,1","99999,9,10132,1","2,1,009,1,+999,9","","","SYN070AAXX  27121 31725 32998 02901 11226 21274 30132 40205 52009 333 11134;","Q01  00002PRCP99"
"31725099999","2000-01-27T15:00:00","4","48.6166666","133.8333333","52.0","SMIDOVICH, RS","FM-12","99999","V020","320,1,N,0010,1","22000,1,9,N","020000,1,N,1","-0249,1","-0288,1","10218,1","","","","","","","00,1,+99999,9,99,9","00,99,1,00,1,00,1,99999,9,00,1,00,1","","","","","2,1,012,1,+999,9","","","SYN054AAXX  27151 31725 42998 03201 11249 21288 40218 52012;",
"31725099999","2000-01-27T18:00:00","4","48.6166666","133.8333333","52.0","SMIDOVICH, RS","FM-12","99999","V020","320,1,N,0010,1","22000,1,9,N","020000,1,N,1","-0271,1","-0309,1","10236,1","","","","","","","00,1,+99999,9,99,9","00,99,1,00,1,00,1,99999,9,00,1,00,1","","","","","2,1,017,1,+999,9","","","SYN054AAXX  27181 31725 42998 03201 11271 21309 40236 52017;",
"31725099999","2000-01-27T21:00:00","4","48.6166666","133.8333333","52.0","SMIDOVICH, RS","FM-12","99999","V020","999,9,C,0000,1","22000,1,9,N","020000,1,N,1","-0315,1","-0352,1","10249,1","99,0000,9,1","","","","","","00,1,+99999,9,99,9","00,99,1,00,1,00,1,99999,9,00,1,00,1","","","","","2,1,011,1,+999,9","","","SYN054AAXX  27211 31725 32998 00000 11315 21352 40249 52011;","Q01  00002PRCP99"
"31725099999","2000-01-28T00:00:00","4","48.6166666","133.8333333","52.0","SMIDOVICH, RS","FM-12","99999","V020","999,9,C,0000,1","22000,1,9,N","020000,1,N,1","-0290,1","-0327,1","10262,1","99,0000,9,1","0013,9,1,999999,9,9","","","","","00,1,+99999,9,99,9","00,99,1,00,1,00,1,99999,9,00,1,00,1","24,9","","120,N,-0321,1","99999,9,10186,1","2,1,014,1,+999,9","","","SYN076AAXX  28001 31725 32998 00000 11290 21327 30186 40262 52014 333 21321 48013;","Q01  00002PRCP99"
"31725099999","2000-01-28T03:00:00","4","48.6166666","133.8333333","52.0","SMIDOVICH, RS","FM-12","99999","V020","999,9,C,0000,1","22000,1,9,N","020000,1,N,1","-0205,1","-0262,1","10256,1","","","","","","","00,1,+99999,9,99,9","00,99,1,00,1,00,1,99999,9,00,1,00,1","","","","","8,1,002,1,+999,9","","","SYN054AAXX  28031 31725 42998 00000 11205 21262 40256 58002;",
"31725099999","2000-01-28T06:00:00","4","48.6166666","133.8333333","52.0","SMIDOVICH, RS","FM-12","99999","V020","999,9,C,0000,1","22000,1,9,N","020000,1,N,1","-0146,1","-0207,1","10259,1","","","","","","","00,1,+99999,9,99,9","00,99,1,00,1,00,1,99999,9,00,1,00,1","","","","","3,1,004,1,+999,9","","","SYN054AAXX  28061 31725 42998 00000 11146 21207 40259 53004;",
"31725099999","2000-01-28T09:00:00","4","48.6166666","133.8333333","52.0","SMIDOVICH, RS","FM-12","99999","V020","999,9,C,0000,1","22000,1,9,N","020000,1,N,1","-0190,1","-0231,1","10267,1","99,0000,9,1","","","","","","00,1,+99999,9,99,9","00,99,1,00,1,00,1,99999,9,00,1,00,1","","","999,M,-0143,1","","2,1,007,1,+999,9","","","SYN064AAXX  28091 31725 32998 00000 11190 21231 40267 52007 333 11143;","Q01  00002PRCP99"
"31725099999","2000-01-28T12:00:00","4","48.6166666","133.8333333","52.0","SMIDOVICH, RS","FM-12","99999","V020","230,1,N,0010,1","22000,1,9,N","020000,1,N,1","-0200,1","-0226,1","10260,1","99,0000,9,1","","","","","","00,1,+99999,9,99,9","00,99,1,00,1,00,1,99999,9,00,1,00,1","","","999,M,-0143,1","","8,1,007,1,+999,9","","","SYN064AAXX  28121 31725 32998 02301 11200 21226 40260 58007 333 11143;","Q01  00002PRCP99"
"31725099999","2000-01-28T15:00:00","4","48.6166666","133.8333333","52.0","SMIDOVICH, RS","FM-12","99999","V020","230,1,N,0010,1","22000,1,9,N","020000,1,N,1","-0222,1","-0247,1","99999,9","","","","","","","00,1,+99999,9,99,9","00,99,1,00,1,00,1,99999,9,00,1,00,1","","","","","3,1,009,1,+999,9","","","SYN054AAXX  28151 31725 42998 02301 11222 21247 40197 53009;","Q01+101973APOSLP"
"31725099999","2000-01-28T18:00:00","4","48.6166666","133.8333333","52.0","SMIDOVICH, RS","FM-12","99999","V020","999,9,C,0000,1","22000,1,9,N","010000,1,N,1","-0260,1","-0284,1","10276,1","","","","0,1,06,1","0,1,06,1","","00,1,+99999,9,99,9","00,99,1,00,1,00,1,99999,9,00,1,00,1","","","","","2,1,005,1,+999,9","","","SYN060AAXX  28181 31725 41997 00000 11260 21284 40276 52005 77000;","Q01+000702PRSWM1"
"31725099999","2000-01-28T21:00:00","4","48.6166666","133.8333333","52.0","SMIDOVICH, RS","FM-12","99999","V020","999,9,C,0000,1","22000,1,9,N","010000,1,N,1","-0275,1","-0299,1","10283,1","99,0000,9,1","","","0,1,03,1","0,1,03,1","","00,1,+99999,9,99,9","00,99,1,00,1,00,1,99999,9,00,1,00,1","","","","","2,1,006,1,+999,9","10,1","","SYN060AAXX  28211 31725 31997 00000 11275 21299 40283 52006 71000;","Q01  00002PRCP99"
"31725099999","2000-01-29T00:00:00","4","48.6166666","133.8333333","52.0","SMIDOVICH, RS","FM-12","99999","V020","999,9,C,0000,1","22000,1,9,N","010000,1,N,1","-0251,1","-0275,1","10303,1","99,0000,9,1","0013,9,1,999999,9,9","","0,1,06,1","0,1,06,1","","","03,99,1,03,1,00,1,99999,9,04,1,00,1","24,9","","120,N,-0280,1","99999,9,10229,1","2,1,021,1,+999,9","10,1","","SYN088AAXX  29001 31725 31997 30000 11251 21275 30229 40303 52021 71000 83040 333 21280 48013;","Q01  00002PRCP99"
"31725099999","2000-01-29T03:00:00","4","48.6166666","133.8333333","52.0","SMIDOVICH, RS","FM-12","99999","V020","140,1,N,0010,1","22000,1,9,N","010000,1,N,1","-0185,1","-0211,1","10306,1","","","","0,1,03,1","0,1,03,1","","","03,99,1,03,1,00,1,99999,9,04,1,00,1","","","","","2,1,005,1,+999,9","10,1","","SYN066AAXX  29031 31725 41997 31401 11185 21211 40306 52005 71000 83040;",
"31725099999","2000-01-29T06:00:00","4","48.6166666","133.8333333","52.0","SMIDOVICH, RS","FM-12","99999","V020","090,1,N,0020,1","22000,1,9,N","020000,1,N,1","-0147,1","-0198,1","10298,1","","","","","","","00,1,+99999,9,99,9","00,99,1,00,1,00,1,99999,9,00,1,00,1","","","","","8,1,007,1,+999,9","","","SYN054AAXX  29061 31725 42998 00902 11147 21198 40298 58007;",
"31725099999","2000-01-29T09:00:00","4","48.6166666","133.8333333","52.0","SMIDOVICH, RS","FM-12","99999","V020","999,9,C,0000,1","22000,1,9,N","020000,1,N,1","-0178,1","-0219,1","10306,1","99,0000,9,1","","","","","","","04,99,1,02,1,00,1,99999,9,04,1,02,1","","","999,M,-0141,1","","3,1,007,1,+999,9","","","SYN070AAXX  29091 31725 32998 40000 11178 21219 40306 53007 82042 333 11141;","Q01  00002PRCP99"
"31725099999","2000-01-29T12:00:00","4","48.6166666","133.8333333","52.0","SMIDOVICH, RS","FM-12","99999","V020","999,9,C,0000,1","22000,1,9,N","020000,1,N,1","-0199,1","-0232,1","10308,1","99,0000,9,1","","","","","","00,1,+99999,9,99,9","00,99,1,00,1,00,1,99999,9,00,1,00,1","","","999,M,-0141,1","99999,9,10236,1","1,1,002,1,+999,9","","","SYN070AAXX  29121 31725 32998 00000 11199 21232 30236 40308 51002 333 11141;","Q01  00002PRCP99"
"31725099999","2000-01-29T15:00:00","4","48.6166666","133.8333333","52.0","SMIDOVICH, RS","FM-12","99999","V020","999,9,C,0000,1","22000,1,9,N","020000,1,N,1","-0212,1","-0244,1","10310,1","","","","","","","00,1,+99999,9,99,9","00,99,1,00,1,00,1,99999,9,00,1,00,1","","","","","1,1,002,1,+999,9","","","SYN054AAXX  29151 31725 42998 00000 11212 21244 40310 51002;",
"31725099999","2000-01-29T18:00:00","4","48.6166666","133.8333333","52.0","SMIDOVICH, RS","FM-12","99999","V020","999,9,C,0000,1","22000,1,9,N","020000,1,N,1","-0250,1","-0281,1","10297,1","","","","","","","00,1,+99999,9,99,9","00,99,1,00,1,00,1,99999,9,00,1,00,1","","","","","8,1,015,1,+999,9","","","SYN054AAXX  29181 31725 42998 00000 11250 21281 40297 58015;",
"31725099999","2000-01-29T21:00:00","4","48.6166666","133.8333333","52.0","SMIDOVICH, RS","FM-12","99999","V020","999,9,C,0000,1","22000,1,9,N","020000,1,N,1","-0224,1","-0263,1","10301,1","99,0000,9,1","","","","","","00,1,+99999,9,99,9","00,99,1,00,1,00,1,99999,9,00,1,00,1","","","","","7,1,005,1,+999,9","","","SYN054AAXX  29211 31725 32998 00000 11224 21263 40301 57005;","Q01  00002PRCP99"
"31725099999","2000-01-30T03:00:00","4","48.6166666","133.8333333","52.0","SMIDOVICH, RS","FM-12","99999","V020","050,1,N,0020,1","22000,1,9,N","020000,1,N,1","-0162,1","-0254,1","10305,1","","","","","","","","02,99,1,00,1,00,1,99999,9,00,1,02,1","","","","","8,1,004,1,+999,9","","","SYN060AAXX  30031 31725 42998 20502 11162 21254 40305 58004 80002;",
"31725099999","2000-01-30T06:00:00","4","48.6166666","133.8333333","52.0","SMIDOVICH, RS","FM-12","99999","V020","230,1,N,0010,1","22000,1,9,N","020000,1,N,1","-0145,1","-0266,1","10294,1","","","","","","","00,1,+99999,9,99,9","00,99,1,00,1,00,1,99999,9,00,1,00,1","","","","","7,1,011,1,+999,9","","","SYN054AAXX  30061 31725 42998 02301 11145 21266 40294 57011;",
"31725099999","2000-01-30T12:00:00","4","48.6166666","133.8333333","52.0","SMIDOVICH, RS","FM-12","99999","V020","230,1,N,0010,1","22000,1,9,N","020000,1,N,1","-0205,1","-0254,1","10295,1","99,0000,9,1","","","","","","00,1,+99999,9,99,9","00,99,1,00,1,00,1,99999,9,00,1,00,1","","","999,M,-0140,1","99999,9,10223,1","8,1,005,1,+999,9","","","SYN070AAXX  30121 31725 32998 02301 11205 21254 30223 40295 58005 333 11140;","Q01  00002PRCP99"
"31725099999","2000-01-30T15:00:00","4","48.6166666","133.8333333","52.0","SMIDOVICH, RS","FM-12","99999","V020","230,1,N,0010,1","22000,1,9,N","020000,1,N,1","-0222,1","-0269,1","10290,1","","","","","","","00,1,+99999,9,99,9","00,99,1,00,1,00,1,99999,9,00,1,00,1","","","","","7,1,006,1,+999,9","","","SYN054AAXX  30151 31725 42998 02301 11222 21269 40290 57006;",
"31725099999","2000-01-30T18:00:00","4","48.6166666","133.8333333","52.0","SMIDOVICH, RS","FM-12","99999","V020","230,1,N,0020,1","22000,1,9,N","020000,1,N,1","-0230,1","-0263,1","10279,1","","","","","","","00,1,+99999,9,99,9","00,99,1,00,1,00,1,99999,9,00,1,00,1","","","","","7,1,011,1,+999,9","","","SYN054AAXX  30181 31725 42998 02302 11230 21263 40279 57011;",
"31725099999","2000-01-30T21:00:00","4","48.6166666","133.8333333","52.0","SMIDOVICH, RS","FM-12","99999","V020","230,1,N,0010,1","22000,1,9,N","020000,1,N,1","-0250,1","-0281,1","10266,1","99,0000,9,1","","","","","","00,1,+99999,9,99,9","00,99,1,00,1,00,1,99999,9,00,1,00,1","","","","","7,1,014,1,+999,9","","","SYN054AAXX  30211 31725 32998 02301 11250 21281 40266 57014;","Q01  00002PRCP99"
"31725099999","2000-01-31T00:00:00","4","48.6166666","133.8333333","52.0","SMIDOVICH, RS","FM-12","99999","V020","230,1,N,0020,1","22000,1,9,N","020000,1,N,1","-0260,1","-0291,1","10255,1","99,0000,9,1","0013,9,1,999999,9,9","","","","","00,1,+99999,9,99,9","00,99,1,00,1,00,1,99999,9,00,1,00,1","24,9","","120,N,-0295,1","99999,9,10181,1","7,1,011,1,+999,9","","","SYN076AAXX  31001 31725 32998 02302 11260 21291 30181 40255 57011 333 21295 48013;","Q01  00002PRCP99"
"31725099999","2000-01-31T03:00:00","4","48.6166666","133.8333333","52.0","SMIDOVICH, RS","FM-12","99999","V020","230,1,N,0030,1","22000,1,9,N","020000,1,N,1","-0183,1","-0242,1","10241,1","","","","","","","00,1,+99999,9,99,9","00,99,1,00,1,00,1,99999,9,00,1,00,1","","","","","7,1,012,1,+999,9","","","SYN054AAXX  31031 31725 42998 02303 11183 21242 40241 57012;",
"31725099999","2000-01-31T06:00:00","4","48.6166666","133.8333333","52.0","SMIDOVICH, RS","FM-12","99999","V020","200,1,N,0020,1","22000,1,9,N","020000,1,N,1","-0137,1","-0208,1","10229,1","","","","","","","00,1,+99999,9,99,9","00,99,1,00,1,00,1,99999,9,00,1,00,1","","","","","7,1,011,1,+999,9","","","SYN054AAXX  31061 31725 42998 02002 11137 21208 40229 57011;",
"31725099999","2000-01-31T09:00:00","4","48.6166666","133.8333333","52.0","SMIDOVICH, RS","FM-12","99999","V020","230,1,N,0010,1","22000,1,9,N","020000,1,N,1","-0161,1","-0212,1","10216,1","99,0000,9,1","","","","","","00,1,+99999,9,99,9","00,99,1,00,1,00,1,99999,9,00,1,00,1","","","999,M,-0135,1","","7,1,013,1,+999,9","","","SYN064AAXX  31091 31725 32998 02301 11161 21212 40216 57013 333 11135;","Q01  00002PRCP99"
"31725099999","2000-01-31T12:00:00","4","48.6166666","133.8333333","52.0","SMIDOVICH, RS","FM-12","99999","V020","270,1,N,0020,1","22000,1,9,N","020000,1,N,1","-0140,1","-0211,1","10205,1","99,0000,9,1","","","","","","","03,99,1,02,1,00,1,99999,9,04,1,02,1","","","999,M,-0135,1","99999,9,10135,1","7,1,010,1,+999,9","","","SYN076AAXX  31121 31725 32998 32702 11140 21211 30135 40205 57010 82042 333 11135;","Q01  00002PRCP99"
"31725099999","2000-01-31T15:00:00","4","48.6166666","133.8333333","52.0","SMIDOVICH, RS","FM-12","99999","V020","270,1,N,0040,1","22000,1,9,N","020000,1,N,1","-0135,1","-0217,1","10184,1","","","","","","","","03,99,1,02,1,00,1,99999,9,04,1,02,1","","","","","7,1,022,1,+999,9","","","SYN060AAXX  31151 31725 42998 32704 11135 21217 40184 57022 82042;",
"31725099999","2000-01-31T18:00:00","4","48.6166666","133.8333333","52.0","SMIDOVICH, RS","FM-12","99999","V020","270,1,N,0040,1","22000,1,9,N","020000,1,N,1","-0125,1","-0208,1","10190,1","","","","","","","","02,99,1,00,1,00,1,99999,9,00,1,02,1","","","","","7,1,003,1,+999,9","","","SYN060AAXX  31181 31725 42998 22704 11125 21208 40190 57003 80002;",
"31725099999","2000-01-31T21:00:00","4","48.6166666","133.8333333","52.0","SMIDOVICH, RS","FM-12","99999","V020","270,1,N,0040,1","99999,9,9,N","020000,1,N,1","-0135,1","-0208,1","10181,1","99,0000,9,1","","","","","","","05,99,1,03,1,00,1,99999,9,04,1,02,1","","","","","7,1,009,1,+999,9","","","SYN060AAXX  31211 31725 32998 52704 11135 21208 40181 57009 83042;","Q01  00002PRCP99"
"31725099999","2000-02-01T00:00:00","4","48.6166666","133.8333333","52.0","SMIDOVICH, RS","FM-12","99999","V020","230,1,N,0010,1","99999,9,9,N","020000,1,N,1","-0140,1","-0211,1","10189,1","99,0000,9,1","0013,9,1,999999,9,9","","","","","","05,99,1,02,1,00,1,99999,9,04,1,02,1","24,9","","120,N,-0166,1","99999,9,10119,1","3,1,008,1,+999,9","","","SYN082AAXX  01001 31725 32998 52301 11140 21211 30119 40189 53008 82042 333 21166 48013;","Q01  00002PRCP99"
"31725099999","2000-02-01T03:00:00","4","48.6166666","133.8333333","52.0","SMIDOVICH, RS","FM-12","99999","V020","270,1,N,0040,1","22000,1,9,N","020000,1,N,1","-0087,1","-0195,1","10186,1","","","","","","","00,1,+99999,9,99,9","00,99,1,00,1,00,1,99999,9,00,1,00,1","","","","","8,1,002,1,+999,9","","","SYN054AAXX  01031 31725 42998 02704 11087 21195 40186 58002;",
"31725099999","2000-02-01T06:00:00","4","48.6166666","133.8333333","52.0","SMIDOVICH, RS","FM-12","99999","V020","250,1,N,0040,1","22000,1,9,N","020000,1,N,1","-0062,1","-0161,1","10174,1","","","","","","","00,1,+99999,9,99,9","00,99,1,00,1,00,1,99999,9,00,1,00,1","","","","","7,1,012,1,+999,9","","","SYN054AAXX  01061 31725 42998 02504 11062 21161 40174 57012;",
"31725099999","2000-02-01T09:00:00","4","48.6166666","133.8333333","52.0","SMIDOVICH, RS","FM-12","99999","V020","230,1,N,0020,1","22000,1,9,N","020000,1,N,1","-0110,1","-0183,1","10181,1","99,0000,9,1","","","","","","00,1,+99999,9,99,9","00,99,1,00,1,00,1,99999,9,00,1,00,1","","","999,M,-0056,1","","3,1,007,1,+999,9","","","SYN064AAXX  01091 31725 32998 02302 11110 21183 40181 53007 333 11056;","Q01  00002PRCP99"
"31725099999","2000-02-01T12:00:00","4","48.6166666","133.8333333","52.0","SMIDOVICH, RS","FM-12","99999","V020","230,1,N,0010,1","22000,1,9,N","020000,1,N,1","-0169,1","-0219,1","10189,1","99,0000,9,1","","","","","","00,1,+99999,9,99,9","00,99,1,00,1,00,1,99999,9,00,1,00,1","","","999,M,-0056,1","99999,9,10118,1","2,1,005,1,+999,9","","","SYN070AAXX  01121 31725 32998 02301 11169 21219 30118 40189 52005 333 11056;","Q01  00002PRCP99"
"31725099999","2000-02-01T15:00:00","4","48.6166666","133.8333333","52.0","SMIDOVICH, RS","FM-12","99999","V020","230,1,N,0010,1","22000,1,9,N","020000,1,N,1","-0144,1","-0215,1","10196,1","","","","","","","00,1,+99999,9,99,9","00,99,1,00,1,00,1,99999,9,00,1,00,1","","","","","2,1,008,1,+999,9","","","SYN054AAXX  01151 31725 42998 02301 11144 21215 40196 52008;",
"31725099999","2000-02-01T18:00:00","4","48.6166666","133.8333333","52.0","SMIDOVICH, RS","FM-12","99999","V020","999,9,C,0000,1","22000,1,9,N","020000,1,N,1","-0185,1","-0234,1","10207,1","","","","","","","00,1,+99999,9,99,9","00,99,1,00,1,00,1,99999,9,00,1,00,1","","","","","2,1,009,1,+999,9","","","SYN054AAXX  01181 31725 42998 00000 11185 21234 40207 52009;",
"31725099999","2000-02-01T21:00:00","4","48.6166666","133.8333333","52.0","SMIDOVICH, RS","FM-12","99999","V020","999,9,C,0000,1","22000,1,9,N","020000,1,N,1","-0235,1","-0267,1","10216,1","99,0000,9,1","","","","","","00,1,+99999,9,99,9","00,99,1,00,1,00,1,99999,9,00,1,00,1","","","","","2,1,008,1,+999,9","","","SYN054AAXX  01211 31725 32998 00000 11235 21267 40216 52008;","Q01  00002PRCP99"
"31725099999","2000-02-02T00:00:00","4","48.6166666","133.8333333","52.0","SMIDOVICH, RS","FM-12","99999","V020","999,9,C,0000,1","22000,1,9,N","010000,1,N,1","-0233,1","-0265,1","10230,1","99,0000,9,1","0013,9,1,999999,9,9","","0,1,06,1","0,1,06,1","","","02,99,1,02,1,00,1,99999,9,04,1,00,1","24,9","","120,N,-0260,1","99999,9,10157,1","2,1,014,1,+999,9","10,1","","SYN088AAXX  02001 31725 31997 20000 11233 21265 30157 40230 52014 71000 82040 333 21260 48013;","Q01  00002PRCP99"
"31725099999","2000-02-02T03:00:00","4","48.6166666","133.8333333","52.0","SMIDOVICH, RS","FM-12","99999","V020","999,9,C,0000,1","22000,1,9,N","020000,1,N,1","-0165,1","-0207,1","10236,1","","","","","","","00,1,+99999,9,99,9","00,99,1,00,1,00,1,99999,9,00,1,00,1","","","","","2,1,008,1,+999,9","","","SYN054AAXX  02031 31725 42998 00000 11165 21207 40236 52008;",
"31725099999","2000-02-02T06:00:00","4","48.6166666","133.8333333","52.0","SMIDOVICH, RS","FM-12","99999","V020","230,1,N,0010,1","22000,1,9,N","020000,1,N,1","-0150,1","-0201,1","10235,1","","","","","","","00,1,+99999,9,99,9","00,99,1,00,1,00,1,99999,9,00,1,00,1","","","","","8,1,003,1,+999,9","","","SYN054AAXX  02061 31725 42998 02301 11150 21201 40235 58003;",
"31725099999","2000-02-02T09:00:00","4","48.6166666","133.8333333","52.0","SMIDOVICH, RS","FM-12","99999","V020","999,9,C,0000,1","22000,1,9,N","020000,1,N,1","-0192,1","-0233,1","10234,1","99,0000,9,1","","","","","","00,1,+99999,9,99,9","00,99,1,00,1,00,1,99999,9,00,1,00,1","","","999,M,-0125,1","","4,1,000,1,+999,9","","","SYN064AAXX  02091 31725 32998 00000 11192 21233 40234 54000 333 11125;","Q01  00002PRCP99"
"31725099999","2000-02-02T12:00:00","4","48.6166666","133.8333333","52.0","SMIDOVICH, RS","FM-12","99999","V020","999,9,C,0000,1","22000,1,9,N","050000,1,N,1","-0195,1","-0214,1","10231,1","99,0000,9,1","","","","","","00,1,+99999,9,99,9","00,99,1,00,1,00,1,99999,9,00,1,00,1","","","999,M,-0125,1","99999,9,10159,1","8,1,003,1,+999,9","","","SYN070AAXX  02121 31725 32999 00000 11195 21214 30159 40231 58003 333 11125;","Q01  00002PRCP99"
"31725099999","2000-02-02T18:00:00","4","48.6166666","133.8333333","52.0","SMIDOVICH, RS","FM-12","99999","V020","230,1,N,0010,1","22000,1,9,N","010000,1,N,1","-0245,1","-0270,1","10221,1","","","","0,1,06,1","0,1,06,1","","00,1,+99999,9,99,9","00,99,1,00,1,00,1,99999,9,00,1,00,1","","","","","6,1,001,1,+999,9","10,1","","SYN060AAXX  02181 31725 42997 02301 11245 21270 40221 56001 71000;",
"31725099999","2000-02-02T21:00:00","4","48.6166666","133.8333333","52.0","SMIDOVICH, RS","FM-12","99999","V020","230,1,N,0010,1","22000,1,9,N","010000,1,N,1","-0235,1","-0260,1","10211,1","99,0000,9,1","","","0,1,03,1","0,1,03,1","","00,1,+99999,9,99,9","00,99,1,00,1,00,1,99999,9,00,1,00,1","","","","","8,1,010,1,+999,9","10,1","","SYN060AAXX  02211 31725 31997 02301 11235 21260 40211 58010 71000;","Q01  00002PRCP99"
"31725099999","2000-02-03T00:00:00","4","48.6166666","133.8333333","52.0","SMIDOVICH, RS","FM-12","99999","V020","230,1,N,0020,1","22000,1,9,N","010000,1,N,1","-0214,1","-0233,1","10213,1","99,0000,9,1","0013,9,1,999999,9,9","","0,1,06,1","0,1,06,1","","00,1,+99999,9,99,9","00,99,1,00,1,00,1,99999,9,00,1,00,1","23,9","","120,N,-0255,1","99999,9,10141,1","3,1,004,1,+999,9","10,1","","SYN082AAXX  03001 31725 31997 02302 11214 21233 30141 40213 53004 71000 333 21255 47013;","Q01  00002PRCP99"
"31725099999","2000-02-03T03:00:00","4","48.6166666","133.8333333","52.0","SMIDOVICH, RS","FM-12","99999","V020","180,1,N,0010,1","22000,1,9,N","010000,1,N,1","-0156,1","-0175,1","10218,1","","","","0,1,03,1","0,1,03,1","","00,1,+99999,9,99,9","00,99,1,00,1,00,1,99999,9,00,1,00,1","","","","","2,1,006,1,+999,9","10,1","","SYN060AAXX  03031 31725 41997 01801 11156 21175 40218 52006 71000;",
"31725099999","2000-02-03T06:00:00","4","48.6166666","133.8333333","52.0","SMIDOVICH, RS","FM-12","99999","V020","090,1,N,0010,1","22000,1,9,N","020000,1,N,1","-0132,1","-0203,1","10215,1","","","","","","","00,1,+99999,9,99,9","00,99,1,00,1,00,1,99999,9,00,1,00,1","","","","","8,1,002,1,+999,9","","","SYN054AAXX  03061 31725 42998 00901 11132 21203 40215 58002;",
"31725099999","2000-02-03T09:00:00","4","48.6166666","133.8333333","52.0","SMIDOVICH, RS","FM-12","99999","V020","999,9,C,0000,1","22000,1,9,N","020000,1,N,1","-0161,1","-0203,1","10231,1","99,0000,9,1","","","","","","00,1,+99999,9,99,9","00,99,1,00,1,00,1,99999,9,00,1,00,1","","","999,M,-0122,1","","3,1,015,1,+999,9","","","SYN064AAXX  03091 31725 32998 00000 11161 21203 40231 53015 333 11122;","Q01  00002PRCP99"
"31725099999","2000-02-03T12:00:00","4","48.6166666","133.8333333","52.0","SMIDOVICH, RS","FM-12","99999","V020","999,9,C,0000,1","22000,1,9,N","020000,1,N,1","-0200,1","-0214,1","10239,1","99,0000,9,1","","","","","","00,1,+99999,9,99,9","00,99,1,00,1,00,1,99999,9,00,1,00,1","","","999,M,-0122,1","99999,9,10167,1","2,1,007,1,+999,9","","","SYN070AAXX  03121 31725 32998 00000 11200 21214 30167 40239 52007 333 11122;","Q01  00002PRCP99"
"31725099999","2000-02-03T15:00:00","4","48.6166666","133.8333333","52.0","SMIDOVICH, RS","FM-12","99999","V020","999,9,C,0000,1","22000,1,9,N","020000,1,N,1","-0214,1","-0233,1","10248,1","","","","","","","00,1,+99999,9,99,9","00,99,1,00,1,00,1,99999,9,00,1,00,1","","","","","2,1,009,1,+999,9","","","SYN054AAXX  03151 31725 42998 00000 11214 21233 40248 52009;",
"31725099999","2000-02-03T18:00:00","4","48.6166666","133.8333333","52.0","SMIDOVICH, RS","FM-12","99999","V020","999,9,C,0000,1","22000,1,9,N","010000,1,N,1","-0224,1","-0242,1","10257,1","","","","0,1,06,1","0,1,06,1","","00,1,+99999,9,99,9","00,99,1,00,1,00,1,99999,9,00,1,00,1","","","","","2,1,008,1,+999,9","10,1","","SYN060AAXX  03181 31725 41997 00000 11224 21242 40257 52008 71000;",
"31725099999","2000-02-03T21:00:00","4","48.6166666","133.8333333","52.0","SMIDOVICH, RS","FM-12","99999","V020","999,9,C,0000,1","22000,1,9,N","010000,1,N,1","-0258,1","-0276,1","10256,1","99,0000,9,1","","","0,1,03,1","0,1,03,1","","00,1,+99999,9,99,9","00,99,1,00,1,00,1,99999,9,00,1,00,1","","","","","8,1,002,1,+999,9","10,1","","SYN060AAXX  03211 31725 31997 00000 11258 21276 40256 58002 71000;","Q01  00002PRCP99"
"31725099999","2000-02-04T00:00:00","4","48.6166666","133.8333333","52.0","SMIDOVICH, RS","FM-12","99999","V020","999,9,C,0000,1","99999,9,9,N","010000,1,N,1","+9999,9","+9999,9","10262,1","99,0000,9,1","0013,9,1,999999,9,9","","1,1,06,1","1,1,06,1","","","08,99,1,02,1,00,1,99999,9,04,1,02,1","24,9","","120,N,-0260,1","99999,9,10188,1","3,1,006,1,+999,9","10,1","","SYN088AAXX  04001 31725 31997 80000 11745 21263 30188 40262 53006 71011 82042 333 21260 48013;","Q01-007453ATOT  Q02  00002PRCP99"
"31725099999","2000-02-04T03:00:00","4","48.6166666","133.8333333","52.0","SMIDOVICH, RS","FM-12","99999","V020","180,1,N,0010,1","99999,9,9,N","010000,1,N,1","-0183,1","-0202,1","10254,1","","","","2,1,03,1","2,1,03,1","","","08,99,1,03,1,00,1,99999,9,04,1,02,1","","","","","8,1,006,1,+999,9","10,1","","SYN066AAXX  04031 31725 41997 81801 11183 21202 40254 58006 71022 83042;",
"31725099999","2000-02-04T06:00:00","4","48.6166666","133.8333333","52.0","SMIDOVICH, RS","FM-12","99999","V020","180,1,N,0020,1","22000,1,9,N","010000,1,N,1","-0145,1","-0179,1","10246,1","","","","1,1,06,1","1,1,06,1","","","03,99,1,00,1,00,1,99999,9,00,1,02,1","","","","","7,1,007,1,+999,9","10,1","","SYN066AAXX  04061 31725 41997 31802 11145 21179 40246 57007 71011 80002;",
"31725099999","2000-02-04T09:00:00","4","48.6166666","133.8333333","52.0","SMIDOVICH, RS","FM-12","99999","V020","180,1,N,0010,1","22000,1,9,N","010000,1,N,1","-0177,1","-0203,1","10246,1","99,0000,9,1","","","0,1,03,1","0,1,03,1","","00,1,+99999,9,99,9","00,99,1,00,1,00,1,99999,9,00,1,00,1","","","999,M,-0141,1","","6,1,001,1,+999,9","10,1","","SYN070AAXX  04091 31725 32997 01801 11177 21203 40246 56001 71000 333 11141;","Q01  00002PRCP99"
"31725099999","2000-02-04T12:00:00","4","48.6166666","133.8333333","52.0","SMIDOVICH, RS","FM-12","99999","V020","230,1,N,0010,1","22000,1,9,N","010000,1,N,1","-0208,1","-0220,1","10242,1","99,0000,9,1","","","0,1,06,1","0,1,06,1","","00,1,+99999,9,99,9","00,99,1,00,1,00,1,99999,9,00,1,00,1","","","999,M,-0141,1","99999,9,10170,1","8,1,004,1,+999,9","10,1","","SYN076AAXX  04121 31725 32997 02301 11208 21220 30170 40242 58004 71000 333 11141;","Q01  00002PRCP99"
"31725099999","2000-02-04T15:00:00","4","48.6166666","133.8333333","52.0","SMIDOVICH, RS","FM-12","99999","V020","230,1,N,0020,1","22000,1,9,N","010000,1,N,1","-0229,1","-0248,1","10243,1","","","","0,1,03,1","0,1,03,1","","00,1,+99999,9,99,9","00,99,1,00,1,00,1,99999,9,00,1,00,1","","","","","4,1,000,1,+999,9","10,1","","SYN060AAXX  04151 31725 41997 02302 11229 21248 40243 54000 71000;",
"31725099999","2000-02-04T18:00:00","4","48.6166666","133.8333333","52.0","SMIDOVICH, RS","FM-12","99999","V020","230,1,N,0020,1","22000,1,9,N","010000,1,N,1","-0245,1","-0263,1","10245,1","","","","0,1,06,1","0,1,06,1","","00,1,+99999,9,99,9","00,99,1,00,1,00,1,99999,9,00,1,00,1","","","","","3,1,001,1,+999,9","10,1","","SYN060AAXX  04181 31725 41997 02302 11245 21263 40245 53001 71000;",
"31725099999","2000-02-04T21:00:00","4","48.6166666","133.8333333","52.0","SMIDOVICH, RS","FM-12","99999","V020","270,1,N,0010,1","22000,1,9,N","010000,1,N,1","-0198,1","-0217,1","10245,1","99,0000,9,1","","","0,1,03,1","0,1,03,1","","00,1,+99999,9,99,9","00,99,1,00,1,00,1,99999,9,00,1,00,1","","","","","4,1,000,1,+999,9","10,1","","SYN060AAXX  04211 31725 31997 02701 11198 21217 40245 54000 71000;","Q01  00002PRCP99"
"31725099999","2000-02-05T00:00:00","4","48.6166666","133.8333333","52.0","SMIDOVICH, RS","FM-12","99999","V020","230,1,N,0010,1","22000,1,9,N","010000,1,N,1","-0190,1","-0209,1","10258,1","99,0000,9,1","0013,9,1,999999,9,9","","0,1,06,1","0,1,06,1","","00,1,+99999,9,99,9","00,99,1,00,1,00,1,99999,9,00,1,00,1","24,9","","120,N,-0252,1","99999,9,10186,1","3,1,015,1,+999,9","10,1","","SYN082AAXX  05001 31725 31997 02301 11190 21209 30186 40258 53015 71000 333 21252 48013;","Q01  00002PRCP99"
"31725099999","2000-02-05T03:00:00","4","48.6166666","133.8333333","52.0","SMIDOVICH, RS","FM-12","99999","V020","999,9,C,0000,1","22000,1,9,N","020000,1,N,1","-0129,1","-0190,1","10261,1","","","","","","","00,1,+99999,9,99,9","00,99,1,00,1,00,1,99999,9,00,1,00,1","","","","","2,1,004,1,+999,9","","","SYN054AAXX  05031 31725 42998 00000 11129 21190 40261 52004;",
"31725099999","2000-02-05T06:00:00","4","48.6166666","133.8333333","52.0","SMIDOVICH, RS","FM-12","99999","V020","230,1,N,0030,1","22000,1,9,N","020000,1,N,1","+9999,9","+9999,9","10258,1","","","","","","","00,1,+99999,9,99,9","00,99,1,00,1,00,1,99999,9,00,1,00,1","","","","","8,1,002,1,+999,9","","","SYN048AAXX  05061 31725 42998 02303 21189 40258 58002;",
"31725099999","2000-02-05T09:00:00","4","48.6166666","133.8333333","52.0","SMIDOVICH, RS","FM-12","99999","V020","999,9,C,0000,1","22000,1,9,N","020000,1,N,1","-0169,1","-0169,1","10264,1","99,0000,9,1","","","","","","","02,99,1,02,1,00,1,99999,9,04,1,00,1","","","999,M,-0111,1","","3,1,005,1,+999,9","","","SYN070AAXX  05091 31725 32998 20000 11169 21169 40264 53005 82040 333 11111;","Q01  00002PRCP99"
"31725099999","2000-02-05T12:00:00","4","48.6166666","133.8333333","52.0","SMIDOVICH, RS","FM-12","99999","V020","999,9,C,0000,1","22000,1,9,N","020000,1,N,1","-0190,1","-0216,1","10259,1","99,0000,9,1","","","","","","","02,99,1,02,1,00,1,99999,9,04,1,00,1","","","999,M,-0111,1","99999,9,10187,1","8,1,006,1,+999,9","","","SYN076AAXX  05121 31725 32998 20000 11190 21216 30187 40259 58006 82040 333 11111;","Q01  00002PRCP99"
"31725099999","2000-02-05T15:00:00","4","48.6166666","133.8333333","52.0","SMIDOVICH, RS","FM-12","99999","V020","999,9,C,0000,1","22000,1,9,N","020000,1,N,1","-0246,1","-0263,1","10258,1","99,0000,9,1","","","","","","00,1,+99999,9,99,9","00,99,1,00,1,00,1,99999,9,00,1,00,1","","","","","7,1,003,1,+999,9","","","SYN054AAXX  05151 31725 32998 00000 11246 21263 40258 57003;","Q01  00002PRCP99"
"31725099999","2000-02-05T18:00:00","4","48.6166666","133.8333333","52.0","SMIDOVICH, RS","FM-12","99999","V020","999,9,C,0000,1","22000,1,9,N","020000,1,N,1","-0256,1","-0274,1","10251,1","","","","","","","00,1,+99999,9,99,9","00,99,1,00,1,00,1,99999,9,00,1,00,1","","","","","7,1,007,1,+999,9","","","SYN054AAXX  05181 31725 42998 00000 11256 21274 40251 57007;",
"31725099999","2000-02-05T21:00:00","4","48.6166666","133.8333333","52.0","SMIDOVICH, RS","FM-12","99999","V020","999,9,C,0000,1","22000,1,9,N","020000,1,N,1","-0271,1","-0288,1","10237,1","99,0000,9,1","","","0,1,03,1","0,1,03,1","","00,1,+99999,9,99,9","00,99,1,00,1,00,1,99999,9,00,1,00,1","","","","","7,1,015,1,+999,9","10,1","","SYN060AAXX  05211 31725 31998 00000 11271 21288 40237 57015 71000;","Q01  00002PRCP99"
"31725099999","2000-02-06T00:00:00","4","48.6166666","133.8333333","52.0","SMIDOVICH, RS","FM-12","99999","V020","999,9,C,0000,1","99999,9,9,N","010000,1,N,1","-0256,1","-0281,1","10230,1","99,0000,9,1","0012,9,1,999999,9,9","","1,1,06,1","1,1,06,1","","","08,99,1,00,1,00,1,99999,9,00,1,02,1","24,9","","120,N,-0292,1","99999,9,10156,1","7,1,006,1,+999,9","10,1","","SYN088AAXX  06001 31725 31997 80000 11256 21281 30156 40230 57006 71011 80002 333 21292 48012;","Q01  00002PRCP99"
"31725099999","2000-02-06T03:00:00","4","48.6166666","133.8333333","52.0","SMIDOVICH, RS","FM-12","99999","V020","999,9,C,0000,1","99999,9,9,N","010000,1,N,1","-0194,1","-0213,1","10215,1","","","","2,1,03,1","2,1,03,1","","","05,99,1,00,1,00,1,99999,9,00,1,02,1","","","","","7,1,013,1,+999,9","10,1","","SYN066AAXX  06031 31725 41997 50000 11194 21213 40215 57013 71022 80002;",
"31725099999","2000-02-06T06:00:00","4","48.6166666","133.8333333","52.0","SMIDOVICH, RS","FM-12","99999","V020","999,9,C,0000,1","99999,9,9,N","020000,1,N,1","-0156,1","-0198,1","10192,1","","","","","","","","08,99,1,00,1,00,1,99999,9,00,1,06,1","","","","","7,1,022,1,+999,9","","","SYN060AAXX  06061 31725 42998 80000 11156 21198 40192 57022 80006;",
"31725099999","2000-02-06T09:00:00","4","48.6166666","133.8333333","52.0","SMIDOVICH, RS","FM-12","99999","V020","999,9,C,0000,1","99999,9,9,N","020000,1,N,1","-0185,1","-0218,1","10185,1","99,0000,9,1","","","","","","","08,99,1,05,1,00,1,99999,9,04,1,03,1","","","999,M,-0154,1","","7,1,008,1,+999,9","","","SYN070AAXX  06091 31725 32998 80000 11185 21218 40185 57008 85043 333 11154;","Q01  00002PRCP99"
"31725099999","2000-02-06T12:00:00","4","48.6166666","133.8333333","52.0","SMIDOVICH, RS","FM-12","99999","V020","999,9,C,0000,1","22000,1,9,N","020000,1,N,1","-0215,1","-0233,1","10184,1","99,0000,9,1","","","","","","","02,99,1,02,1,00,1,99999,9,04,1,00,1","","","999,M,-0154,1","99999,9,10111,1","6,1,002,1,+999,9","","","SYN076AAXX  06121 31725 32998 20000 11215 21233 30111 40184 56002 82040 333 11154;","Q01  00002PRCP99"
"31725099999","2000-02-06T15:00:00","4","48.6166666","133.8333333","52.0","SMIDOVICH, RS","FM-12","99999","V020","999,9,C,0000,1","22000,1,9,N","020000,1,N,1","-0233,1","-0251,1","10177,1","","","","","","","","02,99,1,02,1,00,1,99999,9,04,1,00,1","","","","","8,1,007,1,+999,9","","","SYN060AAXX  06151 31725 42998 20000 11233 21251 40177 58007 82040;",
"31725099999","2000-02-06T18:00:00","4","48.6166666","133.8333333","52.0","SMIDOVICH, RS","FM-12","99999","V020","999,9,C,0000,1","22000,1,9,N","020000,1,N,1","-0235,1","-0253,1","10181,1","","","","","","","","02,99,1,02,1,00,1,99999,9,04,1,00,1","","","","","3,1,004,1,+999,9","","","SYN060AAXX  06181 31725 42998 20000 11235 21253 40181 53004 82040;",
"31725099999","2000-02-07T00:00:00","4","48.6166666","133.8333333","52.0","SMIDOVICH, RS","FM-12","99999","V020","320,1,N,0010,1","99999,9,9,N","010000,1,N,1","-0235,1","-0253,1","10176,1","99,0000,9,1","0011,9,1,999999,9,9","","1,1,06,1","1,1,06,1","","","08,99,1,02,1,00,1,99999,9,04,1,02,1","24,9","","120,N,-0256,1","99999,9,10103,1","6,1,001,1,+999,9","10,1","","SYN088AAXX  07001 31725 31997 83201 11235 21253 30103 40176 56001 71011 82042 333 21256 48011;","Q01  00002PRCP99"
"31725099999","2000-02-07T03:00:00","4","48.6166666","133.8333333","52.0","SMIDOVICH, RS","FM-12","99999","V020","360,1,N,0010,1","99999,9,9,N","020000,1,N,1","-0160,1","-0187,1","10167,1","","","","","","","","08,99,1,02,1,00,1,99999,9,04,1,01,1","","","","","8,1,007,1,+999,9","","","SYN060AAXX  07031 31725 42998 83601 11160 21187 40167 58007 82041;",
"31725099999","2000-02-07T06:00:00","4","48.6166666","133.8333333","52.0","SMIDOVICH, RS","FM-12","99999","V020","360,1,N,0010,1","99999,9,9,N","020000,1,N,1","-0133,1","-0194,1","10169,1","","","","","","","","08,99,1,03,1,00,1,99999,9,04,1,02,1","","","","","7,1,007,1,+999,9","","","SYN060AAXX  07061 31725 42998 83601 11133 21194 40169 57007 83042;",
"31725099999","2000-02-07T09:00:00","4","48.6166666","133.8333333","52.0","SMIDOVICH, RS","FM-12","99999","V020","999,9,C,0000,1","99999,9,9,N","020000,1,N,1","-0188,1","-0221,1","10158,1","99,0000,9,1","","","","","","","08,99,1,02,1,00,1,99999,9,04,1,02,1","","","999,M,-0126,1","","7,1,003,1,+999,9","","","SYN070AAXX  07091 31725 32998 80000 11188 21221 40158 57003 82042 333 11126;","Q01  00002PRCP99"
"31725099999","2000-02-07T12:00:00","4","48.6166666","133.8333333","52.0","SMIDOVICH, RS","FM-12","99999","V020","999,9,C,0000,1","22000,1,9,N","020000,1,N,1","-0199,1","-0225,1","10154,1","99,0000,9,1","","","","","","","02,99,1,02,1,00,1,99999,9,04,1,00,1","","","999,M,-0126,1","99999,9,10082,1","7,1,004,1,+999,9","","","SYN076AAXX  07121 31725 32998 20000 11199 21225 30082 40154 57004 82040 333 11126;","Q01  00002PRCP99"
"31725099999","2000-02-07T15:00:00","4","48.6166666","133.8333333","52.0","SMIDOVICH, RS","FM-12","99999","V020","999,9,C,0000,1","22000,1,9,N","020000,1,N,1","-0239,1","-0257,1","10148,1","","","","","","","00,1,+99999,9,99,9","00,99,1,00,1,00,1,99999,9,00,1,00,1","","","","","7,1,007,1,+999,9","","","SYN054AAXX  07151 31725 42998 00000 11239 21257 40148 57007;",
"31725099999","2000-02-07T18:00:00","4","48.6166666","133.8333333","52.0","SMIDOVICH, RS","FM-12","99999","V020","999,9,C,0000,1","22000,1,9,N","020000,1,N,1","-0276,1","-0293,1","10149,1","","","","","","","00,1,+99999,9,99,9","00,99,1,00,1,00,1,99999,9,00,1,00,1","","","","","4,1,000,1,+999,9","","","SYN054AAXX  07181 31725 42998 00000 11276 21293 40149 54000;",
"31725099999","2000-02-07T21:00:00","4","48.6166666","133.8333333","52.0","SMIDOVICH, RS","FM-12","99999","V020","999,9,C,0000,1","22000,1,9,N","020000,1,N,1","-0289,1","-0313,1","10140,1","99,0000,9,1","","","","","","00,1,+99999,9,99,9","00,99,1,00,1,00,1,99999,9,00,1,00,1","","","","","8,1,010,1,+999,9","","","SYN054AAXX  07211 31725 32998 00000 11289 21313 40140 58010;","Q01  00002PRCP99"
"31725099999","2000-02-08T00:00:00","4","48.6166666","133.8333333","52.0","SMIDOVICH, RS","FM-12","99999","V020","999,9,C,0000,1","22000,1,9,N","020000,1,N,1","-0275,1","-0299,1","10140,1","99,0000,9,1","0010,9,1,999999,9,9","","","","","00,1,+99999,9,99,9","00,99,1,00,1,00,1,99999,9,00,1,00,1","24,9","","120,N,-0300,1","99999,9,10066,1","3,1,001,1,+999,9","","","SYN076AAXX  08001 31725 32998 00000 11275 21299 30066 40140 53001 333 21300 48010;","Q01  00002PRCP99"
"31725099999","2000-02-08T03:00:00","4","48.6166666","133.8333333","52.0","SMIDOVICH, RS","FM-12","99999","V020","180,1,N,0010,1","22000,1,9,N","020000,1,N,1","-0205,1","-0230,1","10137,1","","","","","","","00,1,+99999,9,99,9","00,99,1,00,1,00,1,99999,9,00,1,00,1","","","","","8,1,001,1,+999,9","","","SYN054AAXX  08031 31725 42998 01801 11205 21230 40137 58001;",
"31725099999","2000-02-08T06:00:00","4","48.6166666","133.8333333","52.0","SMIDOVICH, RS","FM-12","99999","V020","180,1,N,0010,1","22000,1,9,N","020000,1,N,1","-0159,1","-0210,1","10130,1","","","","","","","00,1,+99999,9,99,9","00,99,1,00,1,00,1,99999,9,00,1,00,1","","","","","4,1,000,1,+999,9","","","SYN054AAXX  08061 31725 42998 01801 11159 21210 40130 54000;",
"31725099999","2000-02-08T09:00:00","4","48.6166666","133.8333333","52.0","SMIDOVICH, RS","FM-12","99999","V020","140,1,N,0010,1","22000,1,9,N","020000,1,N,1","-0203,1","-0236,1","10127,1","99,0000,9,1","","","","","","","02,99,1,02,1,00,1,99999,9,04,1,01,1","","","999,M,-0151,1","","3,1,001,1,+999,9","","","SYN070AAXX  08091 31725 32998 21401 11203 21236 40127 53001 82041 333 11151;","Q01  00002PRCP99"
"31725099999","2000-02-08T12:00:00","4","48.6166666","133.8333333","52.0","SMIDOVICH, RS","FM-12","99999","V020","999,9,C,0000,1","22000,1,9,N","020000,1,N,1","-0237,1","-0261,1","10129,1","99,0000,9,1","","","","","","","02,99,1,02,1,00,1,99999,9,04,1,01,1","","","999,M,-0151,1","99999,9,10056,1","1,1,001,1,+999,9","","","SYN076AAXX  08121 31725 32998 20000 11237 21261 30056 40129 51001 82041 333 11151;","Q01  00002PRCP99"
"31725099999","2000-02-08T15:00:00","4","48.6166666","133.8333333","52.0","SMIDOVICH, RS","FM-12","99999","V020","999,9,C,0000,1","22000,1,9,N","020000,1,N,1","-0238,1","-0263,1","10121,1","","","","","","","00,1,+99999,9,99,9","00,99,1,00,1,00,1,99999,9,00,1,00,1","","","","","8,1,008,1,+999,9","","","SYN054AAXX  08151 31725 42998 00000 11238 21263 40121 58008;",
"31725099999","2000-02-08T18:00:00","4","48.6166666","133.8333333","52.0","SMIDOVICH, RS","FM-12","99999","V020","999,9,C,0000,1","22000,1,9,N","020000,1,N,1","-0266,1","-0283,1","10122,1","","","","","","","00,1,+99999,9,99,9","00,99,1,00,1,00,1,99999,9,00,1,00,1","","","","","4,1,000,1,+999,9","","","SYN054AAXX  08181 31725 42998 00000 11266 21283 40122 54000;",
"31725099999","2000-02-08T21:00:00","4","48.6166666","133.8333333","52.0","SMIDOVICH, RS","FM-12","99999","V020","999,9,C,0000,1","22000,1,9,N","020000,1,N,1","-0283,1","-0300,1","10122,1","99,0000,9,1","","","","","","00,1,+99999,9,99,9","00,99,1,00,1,00,1,99999,9,00,1,00,1","","","","","4,1,000,1,+999,9","","","SYN054AAXX  08211 31725 32998 00000 11283 21300 40122 54000;","Q01  00002PRCP99"
"31725099999","2000-02-09T00:00:00","4","48.6166666","133.8333333","52.0","SMIDOVICH, RS","FM-12","99999","V020","999,9,C,0000,1","22000,1,9,N","010000,1,N,1","-0276,1","-0299,1","10127,1","99,0000,9,1","0010,9,1,999999,9,9","","0,1,06,1","0,1,06,1","","00,1,+99999,9,99,9","00,99,1,00,1,00,1,99999,9,00,1,00,1","24,9","","120,N,-0295,1","99999,9,10053,1","3,1,005,1,+999,9","10,1","","SYN082AAXX  09001 31725 31997 00000 11276 21299 30053 40127 53005 71000 333 21295 48010;","Q01  00002PRCP99"
"31725099999","2000-02-09T03:00:00","4","48.6166666","133.8333333","52.0","SMIDOVICH, RS","FM-12","99999","V020","180,1,N,0010,1","22000,1,9,N","020000,1,N,1","-0208,1","-0233,1","10118,1","","","","","","","00,1,+99999,9,99,9","00,99,1,00,1,00,1,99999,9,00,1,00,1","","","","","8,1,007,1,+999,9","","","SYN054AAXX  09031 31725 42998 01801 11208 21233 40118 58007;",
"31725099999","2000-02-09T06:00:00","4","48.6166666","133.8333333","52.0","SMIDOVICH, RS","FM-12","99999","V020","180,1,N,0010,1","22000,1,9,N","020000,1,N,1","-0152,1","-0203,1","10106,1","","","","","","","00,1,+99999,9,99,9","00,99,1,00,1,00,1,99999,9,00,1,00,1","","","","","7,1,010,1,+999,9","","","SYN054AAXX  09061 31725 42998 01801 11152 21203 40106 57010;",
"31725099999","2000-02-09T09:00:00","4","48.6166666","133.8333333","52.0","SMIDOVICH, RS","FM-12","99999","V020","999,9,C,0000,1","99999,9,9,N","020000,1,N,1","-0178,1","-0219,1","10103,1","","","","","","","","05,99,1,00,1,00,1,99999,9,00,1,02,1","","","999,M,-0140,1","","7,1,004,1,+999,9","","","SYN070AAXX  09091 31725 42998 50000 11178 21219 40103 57004 80002 333 11140;",
"31725099999","2000-02-09T12:00:00","4","48.6166666","133.8333333","52.0","SMIDOVICH, RS","FM-12","99999","V020","999,9,C,0000,1","22000,1,9,N","020000,1,N,1","-0205,1","-0238,1","10098,1","99,0000,9,1","","","","","","","02,99,1,99,9,99,9,99999,9,99,9,99,9","","","999,M,-0140,1","99999,9,10026,1","7,1,005,1,+999,9","","","SYN070AAXX  09121 31725 32998 20000 11205 21238 30026 40098 57068 333 11140;","Q01+000682APC3  Q02  00002PRCP99"
"31725099999","2000-02-09T15:00:00","4","48.6166666","133.8333333","52.0","SMIDOVICH, RS","FM-12","99999","V020","999,9,C,0000,1","22000,1,9,N","020000,1,N,1","-0274,1","-0298,1","10099,1","","","","","","","00,1,+99999,9,99,9","00,99,1,00,1,00,1,99999,9,00,1,00,1","","","","","6,1,001,1,+999,9","","","SYN054AAXX  09151 31725 42998 00000 11274 21298 40099 56001;",
"31725099999","2000-02-09T18:00:00","4","48.6166666","133.8333333","52.0","SMIDOVICH, RS","FM-12","99999","V020","270,1,N,0010,1","22000,1,9,N","020000,1,N,1","-0200,1","-0233,1","10093,1","","","","","","","00,1,+99999,9,99,9","00,99,1,00,1,00,1,99999,9,00,1,00,1","","","","","7,1,004,1,+999,9","","","SYN054AAXX  09181 31725 42998 02701 11200 21233 40093 57004;",
"31725099999","2000-02-09T21:00:00","4","48.6166666","133.8333333","52.0","SMIDOVICH, RS","FM-12","99999","V020","999,9,C,0000,1","22000,1,9,N","020000,1,N,1","-0250,1","-0281,1","10090,1","99,0000,9,1","","","","","","00,1,+99999,9,99,9","00,99,1,00,1,00,1,99999,9,00,1,00,1","","","","","7,1,005,1,+999,9","","","SYN054AAXX  09211 31725 32998 00000 11250 21281 40090 57005;","Q01  00002PRCP99"
"31725099999","2000-02-10T00:00:00","4","48.6166666","133.8333333","52.0","SMIDOVICH, RS","FM-12","99999","V020","230,1,N,0010,1","22000,1,9,N","020000,1,N,1","-0211,1","-0244,1","10091,1","99,0000,9,1","0010,9,1,999999,9,9","","","","","00,1,+99999,9,99,9","00,99,1,00,1,00,1,99999,9,00,1,00,1","24,9","","120,N,-0274,1","99999,9,10019,1","3,1,003,1,+999,9","","","SYN076AAXX  10001 31725 32998 02301 11211 21244 30019 40091 53003 333 21274 48010;","Q01  00002PRCP99"
"31725099999","2000-02-10T03:00:00","4","48.6166666","133.8333333","52.0","SMIDOVICH, RS","FM-12","99999","V020","230,1,N,0020,1","22000,1,9,N","020000,1,N,1","-0146,1","-0207,1","10087,1","","","","","","","00,1,+99999,9,99,9","00,99,1,00,1,00,1,99999,9,00,1,00,1","","","","","8,1,002,1,+999,9","","","SYN054AAXX  10031 31725 42998 02302 11146 21207 40087 58002;",
"31725099999","2000-02-10T06:00:00","4","48.6166666","133.8333333","52.0","SMIDOVICH, RS","FM-12","99999","V020","230,1,N,0030,1","22000,1,9,N","020000,1,N,1","-0111,1","-0173,1","10076,1","","","","","","","00,1,+99999,9,99,9","00,99,1,00,1,00,1,99999,9,00,1,00,1","","","","","7,1,009,1,+999,9","","","SYN054AAXX  10061 31725 42998 02303 11111 21173 40076 57009;",
"31725099999","2000-02-10T09:00:00","4","48.6166666","133.8333333","52.0","SMIDOVICH, RS","FM-12","99999","V020","230,1,N,0010,1","22000,1,9,N","020000,1,N,1","-0150,1","-0201,1","10078,1","99,0000,9,1","","","","","","","02,99,1,02,1,00,1,99999,9,04,1,00,1","","","999,M,-0105,1","","4,1,000,1,+999,9","","","SYN070AAXX  10091 31725 32998 22301 11150 21201 40078 54000 82040 333 11105;","Q01  00002PRCP99"
"31725099999","2000-02-10T12:00:00","4","48.6166666","133.8333333","52.0","SMIDOVICH, RS","FM-12","99999","V020","230,1,N,0010,1","22000,1,9,N","020000,1,N,1","-0171,1","-0213,1","10081,1","99,0000,9,1","","","","","","","03,99,1,00,1,00,1,99999,9,00,1,02,1","","","999,M,-0105,1","99999,9,10010,1","3,1,002,1,+999,9","","","SYN076AAXX  10121 31725 32998 32301 11171 21213 30010 40081 53002 80002 333 11105;","Q01  00002PRCP99"
"31725099999","2000-02-10T15:00:00","4","48.6166666","133.8333333","52.0","SMIDOVICH, RS","FM-12","99999","V020","230,1,N,0010,1","22000,1,9,N","020000,1,N,1","-0198,1","-0231,1","10083,1","","","","","","","","03,99,1,00,1,00,1,99999,9,00,1,02,1","","","","","1,1,001,1,+999,9","","","SYN060AAXX  10151 31725 42998 32301 11198 21231 40083 51001 80002;",
"31725099999","2000-02-10T18:00:00","4","48.6166666","133.8333333","52.0","SMIDOVICH, RS","FM-12","99999","V020","999,9,C,0000,1","22000,1,9,N","050000,1,N,1","-0221,1","-0261,1","10086,1","","","","","","","00,1,+99999,9,99,9","00,99,1,00,1,00,1,99999,9,00,1,00,1","","","","","1,1,002,1,+999,9","","","SYN054AAXX  10181 31725 42999 00000 11221 21261 40086 51002;",
"31725099999","2000-02-10T21:00:00","4","48.6166666","133.8333333","52.0","SMIDOVICH, RS","FM-12","99999","V020","999,9,C,0000,1","22000,1,9,N","020000,1,N,1","-0200,1","-0233,1","10091,1","99,0000,9,1","","","","","","00,1,+99999,9,99,9","00,99,1,00,1,00,1,99999,9,00,1,00,1","","","","","3,1,006,1,+999,9","","","SYN054AAXX  10211 31725 32998 00000 11200 21233 40091 53006;","Q01  00002PRCP99"
"31725099999","2000-02-11T00:00:00","4","48.6166666","133.8333333","52.0","SMIDOVICH, RS","FM-12","99999","V020","200,1,N,0020,1","22000,1,9,N","020000,1,N,1","-0165,1","-0215,1","10085,1","99,0000,9,1","0010,9,1,999999,9,9","","","","","","01,99,1,00,1,00,1,99999,9,00,1,02,1","24,9","","120,N,-0250,1","99999,9,10014,1","8,1,005,1,+999,9","","","SYN082AAXX  11001 31725 32998 12002 11165 21215 30014 40085 58005 80002 333 21250 48010;","Q01  00002PRCP99"
"31725099999","2000-02-11T03:00:00","4","48.6166666","133.8333333","52.0","SMIDOVICH, RS","FM-12","99999","V020","230,1,N,0020,1","22000,1,9,N","020000,1,N,1","-0132,1","-0193,1","10085,1","","","","","","","","01,99,1,01,1,00,1,99999,9,04,1,00,1","","","","","3,1,002,1,+999,9","","","SYN060AAXX  11031 31725 42998 12302 11132 21193 40085 53002 81040;",
"31725099999","2000-02-11T06:00:00","4","48.6166666","133.8333333","52.0","SMIDOVICH, RS","FM-12","99999","V020","230,1,N,0030,1","22000,1,9,N","020000,1,N,1","-0104,1","-0177,1","10083,1","","","","","","","","01,99,1,01,1,00,1,99999,9,04,1,00,1","","","","","8,1,001,1,+999,9","","","SYN060AAXX  11061 31725 42998 12303 11104 21177 40083 58001 81040;",
"31725099999","2000-02-11T09:00:00","4","48.6166666","133.8333333","52.0","SMIDOVICH, RS","FM-12","99999","V020","230,1,N,0010,1","22000,1,9,N","020000,1,N,1","-0148,1","-0199,1","10086,1","99,0000,9,1","","","","","","00,1,+99999,9,99,9","00,99,1,00,1,00,1,99999,9,00,1,00,1","","","999,M,-0098,1","","3,1,001,1,+999,9","","","SYN064AAXX  11091 31725 32998 02301 11148 21199 40086 53001 333 11098;","Q01  00002PRCP99"
"31725099999","2000-02-11T12:00:00","4","48.6166666","133.8333333","52.0","SMIDOVICH, RS","FM-12","99999","V020","230,1,N,0010,1","22000,1,9,N","020000,1,N,1","-0189,1","-0230,1","10089,1","99,0000,9,1","","","","","","","03,99,1,01,1,00,1,99999,9,04,1,02,1","","","999,M,-0098,1","99999,9,10017,1","1,1,001,1,+999,9","","","SYN076AAXX  11121 31725 32998 32301 11189 21230 30017 40089 51001 81042 333 11098;","Q01  00002PRCP99"
"31725099999","2000-02-11T15:00:00","4","48.6166666","133.8333333","52.0","SMIDOVICH, RS","FM-12","99999","V020","200,1,N,0010,1","22000,1,9,N","020000,1,N,1","-0184,1","-0225,1","10093,1","","","","","","","","01,99,1,00,1,00,1,99999,9,00,1,01,1","","","","","3,1,005,1,+999,9","","","SYN060AAXX  11151 31725 42998 12001 11184 21225 40093 53005 80001;",
"31725099999","2000-02-11T18:00:00","4","48.6166666","133.8333333","52.0","SMIDOVICH, RS","FM-12","99999","V020","070,1,N,0010,1","22000,1,9,N","020000,1,N,1","-0238,1","-0277,1","10098,1","","","","","","","00,1,+99999,9,99,9","00,99,1,00,1,00,1,99999,9,00,1,00,1","","","","","2,1,003,1,+999,9","","","SYN054AAXX  11181 31725 42998 00701 11238 21277 40098 52003;",
"31725099999","2000-02-11T21:00:00","4","48.6166666","133.8333333","52.0","SMIDOVICH, RS","FM-12","99999","V020","999,9,C,0000,1","22000,1,9,N","020000,1,N,1","-0220,1","-0245,1","10105,1","99,0000,9,1","","","","","","00,1,+99999,9,99,9","00,99,1,00,1,00,1,99999,9,00,1,00,1","","","","","2,1,007,1,+999,9","","","SYN054AAXX  11211 31725 32998 00000 11220 21245 40105 52007;","Q01  00002PRCP99"
"31725099999","2000-02-12T00:00:00","4","48.6166666","133.8333333","52.0","SMIDOVICH, RS","FM-12","99999","V020","230,1,N,0010,1","22000,1,9,N","010000,1,N,1","-0203,1","-0228,1","10125,1","99,0000,9,1","0010,9,1,999999,9,9","","0,1,06,1","0,1,06,1","","","02,99,1,00,1,00,1,99999,9,00,1,02,1","24,9","","120,N,-0258,1","99999,9,10053,1","2,1,021,1,+999,9","10,1","","SYN088AAXX  12001 31725 31997 22301 11203 21228 30053 40125 52021 71000 80002 333 21258 48010;","Q01  00002PRCP99"
"31725099999","2000-02-12T03:00:00","4","48.6166666","133.8333333","52.0","SMIDOVICH, RS","FM-12","99999","V020","999,9,C,0000,1","22000,1,9,N","020000,1,N,1","-0145,1","-0206,1","10134,1","","","","","","","00,1,+99999,9,99,9","00,99,1,00,1,00,1,99999,9,00,1,00,1","","","","","2,1,010,1,+999,9","","","SYN054AAXX  12031 31725 42998 00000 11145 21206 40134 52010;",
"31725099999","2000-02-12T06:00:00","4","48.6166666","133.8333333","52.0","SMIDOVICH, RS","FM-12","99999","V020","999,9,C,0000,1","22000,1,9,N","020000,1,N,1","-0125,1","-0187,1","10137,1","","","","","","","00,1,+99999,9,99,9","00,99,1,00,1,00,1,99999,9,00,1,00,1","","","","","2,1,004,1,+999,9","","","SYN054AAXX  12061 31725 42998 00000 11125 21187 40137 52004;",
"31725099999","2000-02-12T09:00:00","4","48.6166666","133.8333333","52.0","SMIDOVICH, RS","FM-12","99999","V020","230,1,N,0020,1","22000,1,9,N","020000,1,N,1","-0160,1","-0211,1","10146,1","99,0000,9,1","","","","","","00,1,+99999,9,99,9","00,99,1,00,1,00,1,99999,9,00,1,00,1","","","999,M,-0122,1","","2,1,008,1,+999,9","","","SYN064AAXX  12091 31725 32998 02302 11160 21211 40146 52008 333 11122;","Q01  00002PRCP99"
"31725099999","2000-02-12T12:00:00","4","48.6166666","133.8333333","52.0","SMIDOVICH, RS","FM-12","99999","V020","230,1,N,0020,1","22000,1,9,N","020000,1,N,1","-0205,1","-0254,1","10155,1","99,0000,9,1","","","","","","00,1,+99999,9,99,9","00,99,1,00,1,00,1,99999,9,00,1,00,1","","","999,M,-0122,1","99999,9,10083,1","2,1,008,1,+999,9","","","SYN070AAXX  12121 31725 32998 02302 11205 21254 30083 40155 52008 333 11122;","Q01  00002PRCP99"
"31725099999","2000-02-12T15:00:00","4","48.6166666","133.8333333","52.0","SMIDOVICH, RS","FM-12","99999","V020","270,1,N,0030,1","22000,1,9,N","020000,1,N,1","-0196,1","-0254,1","10160,1","","","","","","","00,1,+99999,9,99,9","00,99,1,00,1,00,1,99999,9,00,1,00,1","","","","","2,1,005,1,+999,9","","","SYN054AAXX  12151 31725 42998 02703 11196 21254 40160 52005;",
"31725099999","2000-02-12T18:00:00","4","48.6166666","133.8333333","52.0","SMIDOVICH, RS","FM-12","99999","V020","320,1,N,0010,1","22000,1,9,N","020000,1,N,1","-0225,1","-0273,1","10166,1","","","","","","","00,1,+99999,9,99,9","00,99,1,00,1,00,1,99999,9,00,1,00,1","","","","","2,1,005,1,+999,9","","","SYN054AAXX  12181 31725 42998 03201 11225 21273 40166 52005;",
"31725099999","2000-02-12T21:00:00","4","48.6166666","133.8333333","52.0","SMIDOVICH, RS","FM-12","99999","V020","270,1,N,0020,1","22000,1,9,N","020000,1,N,1","-0250,1","-0296,1","10171,1","99,0000,9,1","","","","","","00,1,+99999,9,99,9","00,99,1,00,1,00,1,99999,9,00,1,00,1","","","","","2,1,004,1,+999,9","","","SYN054AAXX  12211 31725 32998 02702 11250 21296 40171 52004;","Q01  00002PRCP99"
"31725099999","2000-02-13T00:00:00","4","48.6166666","133.8333333","52.0","SMIDOVICH, RS","FM-12","99999","V020","230,1,N,0010,1","22000,1,9,N","020000,1,N,1","-0217,1","-0274,1","10172,1","99,0000,9,1","0010,9,1,999999,9,9","","","","","00,1,+99999,9,99,9","00,99,1,00,1,00,1,99999,9,00,1,00,1","24,9","","120,N,-0275,1","99999,9,10099,1","1,1,002,1,+999,9","","","SYN076AAXX  13001 31725 32998 02301 11217 21274 30099 40172 51002 333 21275 48010;","Q01  00002PRCP99"
"31725099999","2000-02-13T03:00:00","4","48.6166666","133.8333333","52.0","SMIDOVICH, RS","FM-12","99999","V020","230,1,N,0020,1","22000,1,9,N","020000,1,N,1","-0168,1","-0237,1","10167,1","","","","","","","00,1,+99999,9,99,9","00,99,1,00,1,00,1,99999,9,00,1,00,1","","","","","8,1,003,1,+999,9","","","SYN054AAXX  13031 31725 42998 02302 11168 21237 40167 58003;",
"31725099999","2000-02-13T06:00:00","4","48.6166666","133.8333333","52.0","SMIDOVICH, RS","FM-12","99999","V020","230,1,N,0020,1","22000,1,9,N","020000,1,N,1","-0144,1","-0225,1","10160,1","","","","","","","00,1,+99999,9,99,9","00,99,1,00,1,00,1,99999,9,00,1,00,1","","","","","7,1,006,1,+999,9","","","SYN054AAXX  13061 31725 42998 02302 11144 21225 40160 57006;",
"31725099999","2000-02-13T09:00:00","4","48.6166666","133.8333333","52.0","SMIDOVICH, RS","FM-12","99999","V020","230,1,N,0010,1","22000,1,9,N","020000,1,N,1","-0184,1","-0243,1","10155,1","99,0000,9,1","","","","","","00,1,+99999,9,99,9","00,99,1,00,1,00,1,99999,9,00,1,00,1","","","999,M,-0136,1","","7,1,006,1,+999,9","","","SYN064AAXX  13091 31725 32998 02301 11184 21243 40155 57006 333 11136;","Q01  00002PRCP99"
"31725099999","2000-02-13T12:00:00","4","48.6166666","133.8333333","52.0","SMIDOVICH, RS","FM-12","99999","V020","230,1,N,0010,1","22000,1,9,N","020000,1,N,1","-0216,1","-0264,1","10149,1","99,0000,9,1","","","","","","00,1,+99999,9,99,9","00,99,1,00,1,00,1,99999,9,00,1,00,1","","","999,M,-0136,1","99999,9,10076,1","7,1,008,1,+999,9","","","SYN070AAXX  13121 31725 32998 02301 11216 21264 30076 40149 57008 333 11136;","Q01  00002PRCP99"
"31725099999","2000-02-13T15:00:00","4","48.6166666","133.8333333","52.0","SMIDOVICH, RS","FM-12","99999","V020","999,9,C,0000,1","22000,1,9,N","020000,1,N,1","-0254,1","-0300,1","10149,1","","","","","","","00,1,+99999,9,99,9","00,99,1,00,1,00,1,99999,9,00,1,00,1","","","","","6,1,001,1,+999,9","","","SYN054AAXX  13151 31725 42998 00000 11254 21300 40149 56001;",
"31725099999","2000-02-13T18:00:00","4","48.6166666","133.8333333","52.0","SMIDOVICH, RS","FM-12","99999","V020","230,1,N,0010,1","22000,1,9,N","020000,1,N,1","-0250,1","-0296,1","10143,1","","","","","","","00,1,+99999,9,99,9","00,99,1,00,1,00,1,99999,9,00,1,00,1","","","","","8,1,008,1,+999,9","","","SYN054AAXX  13181 31725 42998 02301 11250 21296 40143 58008;",
"31725099999","2000-02-13T21:00:00","4","48.6166666","133.8333333","52.0","SMIDOVICH, RS","FM-12","99999","V020","230,1,N,0010,1","22000,1,9,N","020000,1,N,1","-0289,1","-0327,1","10131,1","99,0000,9,1","","","","","","00,1,+99999,9,99,9","00,99,1,00,1,00,1,99999,9,00,1,00,1","","","","","7,1,013,1,+999,9","","","SYN054AAXX  13211 31725 32998 02301 11289 21327 40131 57013;","Q01  00002PRCP99"
"31725099999","2000-02-14T00:00:00","4","48.6166666","133.8333333","52.0","SMIDOVICH, RS","FM-12","99999","V020","230,1,N,0020,1","22000,1,9,N","020000,1,N,1","-0275,1","-0312,1","10130,1","99,0000,9,1","0010,9,1,999999,9,9","","","","","00,1,+99999,9,99,9","00,99,1,00,1,00,1,99999,9,00,1,00,1","24,9","","120,N,-0315,1","99999,9,10056,1","4,1,000,1,+999,9","","","SYN076AAXX  14001 31725 32998 02302 11275 21312 30056 40130 54000 333 21315 48010;","Q01  00002PRCP99"
"31725099999","2000-02-14T03:00:00","4","48.6166666","133.8333333","52.0","SMIDOVICH, RS","FM-12","99999","V020","230,1,N,0020,1","22000,1,9,N","020000,1,N,1","-0184,1","-0243,1","10115,1","","","","","","","00,1,+99999,9,99,9","00,99,1,00,1,00,1,99999,9,00,1,00,1","","","","","8,1,012,1,+999,9","","","SYN054AAXX  14031 31725 42998 02302 11184 21243 40115 58012;",
"31725099999","2000-02-14T06:00:00","4","48.6166666","133.8333333","52.0","SMIDOVICH, RS","FM-12","99999","V020","230,1,N,0020,1","22000,1,9,N","020000,1,N,1","-0165,1","-0224,1","10107,1","","","","","","","00,1,+99999,9,99,9","00,99,1,00,1,00,1,99999,9,00,1,00,1","","","","","7,1,008,1,+999,9","","","SYN054AAXX  14061 31725 42998 02302 11165 21224 40107 57008;",
"31725099999","2000-02-14T09:00:00","4","48.6166666","133.8333333","52.0","SMIDOVICH, RS","FM-12","99999","V020","230,1,N,0010,1","22000,1,9,N","020000,1,N,1","-0200,1","-0249,1","10105,1","99,0000,9,1","","","","","","00,1,+99999,9,99,9","00,99,1,00,1,00,1,99999,9,00,1,00,1","","","999,M,-0160,1","","7,1,003,1,+999,9","","","SYN064AAXX  14091 31725 32998 02301 11200 21249 40105 57003 333 11160;","Q01  00002PRCP99"
"31725099999","2000-02-14T12:00:00","4","48.6166666","133.8333333","52.0","SMIDOVICH, RS","FM-12","99999","V020","999,9,C,0000,1","22000,1,9,N","020000,1,N,1","-0235,1","-0283,1","10101,1","99,0000,9,1","","","","","","00,1,+99999,9,99,9","00,99,1,00,1,00,1,99999,9,00,1,00,1","","","999,M,-0160,1","99999,9,10028,1","7,1,005,1,+999,9","","","SYN070AAXX  14121 31725 32998 00000 11235 21283 30028 40101 57005 333 11160;","Q01  00002PRCP99"
"31725099999","2000-02-14T15:00:00","4","48.6166666","133.8333333","52.0","SMIDOVICH, RS","FM-12","99999","V020","999,9,C,0000,1","22000,1,9,N","020000,1,N,1","-0252,1","-0291,1","10100,1","","","","","","","00,1,+99999,9,99,9","00,99,1,00,1,00,1,99999,9,00,1,00,1","","","","","6,1,002,1,+999,9","","","SYN054AAXX  14151 31725 42998 00000 11252 21291 40100 56002;",
"31725099999","2000-02-14T18:00:00","4","48.6166666","133.8333333","52.0","SMIDOVICH, RS","FM-12","99999","V020","999,9,C,0000,1","22000,1,9,N","020000,1,N,1","-0300,1","-0330,1","10096,1","","","","","","","00,1,+99999,9,99,9","00,99,1,00,1,00,1,99999,9,00,1,00,1","","","","","8,1,005,1,+999,9","","","SYN054AAXX  14181 31725 42998 00000 11300 21330 40096 58005;",
"31725099999","2000-02-14T21:00:00","4","48.6166666","133.8333333","52.0","SMIDOVICH, RS","FM-12","99999","V020","999,9,C,0000,1","22000,1,9,N","010000,1,N,1","-0300,1","-0330,1","10088,1","99,0000,9,1","","","0,1,03,1","0,1,03,1","","00,1,+99999,9,99,9","00,99,1,00,1,00,1,99999,9,00,1,00,1","","","","","7,1,008,1,+999,9","10,1","","SYN060AAXX  14211 31725 31997 00000 11300 21330 40088 57008 71000;","Q01  00002PRCP99"
"31725099999","2000-02-15T00:00:00","4","48.6166666","133.8333333","52.0","SMIDOVICH, RS","FM-12","99999","V020","360,1,N,0010,1","22000,1,9,N","010000,1,N,1","-0272,1","-0303,1","10088,1","99,0000,9,1","0010,9,1,999999,9,9","","0,1,06,1","0,1,06,1","","","01,99,1,00,1,00,1,99999,9,00,1,02,1","24,9","","120,N,-0300,1","99999,9,10014,1","3,1,001,1,+999,9","10,1","","SYN088AAXX  15001 31725 31997 13601 11272 21303 30014 40088 53001 71000 80002 333 21300 48010;","Q01  00002PRCP99"
"31725099999","2000-02-15T03:00:00","4","48.6166666","133.8333333","52.0","SMIDOVICH, RS","FM-12","99999","V020","340,1,N,0010,1","99999,9,9,N","020000,1,N,1","-0197,1","-0223,1","10087,1","","","","","","","","08,99,1,00,1,00,1,99999,9,00,1,02,1","","","","","1,1,001,1,+999,9","","","SYN060AAXX  15031 31725 42998 83401 11197 21223 40087 51001 80002;",
"31725099999","2000-02-15T06:00:00","4","48.6166666","133.8333333","52.0","SMIDOVICH, RS","FM-12","99999","V020","180,1,N,0010,1","99999,9,9,N","020000,1,N,1","-0167,1","-0217,1","10085,1","","","","","","","","08,99,1,06,1,00,1,99999,9,04,1,02,1","","","","","8,1,008,1,+999,9","","","SYN060AAXX  15061 31725 42998 81801 11167 21217 40085 58008 86042;",
"31725099999","2000-02-15T09:00:00","4","48.6166666","133.8333333","52.0","SMIDOVICH, RS","FM-12","99999","V020","230,1,N,0010,1","03600,1,9,N","020000,1,N,1","-0187,1","-0236,1","10092,1","99,0000,9,1","","","","","","","08,99,1,02,1,03,1,00450,1,04,1,02,1","","","999,M,-0154,1","","3,1,006,1,+999,9","","","SYN070AAXX  15091 31725 32498 82301 11187 21236 40092 53006 82342 333 11154;","Q01  00002PRCP99"
"31725099999","2000-02-15T12:00:00","4","48.6166666","133.8333333","52.0","SMIDOVICH, RS","FM-12","99999","V020","999,9,C,0000,1","99999,9,9,N","020000,1,N,1","-0215,1","-0255,1","10087,1","99,0000,9,1","","","","","","","08,99,1,03,1,00,1,99999,9,04,1,02,1","","","999,M,-0154,1","99999,9,10014,1","8,1,006,1,+999,9","","","SYN076AAXX  15121 31725 32998 80000 11215 21255 30014 40087 58006 83042 333 11154;","Q01  00002PRCP99"
"31725099999","2000-02-15T15:00:00","4","48.6166666","133.8333333","52.0","SMIDOVICH, RS","FM-12","99999","V020","230,1,N,0010,1","99999,9,9,N","020000,1,N,1","-0245,1","-0285,1","10082,1","","","","","","","","08,99,1,03,1,00,1,99999,9,04,1,02,1","","","","","7,1,006,1,+999,9","","","SYN060AAXX  15151 31725 42998 82301 11245 21285 40082 57006 83042;",
"31725099999","2000-02-15T18:00:00","4","48.6166666","133.8333333","52.0","SMIDOVICH, RS","FM-12","99999","V020","999,9,C,0000,1","99999,9,9,N","020000,1,N,1","-0266,1","-0297,1","10077,1","","","","","","","","06,99,1,03,1,00,1,99999,9,04,1,02,1","","","","","7,1,005,1,+999,9","","","SYN060AAXX  15181 31725 42998 60000 11266 21297 40077 57005 83042;",
"31725099999","2000-02-15T21:00:00","4","48.6166666","133.8333333","52.0","SMIDOVICH, RS","FM-12","99999","V020","270,1,N,0010,1","22000,1,9,N","020000,1,N,1","-0212,1","-0260,1","10073,1","99,0000,9,1","","","","","","","02,99,1,02,1,00,1,99999,9,04,1,00,1","","","","","6,1,002,1,+999,9","","","SYN060AAXX  15211 31725 32998 22701 11212 21260 40073 56002 82040;","Q01  00002PRCP99"
"31725099999","2000-02-16T00:00:00","4","48.6166666","133.8333333","52.0","SMIDOVICH, RS","FM-12","99999","V020","230,1,N,0010,1","22000,1,9,N","020000,1,N,1","-0181,1","-0240,1","10073,1","99,0000,9,1","0010,9,1,999999,9,9","","","","","","03,99,1,02,1,00,1,99999,9,04,1,02,1","24,9","","120,N,-0282,1","99999,9,10002,1","3,1,001,1,+999,9","","","SYN082AAXX  16001 31725 32998 32301 11181 21240 30002 40073 53001 82042 333 21282 48010;","Q01  00002PRCP99"
"31725099999","2000-02-16T03:00:00","4","48.6166666","133.8333333","52.0","SMIDOVICH, RS","FM-12","99999","V020","200,1,N,0030,1","99999,9,9,N","020000,1,N,1","-0125,1","-0187,1","10078,1","","","","","","","","08,99,1,05,1,00,1,99999,9,04,1,02,1","","","","","2,1,007,1,+999,9","","","SYN060AAXX  16031 31725 42998 82003 11125 21187 40078 52007 85042;",
"31725099999","2000-02-16T06:00:00","4","48.6166666","133.8333333","52.0","SMIDOVICH, RS","FM-12","99999","V020","270,1,N,0040,1","22000,1,9,N","020000,1,N,1","-0113,1","-0185,1","10086,1","","","","","","","","02,99,1,00,1,00,1,99999,9,00,1,02,1","","","","","2,1,009,1,+999,9","","","SYN060AAXX  16061 31725 42998 22704 11113 21185 40086 52009 80002;",
"31725099999","2000-02-16T09:00:00","4","48.6166666","133.8333333","52.0","SMIDOVICH, RS","FM-12","99999","V020","180,1,N,0010,1","22000,1,9,N","020000,1,N,1","-0155,1","-0206,1","10108,1","99,0000,9,1","","","","","","","03,99,1,02,1,00,1,99999,9,04,1,02,1","","","999,M,-0106,1","","2,1,020,1,+999,9","","","SYN070AAXX  16091 31725 32998 31801 11155 21206 40108 52020 82042 333 11106;","Q01  00002PRCP99"
"31725099999","2000-02-16T12:00:00","4","48.6166666","133.8333333","52.0","SMIDOVICH, RS","FM-12","99999","V020","230,1,N,0010,1","00420,1,9,N","020000,1,N,1","-0161,1","-0212,1","10112,1","99,0000,9,1","","","","","","","06,99,1,05,1,03,1,00450,1,04,1,00,1","","","","99999,9,10042,1","2,1,004,1,+999,9","","","SYN076AAXX  16121 31725 32498 62301 11161 21212 30042 40112 52004 85340 333 1/106;","Q01  00002PRCP99"
"31725099999","2000-02-16T15:00:00","4","48.6166666","133.8333333","52.0","SMIDOVICH, RS","FM-12","99999","V020","270,1,N,0020,1","00420,1,9,N","020000,1,N,1","-0170,1","-0212,1","10135,1","","","","","","","","06,99,1,05,1,03,1,00450,1,04,1,00,1","","","","","2,1,022,1,+999,9","","","SYN060AAXX  16151 31725 42498 62702 11170 21212 40135 52022 85340;",
"31725099999","2000-02-16T18:00:00","4","48.6166666","133.8333333","52.0","SMIDOVICH, RS","FM-12","99999","V020","270,1,N,0010,1","22000,1,9,N","020000,1,N,1","-0207,1","-0240,1","10150,1","","","","","","","","02,99,1,02,1,00,1,99999,9,04,1,00,1","","","","","2,1,014,1,+999,9","","","SYN060AAXX  16181 31725 42998 22701 11207 21240 40150 52014 82040;",
"31725099999","2000-02-16T21:00:00","4","48.6166666","133.8333333","52.0","SMIDOVICH, RS","FM-12","99999","V020","999,9,C,0000,1","22000,1,9,N","020000,1,N,1","-0239,1","-0264,1","10164,1","99,0000,9,1","","","","","","","02,99,1,02,1,00,1,99999,9,04,1,00,1","","","","","2,1,013,1,+999,9","","","SYN060AAXX  16211 31725 32998 20000 11239 21264 40164 52013 82040;","Q01  00002PRCP99"
"31725099999","2000-02-17T00:00:00","4","48.6166666","133.8333333","52.0","SMIDOVICH, RS","FM-12","99999","V020","999,9,C,0000,1","99999,9,9,N","010000,1,N,1","-0204,1","-0229,1","10177,1","99,0000,9,1","0010,9,1,999999,9,9","","1,1,06,1","1,1,06,1","","","05,99,1,02,1,00,1,99999,9,04,1,02,1","24,9","","120,N,-0249,1","99999,9,10105,1","2,1,014,1,+999,9","10,1","","SYN088AAXX  17001 31725 31997 50000 11204 21229 30105 40177 52014 71011 82042 333 21249 48010;","Q01  00002PRCP99"
"31725099999","2000-02-17T03:00:00","4","48.6166666","133.8333333","52.0","SMIDOVICH, RS","FM-12","99999","V020","200,1,N,0010,1","22000,1,9,N","020000,1,N,1","-0156,1","-0198,1","10175,1","","","","","","","","04,99,1,99,9,99,9,99999,9,99,9,99,9","","","","","8,1,001,1,+999,9","","","SYN054AAXX  17031 31725 42998 42001 11156 21198 40175 58001;",
"31725099999","2000-02-17T06:00:00","4","48.6166666","133.8333333","52.0","SMIDOVICH, RS","FM-12","99999","V020","200,1,N,0020,1","99999,9,9,N","020000,1,N,1","-0110,1","-0163,1","10169,1","","","","","","","","06,99,1,00,1,00,1,99999,9,00,1,02,1","","","","","7,1,004,1,+999,9","","","SYN060AAXX  17061 31725 42998 62002 11110 21163 40169 57004 80002;",
"31725099999","2000-02-17T09:00:00","4","48.6166666","133.8333333","52.0","SMIDOVICH, RS","FM-12","99999","V020","999,9,C,0000,1","22000,1,9,N","020000,1,N,1","-0146,1","-0189,1","10170,1","99,0000,9,1","","","","","","","03,99,1,02,1,00,1,99999,9,04,1,02,1","","","999,M,-0096,1","","6,1,001,1,+999,9","","","SYN070AAXX  17091 31725 32998 30000 11146 21189 40170 56001 82042 333 11096;","Q01  00002PRCP99"
"31725099999","2000-02-17T12:00:00","4","48.6166666","133.8333333","52.0","SMIDOVICH, RS","FM-12","99999","V020","999,9,C,0000,1","22000,1,9,N","020000,1,N,1","-0176,1","-0210,1","10171,1","99,0000,9,1","","","","","","","02,99,1,00,1,00,1,99999,9,00,1,02,1","","","999,M,-0096,1","99999,9,10100,1","3,1,001,1,+999,9","","","SYN076AAXX  17121 31725 32998 20000 11176 21210 30100 40171 53001 80002 333 11096;","Q01  00002PRCP99"
"31725099999","2000-02-17T15:00:00","4","48.6166666","133.8333333","52.0","SMIDOVICH, RS","FM-12","99999","V020","999,9,C,0000,1","99999,9,9,N","020000,1,N,1","-0210,1","-0235,1","10163,1","","","","","","","","05,99,1,00,1,00,1,99999,9,00,1,02,1","","","","","8,1,009,1,+999,9","","","SYN060AAXX  17151 31725 42998 50000 11210 21235 40163 58009 80002;",
"31725099999","2000-02-17T18:00:00","4","48.6166666","133.8333333","52.0","SMIDOVICH, RS","FM-12","99999","V020","999,9,C,0000,1","99999,9,9,N","020000,1,N,1","-0226,1","-0251,1","10165,1","","","","","","","","05,99,1,00,1,00,1,99999,9,00,1,02,1","","","","","3,1,001,1,+999,9","","","SYN060AAXX  17181 31725 42998 50000 11226 21251 40165 53001 80002;",
"31725099999","2000-02-17T21:00:00","4","48.6166666","133.8333333","52.0","SMIDOVICH, RS","FM-12","99999","V020","999,9,C,0000,1","22000,1,9,N","020000,1,N,1","-0226,1","-0258,1","10165,1","99,0000,9,1","","","","","","","03,99,1,00,1,00,1,99999,9,00,1,02,1","","","","","4,1,000,1,+999,9","","","SYN060AAXX  17211 31725 32998 30000 11226 21258 40165 54000 80002;","Q01  00002PRCP99"
"31725099999","2000-02-18T00:00:00","4","48.6166666","133.8333333","52.0","SMIDOVICH, RS","FM-12","99999","V020","230,1,N,0010,1","99999,9,9,N","050000,1,N,1","+9999,9","+9999,9","10166,1","99,0000,9,1","0010,9,1,999999,9,9","","","","","","05,99,1,00,1,00,1,99999,9,00,1,02,1","24,9","","120,N,-0245,1","99999,9,10095,1","3,1,003,1,+999,9","","","SYN076AAXX  18001 31725 32999 52301 11762 30095 40166 53003 80002 333 21245 48010;","Q01-007623ATOT  Q02  00002PRCP99"
"31725099999","2000-02-18T03:00:00","4","48.6166666","133.8333333","52.0","SMIDOVICH, RS","FM-12","99999","V020","230,1,N,0050,1","99999,9,9,N","020000,1,N,1","-0122,1","-0174,1","10166,1","","","","","","","","08,99,1,00,1,00,1,99999,9,00,1,02,1","","","","","1,1,001,1,+999,9","","","SYN060AAXX  18031 31725 42998 82305 11122 21174 40166 51001 80002;",
"31725099999","2000-02-18T06:00:00","4","48.6166666","133.8333333","52.0","SMIDOVICH, RS","FM-12","99999","V020","230,1,N,0040,1","99999,9,9,N","050000,1,N,1","-0090,1","-0145,1","10156,1","","","","","","","","08,99,1,00,1,00,1,99999,9,00,1,02,1","","","","","8,1,009,1,+999,9","","","SYN060AAXX  18061 31725 42999 82304 11090 21145 40156 58009 80002;",
"31725099999","2000-02-18T09:00:00","4","48.6166666","133.8333333","52.0","SMIDOVICH, RS","FM-12","99999","V020","230,1,N,0010,1","99999,9,9,N","020000,1,N,1","-0105,1","-0168,1","10156,1","99,0000,9,1","","","","","","","08,99,1,00,1,00,1,99999,9,00,1,02,1","","","999,M,-0070,1","","4,1,000,1,+999,9","","","SYN070AAXX  18091 31725 32998 82301 11105 21168 40156 54000 80002 333 11070;","Q01  00002PRCP99"
"31725099999","2000-02-18T12:00:00","4","48.6166666","133.8333333","52.0","SMIDOVICH, RS","FM-12","99999","V020","230,1,N,0010,1","99999,9,9,N","020000,1,N,1","-0143,1","-0194,1","10161,1","99,0000,9,1","","","","","","","06,99,1,00,1,00,1,99999,9,00,1,02,1","","","999,M,-0070,1","99999,9,10091,1","3,1,004,1,+999,9","","","SYN076AAXX  18121 31725 32998 62301 11143 21194 30091 40161 53004 80002 333 11070;","Q01  00002PRCP99"
"31725099999","2000-02-18T15:00:00","4","48.6166666","133.8333333","52.0","SMIDOVICH, RS","FM-12","99999","V020","230,1,N,0010,1","22000,1,9,N","020000,1,N,1","-0172,1","-0222,1","10156,1","","","","","","","","03,99,1,00,1,00,1,99999,9,00,1,02,1","","","","","8,1,006,1,+999,9","","","SYN060AAXX  18151 31725 42998 32301 11172 21222 40156 58006 80002;",
"31725099999","2000-02-18T18:00:00","4","48.6166666","133.8333333","52.0","SMIDOVICH, RS","FM-12","99999","V020","230,1,N,0030,1","22000,1,9,N","020000,1,N,1","-0161,1","-0221,1","10155,1","","","","","","","","02,99,1,00,1,00,1,99999,9,00,1,02,1","","","","","6,1,001,1,+999,9","","","SYN060AAXX  18181 31725 42998 22303 11161 21221 40155 56001 80002;",
"31725099999","2000-02-18T21:00:00","4","48.6166666","133.8333333","52.0","SMIDOVICH, RS","FM-12","99999","V020","230,1,N,0020,1","22000,1,9,N","020000,1,N,1","-0170,1","-0229,1","10156,1","99,0000,9,1","","","","","","","02,99,1,00,1,00,1,99999,9,00,1,02,1","","","","","3,1,001,1,+999,9","","","SYN060AAXX  18211 31725 32998 22302 11170 21229 40156 53001 80002;","Q01  00002PRCP99"
"31725099999","2000-02-19T00:00:00","4","48.6166666","133.8333333","52.0","SMIDOVICH, RS","FM-12","99999","V020","230,1,N,0010,1","22000,1,9,N","020000,1,N,1","-0174,1","-0233,1","10147,1","99,0000,9,1","0010,9,1,999999,9,9","","","","","","01,99,1,01,1,00,1,99999,9,04,1,00,1","24,9","","120,N,-0223,1","99999,9,10076,1","8,1,009,1,+999,9","","","SYN082AAXX  19001 31725 32998 12301 11174 21233 30076 40147 58009 81040 333 21223 48010;","Q01  00002PRCP99"
"31725099999","2000-02-19T03:00:00","4","48.6166666","133.8333333","52.0","SMIDOVICH, RS","FM-12","99999","V020","230,1,N,0030,1","22000,1,9,N","020000,1,N,1","-0115,1","-0187,1","10139,1","","","","","","","","02,99,1,02,1,00,1,99999,9,04,1,00,1","","","","","7,1,007,1,+999,9","","","SYN060AAXX  19031 31725 42998 22303 11115 21187 40139 57007 82040;",
"31725099999","2000-02-19T06:00:00","4","48.6166666","133.8333333","52.0","SMIDOVICH, RS","FM-12","99999","V020","230,1,N,0030,1","22000,1,9,N","020000,1,N,1","-0097,1","-0168,1","10122,1","","","","","","","","02,99,1,02,1,00,1,99999,9,04,1,00,1","","","","","7,1,016,1,+999,9","","","SYN060AAXX  19061 31725 42998 22303 11097 21168 40122 57016 82040;",
"31725099999","2000-02-19T09:00:00","4","48.6166666","133.8333333","52.0","SMIDOVICH, RS","FM-12","99999","V020","200,1,N,0010,1","22000,1,9,N","020000,1,N,1","-0155,1","-0206,1","10120,1","99,0000,9,1","","","","","","","01,99,1,01,1,00,1,99999,9,04,1,00,1","","","999,M,-0093,1","","7,1,005,1,+999,9","","","SYN070AAXX  19091 31725 32998 12001 11155 21206 40120 57005 81040 333 11093;","Q01  00002PRCP99"
"31725099999","2000-02-19T12:00:00","4","48.6166666","133.8333333","52.0","SMIDOVICH, RS","FM-12","99999","V020","230,1,N,0030,1","22000,1,9,N","020000,1,N,1","-0176,1","-0217,1","10120,1","99,0000,9,1","","","","","","","02,99,1,02,1,00,1,99999,9,04,1,00,1","","","999,M,-0093,1","99999,9,10049,1","6,1,001,1,+999,9","","","SYN076AAXX  19121 31725 32998 22303 11176 21217 30049 40120 56001 82040 333 11093;","Q01  00002PRCP99"
"31725099999","2000-02-19T15:00:00","4","48.6166666","133.8333333","52.0","SMIDOVICH, RS","FM-12","99999","V020","999,9,C,0000,1","22000,1,9,N","020000,1,N,1","-0221,1","-0247,1","10117,1","","","","","","","00,1,+99999,9,99,9","00,99,1,00,1,00,1,99999,9,00,1,00,1","","","","","8,1,005,1,+999,9","","","SYN054AAXX  19151 31725 42998 00000 11221 21247 40117 58005;",
"31725099999","2000-02-19T18:00:00","4","48.6166666","133.8333333","52.0","SMIDOVICH, RS","FM-12","99999","V020","999,9,C,0000,1","22000,1,9,N","020000,1,N,1","-0228,1","-0253,1","10113,1","","","","","","","","02,99,1,00,1,00,1,99999,9,00,1,02,1","","","","","7,1,004,1,+999,9","","","SYN060AAXX  19181 31725 42998 20000 11228 21253 40113 57004 80002;",
"31725099999","2000-02-19T21:00:00","4","48.6166666","133.8333333","52.0","SMIDOVICH, RS","FM-12","99999","V020","999,9,C,0000,1","22000,1,9,N","020000,1,N,1","-0254,1","-0272,1","10117,1","99,0000,9,1","","","","","","","03,99,1,03,1,00,1,99999,9,04,1,00,1","","","","","3,1,003,1,+999,9","","","SYN060AAXX  19211 31725 32998 30000 11254 21272 40117 53003 83040;","Q01  00002PRCP99"
"31725099999","2000-02-20T00:00:00","4","48.6166666","133.8333333","52.0","SMIDOVICH, RS","FM-12","99999","V020","999,9,C,0000,1","99999,9,9,N","010000,1,N,1","-0208,1","-0226,1","10121,1","99,0000,9,1","0010,9,1,999999,9,9","","1,1,06,1","1,1,06,1","","","08,99,1,05,1,00,1,99999,9,04,1,02,1","24,9","","120,N,-0268,1","99999,9,10049,1","2,1,006,1,+999,9","10,1","","SYN088AAXX  20001 31725 31997 80000 11208 21226 30049 40121 52006 71011 85042 333 21268 48010;","Q01  00002PRCP99"
"31725099999","2000-02-20T03:00:00","4","48.6166666","133.8333333","52.0","SMIDOVICH, RS","FM-12","99999","V020","999,9,C,0000,1","99999,9,9,N","020000,1,N,1","-0163,1","-0189,1","10119,1","","","","","","","","08,99,1,05,1,00,1,99999,9,04,1,02,1","","","","","4,1,000,1,+999,9","","","SYN060AAXX  20031 31725 42998 80000 11163 21189 40119 54000 85042;",
"31725099999","2000-02-20T06:00:00","4","48.6166666","133.8333333","52.0","SMIDOVICH, RS","FM-12","99999","V020","999,9,C,0000,1","99999,9,9,N","020000,1,N,1","-0150,1","-0192,1","10118,1","","","","","","","","08,99,1,05,1,00,1,99999,9,04,1,02,1","","","","","8,1,001,1,+999,9","","","SYN060AAXX  20061 31725 42998 80000 11150 21192 40118 58001 85042;",
"31725099999","2000-02-20T09:00:00","4","48.6166666","133.8333333","52.0","SMIDOVICH, RS","FM-12","99999","V020","999,9,C,0000,1","99999,9,9,N","010000,1,N,1","-0151,1","-0185,1","10126,1","","","","7,1,03,1","2,1,03,1","","","08,99,1,07,1,00,1,99999,9,01,1,99,9","","","999,M,-0141,1","","3,1,007,1,+999,9","71,1","","SYN076AAXX  20091 31725 /1997 80000 11151 21185 40126 53007 77172 8701/ 333 11141;",
"31725099999","2000-02-20T12:00:00","4","48.6166666","133.8333333","52.0","SMIDOVICH, RS","FM-12","99999","V020","999,9,C,0000,1","99999,9,9,N","010000,1,N,1","-0179,1","-0199,1","10131,1","00,0007,9,1","","","7,1,06,1","2,1,06,1","","","08,99,1,07,1,00,1,99999,9,02,1,99,9","","","999,M,-0141,1","99999,9,10060,1","2,1,005,1,+999,9","71,1","","SYN088AAXX  20121 31725 11997 80000 11179 21199 30060 40131 52005 69900 77172 8702/ 333 11141;",
"31725099999","2000-02-20T15:00:00","4","48.6166666","133.8333333","52.0","SMIDOVICH, RS","FM-12","99999","V020","999,9,C,0000,1","99999,9,9,N","010000,1,N,1","-0177,1","-0196,1","10127,1","","","","7,1,03,1","2,1,03,1","","","07,99,1,07,1,00,1,99999,9,02,1,99,9","","","","","8,1,004,1,+999,9","71,1","","SYN066AAXX  20151 31725 41997 70000 11177 21196 40127 58004 77172 8702/;",
"31725099999","2000-02-20T18:00:00","4","48.6166666","133.8333333","52.0","SMIDOVICH, RS","FM-12","99999","V020","999,9,C,0000,1","99999,9,9,N","010000,1,N,1","-0177,1","-0196,1","10129,1","","","","7,1,06,1","2,1,06,1","","","08,99,1,08,1,00,1,99999,9,02,1,99,9","","","","","3,1,002,1,+999,9","71,1","","SYN066AAXX  20181 31725 41997 80000 11177 21196 40129 53002 77172 8802/;",
"31725099999","2000-02-20T21:00:00","4","48.6166666","133.8333333","52.0","SMIDOVICH, RS","FM-12","99999","V020","360,1,N,0010,1","99999,9,9,N","010000,1,N,1","-0173,1","-0192,1","10142,1","","","","7,1,03,1","2,1,03,1","","","08,99,1,08,1,00,1,99999,9,02,1,99,9","","","","","2,1,013,1,+999,9","71,1","","SYN066AAXX  20211 31725 /1997 83601 11173 21192 40142 52013 77172 8802/;",
"31725099999","2000-02-21T00:00:00","4","48.6166666","133.8333333","52.0","SMIDOVICH, RS","FM-12","99999","V020","999,9,C,0000,1","99999,9,9,N","020000,1,N,1","-0168,1","-0187,1","10157,1","00,0003,9,1","0010,9,1,999999,9,9","","","","","","05,99,1,02,1,00,1,99999,9,02,1,02,1","24,9","","120,N,-0186,1","99999,9,10086,1","2,1,015,1,+999,9","","","SYN088AAXX  21001 31725 12998 50000 11168 21187 30086 40157 52015 69930 82022 333 21186 48010;",
"31725099999","2000-02-21T03:00:00","4","48.6166666","133.8333333","52.0","SMIDOVICH, RS","FM-12","99999","V020","999,9,C,0000,1","99999,9,9,N","020000,1,N,1","-0122,1","-0165,1","10157,1","","","","","","","","06,99,1,03,1,00,1,99999,9,04,1,02,1","","","","","1,1,001,1,+999,9","","","SYN060AAXX  21031 31725 42998 60000 11122 21165 40157 51001 83042;",
"31725099999","2000-02-21T06:00:00","4","48.6166666","133.8333333","52.0","SMIDOVICH, RS","FM-12","99999","V020","230,1,N,0010,1","22000,1,9,N","020000,1,N,1","-0115,1","-0159,1","10154,1","","","","","","","","02,99,1,00,1,00,1,99999,9,00,1,02,1","","","","","8,1,003,1,+999,9","","","SYN060AAXX  21061 31725 42998 22301 11115 21159 40154 58003 80002;",
"31725099999","2000-02-21T09:00:00","4","48.6166666","133.8333333","52.0","SMIDOVICH, RS","FM-12","99999","V020","999,9,C,0000,1","22000,1,9,N","020000,1,N,1","-0166,1","-0200,1","10163,1","","","","","","","","02,99,1,02,1,00,1,99999,9,04,1,00,1","","","999,M,-0103,1","","3,1,008,1,+999,9","","","SYN070AAXX  21091 31725 /2998 20000 11166 21200 40163 53008 82040 333 11103;",
"31725099999","2000-02-21T12:00:00","4","48.6166666","133.8333333","52.0","SMIDOVICH, RS","FM-12","99999","V020","999,9,C,0000,1","99999,9,9,N","020000,1,N,1","-0183,1","-0209,1","10171,1","00,0007,9,1","","","","","","","05,99,1,00,1,00,1,99999,9,00,1,02,1","","","999,M,-0103,1","99999,9,10100,1","2,1,008,1,+999,9","","","SYN082AAXX  21121 31725 12998 50000 11183 21209 30100 40171 52008 69900 80002 333 11103;",
"31725099999","2000-02-21T15:00:00","4","48.6166666","133.8333333","52.0","SMIDOVICH, RS","FM-12","99999","V020","999,9,C,0000,1","22000,1,9,N","020000,1,N,1","-0216,1","-0234,1","10175,1","","","","","","","","02,99,1,00,1,00,1,99999,9,00,1,02,1","","","","","1,1,002,1,+999,9","","","SYN060AAXX  21151 31725 42998 20000 11216 21234 40175 51002 80002;",
"31725099999","2000-02-21T18:00:00","4","48.6166666","133.8333333","52.0","SMIDOVICH, RS","FM-12","99999","V020","999,9,C,0000,1","22000,1,9,N","010000,1,N,1","-0244,1","-0262,1","10177,1","","","","1,1,06,1","1,1,06,1","","00,1,+99999,9,99,9","00,99,1,00,1,00,1,99999,9,00,1,00,1","","","","","1,1,002,1,+999,9","10,1","","SYN060AAXX  21181 31725 41997 00000 11244 21262 40177 51002 71011;",
"31725099999","2000-02-21T21:00:00","4","48.6166666","133.8333333","52.0","SMIDOVICH, RS","FM-12","99999","V020","230,1,N,0010,1","22000,1,9,N","010000,1,N,1","-0258,1","-0282,1","10180,1","99,0000,9,1","","","0,1,03,1","0,1,03,1","","","02,99,1,00,1,00,1,99999,9,00,1,02,1","","","","","1,1,002,1,+999,9","10,1","","SYN066AAXX  21211 31725 31997 22301 11258 21282 40180 51002 71000 80002;","Q01  00002PRCP99"
"31725099999","2000-02-22T00:00:00","4","48.6166666","133.8333333","52.0","SMIDOVICH, RS","FM-12","99999","V020","999,9,C,0000,1","22000,1,9,N","020000,1,N,1","-0247,1","-0271,1","10180,1","99,0000,9,1","0010,9,1,999999,9,9","","","","","00,1,+99999,9,99,9","00,99,1,00,1,00,1,99999,9,00,1,00,1","24,9","","120,N,-0295,1","99999,9,10106,1","4,1,000,1,+999,9","","","SYN076AAXX  22001 31725 32998 00000 11247 21271 30106 40180 54000 333 21295 48010;","Q01  00002PRCP99"
"31725099999","2000-02-22T03:00:00","4","48.6166666","133.8333333","52.0","SMIDOVICH, RS","FM-12","99999","V020","230,1,N,0010,1","22000,1,9,N","020000,1,N,1","-0171,1","-0197,1","10175,1","","","","","","","00,1,+99999,9,99,9","00,99,1,00,1,00,1,99999,9,00,1,00,1","","","","","8,1,002,1,+999,9","","","SYN054AAXX  22031 31725 42998 02301 11171 21197 40175 58002;",
"31725099999","2000-02-22T06:00:00","4","48.6166666","133.8333333","52.0","SMIDOVICH, RS","FM-12","99999","V020","230,1,N,0020,1","22000,1,9,N","020000,1,N,1","-0130,1","-0191,1","10167,1","","","","","","","00,1,+99999,9,99,9","00,99,1,00,1,00,1,99999,9,00,1,00,1","","","","","7,1,007,1,+999,9","","","SYN054AAXX  22061 31725 42998 02302 11130 21191 40167 57007;",
"31725099999","2000-02-22T09:00:00","4","48.6166666","133.8333333","52.0","SMIDOVICH, RS","FM-12","99999","V020","230,1,N,0020,1","22000,1,9,N","020000,1,N,1","-0160,1","-0211,1","10162,1","99,0000,9,1","","","","","","00,1,+99999,9,99,9","00,99,1,00,1,00,1,99999,9,00,1,00,1","","","999,M,-0121,1","","7,1,006,1,+999,9","","","SYN064AAXX  22091 31725 32998 02302 11160 21211 40162 57006 333 11121;","Q01  00002PRCP99"
"31725099999","2000-02-22T12:00:00","4","48.6166666","133.8333333","52.0","SMIDOVICH, RS","FM-12","99999","V020","230,1,N,0010,1","22000,1,9,N","020000,1,N,1","-0179,1","-0220,1","10160,1","99,0000,9,1","","","","","","00,1,+99999,9,99,9","00,99,1,00,1,00,1,99999,9,00,1,00,1","","","999,M,-0121,1","99999,9,10089,1","6,1,002,1,+999,9","","","SYN070AAXX  22121 31725 32998 02301 11179 21220 30089 40160 56002 333 11121;","Q01  00002PRCP99"
"31725099999","2000-02-22T15:00:00","4","48.6166666","133.8333333","52.0","SMIDOVICH, RS","FM-12","99999","V020","230,1,N,0010,1","22000,1,9,N","020000,1,N,1","-0202,1","-0243,1","10165,1","","","","","","","00,1,+99999,9,99,9","00,99,1,00,1,00,1,99999,9,00,1,00,1","","","","","3,1,004,1,+999,9","","","SYN054AAXX  22151 31725 42998 02301 11202 21243 40165 53004;",
"31725099999","2000-02-22T18:00:00","4","48.6166666","133.8333333","52.0","SMIDOVICH, RS","FM-12","99999","V020","230,1,N,0010,1","22000,1,9,N","020000,1,N,1","-0245,1","-0277,1","10161,1","","","","","","","00,1,+99999,9,99,9","00,99,1,00,1,00,1,99999,9,00,1,00,1","","","","","8,1,006,1,+999,9","","","SYN054AAXX  22181 31725 42998 02301 11245 21277 40161 58006;",
"31725099999","2000-02-22T21:00:00","4","48.6166666","133.8333333","52.0","SMIDOVICH, RS","FM-12","99999","V020","230,1,N,0010,1","22000,1,9,N","050000,1,N,1","-0285,1","-0315,1","10160,1","99,0000,9,1","","","","","","00,1,+99999,9,99,9","00,99,1,00,1,00,1,99999,9,00,1,00,1","","","","","6,1,002,1,+999,9","","","SYN054AAXX  22211 31725 32999 02301 11285 21315 40160 56002;","Q01  00002PRCP99"
"31725099999","2000-02-23T00:00:00","4","48.6166666","133.8333333","52.0","SMIDOVICH, RS","FM-12","99999","V020","320,1,N,0010,1","22000,1,9,N","020000,1,N,1","-0200,1","-0241,1","10159,1","99,0000,9,1","0010,9,1,999999,9,9","","","","","00,1,+99999,9,99,9","00,99,1,00,1,00,1,99999,9,00,1,00,1","24,9","","120,N,-0290,1","99999,9,10087,1","3,1,002,1,+999,9","","","SYN076AAXX  23001 31725 32998 03201 11200 21241 30087 40159 53002 333 21290 48010;","Q01  00002PRCP99"
"31725099999","2000-02-23T03:00:00","4","48.6166666","133.8333333","52.0","SMIDOVICH, RS","FM-12","99999","V020","230,1,N,0010,1","22000,1,9,N","020000,1,N,1","-0147,1","-0207,1","10159,1","","","","","","","00,1,+99999,9,99,9","00,99,1,00,1,00,1,99999,9,00,1,00,1","","","","","1,1,001,1,+999,9","","","SYN054AAXX  23031 31725 42998 02301 11147 21207 40159 51001;",
"31725099999","2000-02-23T06:00:00","4","48.6166666","133.8333333","52.0","SMIDOVICH, RS","FM-12","99999","V020","230,1,N,0010,1","22000,1,9,N","020000,1,N,1","-0121,1","-0204,1","10154,1","","","","","","","00,1,+99999,9,99,9","00,99,1,00,1,00,1,99999,9,00,1,00,1","","","","","8,1,004,1,+999,9","","","SYN054AAXX  23061 31725 42998 02301 11121 21204 40154 58004;",
"31725099999","2000-02-23T09:00:00","4","48.6166666","133.8333333","52.0","SMIDOVICH, RS","FM-12","99999","V020","180,1,N,0010,1","22000,1,9,N","020000,1,N,1","-0155,1","-0225,1","10158,1","99,0000,9,1","","","","","","","02,99,1,02,1,00,1,99999,9,04,1,00,1","","","999,M,-0116,1","","3,1,003,1,+999,9","","","SYN070AAXX  23091 31725 32998 21801 11155 21225 40158 53003 82040 333 11116;","Q01  00002PRCP99"
"31725099999","2000-02-23T12:00:00","4","48.6166666","133.8333333","52.0","SMIDOVICH, RS","FM-12","99999","V020","230,1,N,0010,1","22000,1,9,N","020000,1,N,1","-0206,1","-0246,1","10166,1","99,0000,9,1","","","","","","","02,99,1,02,1,00,1,99999,9,04,1,00,1","","","999,M,-0116,1","99999,9,10094,1","2,1,007,1,+999,9","","","SYN076AAXX  23121 31725 32998 22301 11206 21246 30094 40166 52007 82040 333 11116;","Q01  00002PRCP99"
"31725099999","2000-02-23T18:00:00","4","48.6166666","133.8333333","52.0","SMIDOVICH, RS","FM-12","99999","V020","360,1,N,0010,1","22000,1,9,N","020000,1,N,1","-0238,1","-0256,1","10181,1","","","","","","","00,1,+99999,9,99,9","00,99,1,00,1,00,1,99999,9,00,1,00,1","","","","","2,1,009,1,+999,9","","","SYN054AAXX  23181 31725 42998 03601 11238 21256 40181 52009;",
"31725099999","2000-02-23T21:00:00","4","48.6166666","133.8333333","52.0","SMIDOVICH, RS","FM-12","99999","V020","999,9,C,0000,1","22000,1,9,N","010000,1,N,1","-0242,1","-0260,1","10187,1","99,0000,9,1","","","0,1,03,1","0,1,03,1","","00,1,+99999,9,99,9","00,99,1,00,1,00,1,99999,9,00,1,00,1","","","","","2,1,006,1,+999,9","10,1","","SYN060AAXX  23211 31725 31997 00000 11242 21260 40187 52006 71000;","Q01  00002PRCP99"
"31725099999","2000-02-24T00:00:00","4","48.6166666","133.8333333","52.0","SMIDOVICH, RS","FM-12","99999","V020","999,9,C,0000,1","22000,1,9,N","010000,1,N,1","-0223,1","-0241,1","10201,1","99,0000,9,1","0010,9,1,999999,9,9","","0,1,06,1","0,1,06,1","","00,1,+99999,9,99,9","00,99,1,00,1,00,1,99999,9,00,1,00,1","24,9","","120,N,-0255,1","99999,9,10128,1","2,1,014,1,+999,9","10,1","","SYN082AAXX  24001 31725 31997 00000 11223 21241 30128 40201 52014 71000 333 21255 48010;","Q01  00002PRCP99"
"31725099999","2000-02-24T03:00:00","4","48.6166666","133.8333333","52.0","SMIDOVICH, RS","FM-12","99999","V020","999,9,C,0000,1","22000,1,9,N","020000,1,N,1","-0140,1","-0183,1","10203,1","","","","","","","00,1,+99999,9,99,9","00,99,1,00,1,00,1,99999,9,00,1,00,1","","","","","2,1,005,1,+999,9","","","SYN054AAXX  24031 31725 42998 00000 11140 21183 40203 52005;",
"31725099999","2000-02-24T06:00:00","4","48.6166666","133.8333333","52.0","SMIDOVICH, RS","FM-12","99999","V020","180,1,N,0010,1","22000,1,9,N","020000,1,N,1","-0134,1","-0186,1","10201,1","","","","","","","00,1,+99999,9,99,9","00,99,1,00,1,00,1,99999,9,00,1,00,1","","","","","8,1,002,1,+999,9","","","SYN054AAXX  24061 31725 42998 01801 11134 21186 40201 58002;",
"31725099999","2000-02-24T09:00:00","4","48.6166666","133.8333333","52.0","SMIDOVICH, RS","FM-12","99999","V020","180,1,N,0010,1","22000,1,9,N","020000,1,N,1","-0176,1","-0210,1","10204,1","99,0000,9,1","","","","","","00,1,+99999,9,99,9","00,99,1,00,1,00,1,99999,9,00,1,00,1","","","999,M,-0127,1","","3,1,002,1,+999,9","","","SYN064AAXX  24091 31725 32998 01801 11176 21210 40204 53002 333 11127;","Q01  00002PRCP99"
"31725099999","2000-02-24T12:00:00","4","48.6166666","133.8333333","52.0","SMIDOVICH, RS","FM-12","99999","V020","180,1,N,0010,1","22000,1,9,N","020000,1,N,1","-0235,1","-0253,1","10208,1","99,0000,9,1","","","","","","00,1,+99999,9,99,9","00,99,1,00,1,00,1,99999,9,00,1,00,1","","","999,M,-0127,1","99999,9,10135,1","1,1,002,1,+999,9","","","SYN070AAXX  24121 31725 32998 01801 11235 21253 30135 40208 51002 333 11127;","Q01  00002PRCP99"
"31725099999","2000-02-24T15:00:00","4","48.6166666","133.8333333","52.0","SMIDOVICH, RS","FM-12","99999","V020","999,9,C,0000,1","22000,1,9,N","020000,1,N,1","-0237,1","-0255,1","10207,1","","","","","","","00,1,+99999,9,99,9","00,99,1,00,1,00,1,99999,9,00,1,00,1","","","","","8,1,001,1,+999,9","","","SYN054AAXX  24151 31725 42998 00000 11237 21255 40207 58001;",
"31725099999","2000-02-24T18:00:00","4","48.6166666","133.8333333","52.0","SMIDOVICH, RS","FM-12","99999","V020","999,9,C,0000,1","22000,1,9,N","020000,1,N,1","-0289,1","-0307,1","10208,1","","","","","","","00,1,+99999,9,99,9","00,99,1,00,1,00,1,99999,9,00,1,00,1","","","","","6,1,001,1,+999,9","","","SYN054AAXX  24181 31725 42998 00000 11289 21307 40208 56001;",
"31725099999","2000-02-24T21:00:00","4","48.6166666","133.8333333","52.0","SMIDOVICH, RS","FM-12","99999","V020","999,9,C,0000,1","22000,1,9,N","020000,1,N,1","-0294,1","-0311,1","10205,1","99,0000,9,1","","","","","","00,1,+99999,9,99,9","00,99,1,00,1,00,1,99999,9,00,1,00,1","","","","","8,1,003,1,+999,9","","","SYN054AAXX  24211 31725 32998 00000 11294 21311 40205 58003;","Q01  00002PRCP99"
"31725099999","2000-02-25T00:00:00","4","48.6166666","133.8333333","52.0","SMIDOVICH, RS","FM-12","99999","V020","999,9,C,0000,1","22000,1,9,N","010000,1,N,1","-0251,1","-0269,1","10212,1","99,0000,9,1","0010,9,1,999999,9,9","","0,1,06,1","0,1,06,1","","00,1,+99999,9,99,9","00,99,1,00,1,00,1,99999,9,00,1,00,1","24,9","","120,N,-0315,1","99999,9,10138,1","3,1,008,1,+999,9","10,1","","SYN082AAXX  25001 31725 31997 00000 11251 21269 30138 40212 53008 71000 333 21315 48010;","Q01  00002PRCP99"
"31725099999","2000-02-25T03:00:00","4","48.6166666","133.8333333","52.0","SMIDOVICH, RS","FM-12","99999","V020","999,9,C,0000,1","22000,1,9,N","020000,1,N,1","-0166,1","-0208,1","10208,1","","","","","","","00,1,+99999,9,99,9","00,99,1,00,1,00,1,99999,9,00,1,00,1","","","","","8,1,001,1,+999,9","","","SYN054AAXX  25031 31725 42998 00000 11166 21208 40208 58001;",
"31725099999","2000-02-25T06:00:00","4","48.6166666","133.8333333","52.0","SMIDOVICH, RS","FM-12","99999","V020","230,1,N,0010,1","22000,1,9,N","020000,1,N,1","-0146,1","-0207,1","10202,1","","","","","","","00,1,+99999,9,99,9","00,99,1,00,1,00,1,99999,9,00,1,00,1","","","","","7,1,006,1,+999,9","","","SYN054AAXX  25061 31725 42998 02301 11146 21207 40202 57006;",
"31725099999","2000-02-25T09:00:00","4","48.6166666","133.8333333","52.0","SMIDOVICH, RS","FM-12","99999","V020","999,9,C,0000,1","22000,1,9,N","020000,1,N,1","-0169,1","-0228,1","10197,1","99,0000,9,1","","","","","","00,1,+99999,9,99,9","00,99,1,00,1,00,1,99999,9,00,1,00,1","","","999,M,-0136,1","","7,1,005,1,+999,9","","","SYN064AAXX  25091 31725 32998 00000 11169 21228 40197 57005 333 11136;","Q01  00002PRCP99"
"31725099999","2000-02-25T12:00:00","4","48.6166666","133.8333333","52.0","SMIDOVICH, RS","FM-12","99999","V020","999,9,C,0000,1","22000,1,9,N","020000,1,N,1","-0209,1","-0242,1","10202,1","99,0000,9,1","","","","","","00,1,+99999,9,99,9","00,99,1,00,1,00,1,99999,9,00,1,00,1","","","999,M,-0136,1","99999,9,10130,1","3,1,004,1,+999,9","","","SYN070AAXX  25121 31725 32998 00000 11209 21242 30130 40202 53004 333 11136;","Q01  00002PRCP99"
"31725099999","2000-02-25T15:00:00","4","48.6166666","133.8333333","52.0","SMIDOVICH, RS","FM-12","99999","V020","999,9,C,0000,1","22000,1,9,N","020000,1,N,1","-0250,1","-0267,1","10208,1","","","","","","","00,1,+99999,9,99,9","00,99,1,00,1,00,1,99999,9,00,1,00,1","","","","","2,1,004,1,+999,9","","","SYN054AAXX  25151 31725 42998 00000 11250 21267 40208 52004;",
"31725099999","2000-02-25T18:00:00","4","48.6166666","133.8333333","52.0","SMIDOVICH, RS","FM-12","99999","V020","999,9,C,0000,1","22000,1,9,N","020000,1,N,1","-0276,1","-0299,1","10208,1","","","","","","","00,1,+99999,9,99,9","00,99,1,00,1,00,1,99999,9,00,1,00,1","","","","","4,1,000,1,+999,9","","","SYN054AAXX  25181 31725 42998 00000 11276 21299 40208 54000;",
"31725099999","2000-02-25T21:00:00","4","48.6166666","133.8333333","52.0","SMIDOVICH, RS","FM-12","99999","V020","999,9,C,0000,1","22000,1,9,N","020000,1,N,1","-0292,1","-0315,1","10205,1","99,0000,9,1","","","","","","00,1,+99999,9,99,9","00,99,1,00,1,00,1,99999,9,00,1,00,1","","","","","8,1,004,1,+999,9","","","SYN054AAXX  25211 31725 32998 00000 11292 21315 40205 58004;","Q01  00002PRCP99"
"31725099999","2000-02-26T03:00:00","4","48.6166666","133.8333333","52.0","SMIDOVICH, RS","FM-12","99999","V020","140,1,N,0020,1","99999,9,9,N","020000,1,N,1","-0170,1","-0212,1","10203,1","","","","","","","","08,99,1,00,1,00,1,99999,9,00,1,06,1","","","","","8,1,003,1,+999,9","","","SYN060AAXX  26031 31725 42998 81402 11170 21212 40203 58003 80006;",
"31725099999","2000-02-26T06:00:00","4","48.6166666","133.8333333","52.0","SMIDOVICH, RS","FM-12","99999","V020","140,1,N,0020,1","99999,9,9,N","020000,1,N,1","-0134,1","-0195,1","10191,1","","","","","","","","08,99,1,00,1,00,1,99999,9,00,1,06,1","","","","","7,1,011,1,+999,9","","","SYN060AAXX  26061 31725 42998 81402 11134 21195 40191 57011 83006;","Q01+000032SCOTLC"
"31725099999","2000-02-26T09:00:00","4","48.6166666","133.8333333","52.0","SMIDOVICH, RS","FM-12","99999","V020","999,9,C,0000,1","99999,9,9,N","020000,1,N,1","-0146,1","-0217,1","10188,1","99,0000,9,1","","","","","","","07,99,1,07,1,00,1,99999,9,04,1,99,9","","","999,M,-0129,1","","7,1,004,1,+999,9","","","SYN070AAXX  26091 31725 32998 70000 11146 21217 40188 57004 8704/ 333 11129;","Q01  00002PRCP99"
"31725099999","2000-02-26T12:00:00","4","48.6166666","133.8333333","52.0","SMIDOVICH, RS","FM-12","99999","V020","999,9,C,0000,1","22000,1,9,N","020000,1,N,1","-0180,1","-0230,1","10190,1","99,0000,9,1","","","","","","","03,99,1,00,1,00,1,99999,9,00,1,02,1","","","999,M,-0129,1","99999,9,10119,1","3,1,002,1,+999,9","","","SYN076AAXX  26121 31725 32998 30000 11180 21230 30119 40190 53002 80002 333 11129;","Q01  00002PRCP99"
"31725099999","2000-02-26T15:00:00","4","48.6166666","133.8333333","52.0","SMIDOVICH, RS","FM-12","99999","V020","999,9,C,0000,1","22000,1,9,N","020000,1,N,1","-0201,1","-0250,1","10191,1","","","","","","","","03,99,1,99,9,00,1,99999,9,04,1,00,1","","","","","4,1,000,1,+999,9","","","SYN060AAXX  26151 31725 42998 30000 11201 21250 40191 54000 82040;","Q01+000022SCOTLC"
"31725099999","2000-02-26T18:00:00","4","48.6166666","133.8333333","52.0","SMIDOVICH, RS","FM-12","99999","V020","050,1,N,0010,1","99999,9,9,N","020000,1,N,1","-0216,1","-0241,1","10194,1","","","","","","","","06,99,1,03,1,00,1,99999,9,04,1,02,1","","","","","3,1,002,1,+999,9","","","SYN060AAXX  26181 31725 42998 60501 11216 21241 40194 53002 83042;",
"31725099999","2000-02-26T21:00:00","4","48.6166666","133.8333333","52.0","SMIDOVICH, RS","FM-12","99999","V020","050,1,N,0020,1","99999,9,9,N","020000,1,N,1","-0216,1","-0248,1","10193,1","99,0000,9,1","","","","","","","08,99,1,05,1,00,1,99999,9,04,1,02,1","","","","","8,1,001,1,+999,9","","","SYN060AAXX  26211 31725 32998 80502 11216 21248 40193 58001 85042;","Q01  00002PRCP99"
"31725099999","2000-02-27T00:00:00","4","48.6166666","133.8333333","52.0","SMIDOVICH, RS","FM-12","99999","V020","340,1,N,0010,1","03600,1,9,N","020000,1,N,1","-0203,1","-0236,1","10205,1","99,0000,9,1","0010,9,1,999999,9,9","","","","","","08,99,1,02,1,05,1,00800,1,04,1,02,1","24,9","","120,N,-0225,1","99999,9,10133,1","3,1,013,1,+999,9","","","SYN082AAXX  27001 31725 32598 83401 11203 21236 30133 40205 53013 82542 333 21225 48010;","Q01  00002PRCP99"
"31725099999","2000-02-27T03:00:00","4","48.6166666","133.8333333","52.0","SMIDOVICH, RS","FM-12","99999","V020","070,1,N,0020,1","99999,9,9,N","020000,1,N,1","-0128,1","-0211,1","10201,1","","","","","","","","08,99,1,05,1,00,1,99999,9,04,1,06,1","","","","","8,1,002,1,+999,9","","","SYN060AAXX  27031 31725 42998 80702 11128 21211 40201 58002 85046;",
"31725099999","2000-02-27T06:00:00","4","48.6166666","133.8333333","52.0","SMIDOVICH, RS","FM-12","99999","V020","999,9,C,0000,1","99999,9,9,N","020000,1,N,1","-0104,1","-0201,1","10193,1","","","","","","","","08,99,1,02,1,00,1,99999,9,04,1,01,1","","","","","7,1,007,1,+999,9","","","SYN060AAXX  27061 31725 42998 80000 11104 21201 40193 57007 82041;",
"31725099999","2000-02-27T09:00:00","4","48.6166666","133.8333333","52.0","SMIDOVICH, RS","FM-12","99999","V020","270,1,N,0010,1","03600,1,9,N","020000,1,N,1","-0139,1","-0191,1","10201,1","99,0000,9,1","","","","","","","08,99,1,02,1,05,1,00800,1,04,1,02,1","","","999,M,-0097,1","","7,1,007,1,+999,9","","","SYN070AAXX  27091 31725 32598 82701 11139 21191 40201 57007 82542 333 11097;","Q01  00002PRCP99"
"31725099999","2000-02-27T12:00:00","4","48.6166666","133.8333333","52.0","SMIDOVICH, RS","FM-12","99999","V020","999,9,C,0000,1","22000,1,9,N","020000,1,N,1","-0212,1","-0252,1","10208,1","99,0000,9,1","","","","","","","02,99,1,02,1,00,1,99999,9,04,1,00,1","","","999,M,-0097,1","99999,9,10136,1","3,1,005,1,+999,9","","","SYN076AAXX  27121 31725 32998 20000 11212 21252 30136 40208 53005 82040 333 11097;","Q01  00002PRCP99"
"31725099999","2000-02-27T15:00:00","4","48.6166666","133.8333333","52.0","SMIDOVICH, RS","FM-12","99999","V020","999,9,C,0000,1","22000,1,9,N","020000,1,N,1","-0228,1","-0253,1","10216,1","","","","","","","","01,99,1,01,1,00,1,99999,9,04,1,00,1","","","","","2,1,007,1,+999,9","","","SYN060AAXX  27151 31725 42998 10000 11228 21253 40216 52007 81040;",
"31725099999","2000-02-27T18:00:00","4","48.6166666","133.8333333","52.0","SMIDOVICH, RS","FM-12","99999","V020","999,9,C,0000,1","22000,1,9,N","020000,1,N,1","-0244,1","-0269,1","10218,1","","","","","","","","01,99,1,01,1,00,1,99999,9,04,1,00,1","","","","","1,1,002,1,+999,9","","","SYN060AAXX  27181 31725 42998 10000 11244 21269 40218 51002 81040;",
"31725099999","2000-02-27T21:00:00","4","48.6166666","133.8333333","52.0","SMIDOVICH, RS","FM-12","99999","V020","999,9,C,0000,1","22000,1,9,N","020000,1,N,1","-0244,1","-0269,1","10222,1","99,0000,9,1","","","","","","","01,99,1,01,1,00,1,99999,9,04,1,00,1","","","","","3,1,004,1,+999,9","","","SYN060AAXX  27211 31725 32998 10000 11244 21269 40222 53004 81040;","Q01  00002PRCP99"
"31725099999","2000-02-28T00:00:00","4","48.6166666","133.8333333","52.0","SMIDOVICH, RS","FM-12","99999","V020","999,9,C,0000,1","22000,1,9,N","010000,1,N,1","-0203,1","-0228,1","10225,1","99,0000,9,1","0010,9,1,999999,9,9","","0,1,06,1","0,1,06,1","","00,1,+99999,9,99,9","00,99,1,00,1,00,1,99999,9,00,1,00,1","24,9","","120,N,-0270,1","99999,9,10153,1","2,1,004,1,+999,9","10,1","","SYN082AAXX  28001 31725 31997 00000 11203 21228 30153 40225 52004 71000 333 21270 48010;","Q01  00002PRCP99"
"31725099999","2000-02-28T03:00:00","4","48.6166666","133.8333333","52.0","SMIDOVICH, RS","FM-12","99999","V020","180,1,N,0010,1","22000,1,9,N","020000,1,N,1","-0150,1","-0192,1","10224,1","","","","","","","00,1,+99999,9,99,9","00,99,1,00,1,00,1,99999,9,00,1,00,1","","","","","4,1,000,1,+999,9","","","SYN054AAXX  28031 31725 42998 01801 11150 21192 40224 54000;",
"31725099999","2000-02-28T06:00:00","4","48.6166666","133.8333333","52.0","SMIDOVICH, RS","FM-12","99999","V020","230,1,N,0020,1","22000,1,9,N","020000,1,N,1","-0115,1","-0187,1","10212,1","","","","","","","00,1,+99999,9,99,9","00,99,1,00,1,00,1,99999,9,00,1,00,1","","","","","8,1,011,1,+999,9","","","SYN054AAXX  28061 31725 42998 02302 11115 21187 40212 58011;",
"31725099999","2000-02-28T09:00:00","4","48.6166666","133.8333333","52.0","SMIDOVICH, RS","FM-12","99999","V020","230,1,N,0020,1","22000,1,9,N","020000,1,N,1","-0148,1","-0199,1","10209,1","99,0000,9,1","","","","","","00,1,+99999,9,99,9","00,99,1,00,1,00,1,99999,9,00,1,00,1","","","999,M,-0108,1","","7,1,004,1,+999,9","","","SYN064AAXX  28091 31725 32998 02302 11148 21199 40209 57004 333 11108;","Q01  00002PRCP99"
"31725099999","2000-02-28T12:00:00","4","48.6166666","133.8333333","52.0","SMIDOVICH, RS","FM-12","99999","V020","270,1,N,0020,1","22000,1,9,N","020000,1,N,1","-0175,1","-0225,1","10207,1","99,0000,9,1","","","","","","00,1,+99999,9,99,9","00,99,1,00,1,00,1,99999,9,00,1,00,1","","","999,M,-0108,1","99999,9,10136,1","6,1,002,1,+999,9","","","SYN070AAXX  28121 31725 32998 02702 11175 21225 30136 40207 56002 333 11108;","Q01  00002PRCP99"
"31725099999","2000-02-28T15:00:00","4","48.6166666","133.8333333","52.0","SMIDOVICH, RS","FM-12","99999","V020","270,1,N,0020,1","22000,1,9,N","020000,1,N,1","-0222,1","-0269,1","10204,1","","","","","","","00,1,+99999,9,99,9","00,99,1,00,1,00,1,99999,9,00,1,00,1","","","","","8,1,005,1,+999,9","","","SYN054AAXX  28151 31725 42998 02702 11222 21269 40204 58005;",
"31725099999","2000-02-28T18:00:00","4","48.6166666","133.8333333","52.0","SMIDOVICH, RS","FM-12","99999","V020","270,1,N,0010,1","22000,1,9,N","020000,1,N,1","-0230,1","-0278,1","10199,1","","","","","","","00,1,+99999,9,99,9","00,99,1,00,1,00,1,99999,9,00,1,00,1","","","","","7,1,005,1,+999,9","","","SYN054AAXX  28181 31725 42998 02701 11230 21278 40199 57005;",
"31725099999","2000-02-28T21:00:00","4","48.6166666","133.8333333","52.0","SMIDOVICH, RS","FM-12","99999","V020","270,1,N,0030,1","22000,1,9,N","020000,1,N,1","-0197,1","-0255,1","10201,1","99,0000,9,1","","","","","","00,1,+99999,9,99,9","00,99,1,00,1,00,1,99999,9,00,1,00,1","","","","","3,1,003,1,+999,9","","","SYN054AAXX  28211 31725 32998 02703 11197 21255 40201 53003;","Q01  00002PRCP99"
"31725099999","2000-02-29T00:00:00","4","48.6166666","133.8333333","52.0","SMIDOVICH, RS","FM-12","99999","V020","230,1,N,0020,1","22000,1,9,N","020000,1,N,1","-0184,1","-0243,1","10206,1","99,0000,9,1","0010,9,1,999999,9,9","","","","","00,1,+99999,9,99,9","00,99,1,00,1,00,1,99999,9,00,1,00,1","24,9","","120,N,-0240,1","99999,9,10135,1","2,1,006,1,+999,9","","","SYN076AAXX  29001 31725 32998 02302 11184 21243 30135 40206 52006 333 21240 48010;","Q01  00002PRCP99"
"31725099999","2000-02-29T03:00:00","4","48.6166666","133.8333333","52.0","SMIDOVICH, RS","FM-12","99999","V020","230,1,N,0040,1","22000,1,9,N","020000,1,N,1","-0127,1","-0210,1","10203,1","","","","","","","00,1,+99999,9,99,9","00,99,1,00,1,00,1,99999,9,00,1,00,1","","","","","8,1,002,1,+999,9","","","SYN054AAXX  29031 31725 42998 02304 11127 21210 40203 58002;",
"31725099999","2000-02-29T06:00:00","4","48.6166666","133.8333333","52.0","SMIDOVICH, RS","FM-12","99999","V020","230,1,N,0040,1","22000,1,9,N","020000,1,N,1","-0100,1","-0185,1","10191,1","","","","","","","00,1,+99999,9,99,9","00,99,1,00,1,00,1,99999,9,00,1,00,1","","","","","7,1,011,1,+999,9","","","SYN054AAXX  29061 31725 42998 02304 11100 21185 40191 57011;",
"31725099999","2000-02-29T09:00:00","4","48.6166666","133.8333333","52.0","SMIDOVICH, RS","FM-12","99999","V020","230,1,N,0040,1","22000,1,9,N","020000,1,N,1","-0108,1","-0179,1","10185,1","99,0000,9,1","","","","","","00,1,+99999,9,99,9","00,99,1,00,1,00,1,99999,9,00,1,00,1","","","999,M,-0091,1","","7,1,006,1,+999,9","","","SYN064AAXX  29091 31725 32998 02304 11108 21179 40185 57006 333 11091;","Q01  00002PRCP99"
"31725099999","2000-02-29T12:00:00","4","48.6166666","133.8333333","52.0","SMIDOVICH, RS","FM-12","99999","V020","230,1,N,0020,1","22000,1,9,N","020000,1,N,1","-0124,1","-0186,1","10185,1","99,0000,9,1","","","","","","00,1,+99999,9,99,9","00,99,1,00,1,00,1,99999,9,00,1,00,1","","","999,M,-0091,1","99999,9,10115,1","6,1,001,1,+999,9","","","SYN070AAXX  29121 31725 32998 02302 11124 21186 30115 40185 56001 333 11091;","Q01  00002PRCP99"
"31725099999","2000-02-29T15:00:00","4","48.6166666","133.8333333","52.0","SMIDOVICH, RS","FM-12","99999","V020","230,1,N,0020,1","22000,1,9,N","020000,1,N,1","-0146,1","-0207,1","10184,1","","","","","","","00,1,+99999,9,99,9","00,99,1,00,1,00,1,99999,9,00,1,00,1","","","","","6,1,002,1,+999,9","","","SYN054AAXX  29151 31725 42998 02302 11146 21207 40184 56002;",
"31725099999","2000-02-29T18:00:00","4","48.6166666","133.8333333","52.0","SMIDOVICH, RS","FM-12","99999","V020","230,1,N,0010,1","22000,1,9,N","020000,1,N,1","-0185,1","-0226,1","10185,1","","","","","","","00,1,+99999,9,99,9","00,99,1,00,1,00,1,99999,9,00,1,00,1","","","","","4,1,000,1,+999,9","","","SYN054AAXX  29181 31725 42998 02301 11185 21226 40185 54000;",
"31725099999","2000-02-29T21:00:00","4","48.6166666","133.8333333","52.0","SMIDOVICH, RS","FM-12","99999","V020","999,9,C,0000,1","22000,1,9,N","020000,1,N,1","-0176,1","-0202,1","10176,1","99,0000,9,1","","","","","","","03,99,1,03,1,00,1,99999,9,04,1,00,1","","","","","8,1,008,1,+999,9","","","SYN060AAXX  29211 31725 32998 30000 11176 21202 40176 58008 83040;","Q01  00002PRCP99"
"31725099999","2000-03-01T00:00:00","4","48.6166666","133.8333333","52.0","SMIDOVICH, RS","FM-12","99999","V020","230,1,N,0020,1","99999,9,9,N","020000,1,N,1","-0146,1","-0181,1","10169,1","99,0000,9,1","0010,9,1,999999,9,9","","","","","","08,99,1,00,1,00,1,99999,9,00,1,02,1","24,9","","120,N,-0190,1","99999,9,10098,1","7,1,007,1,+999,9","","","SYN082AAXX  01001 31725 32998 82302 11146 21181 30098 40169 57007 80002 333 21190 48010;","Q01  00002PRCP99"
"31725099999","2000-03-01T03:00:00","4","48.6166666","133.8333333","52.0","SMIDOVICH, RS","FM-12","99999","V020","230,1,N,0020,1","99999,9,9,N","020000,1,N,1","-0104,1","-0140,1","10162,1","","","","","","","","07,99,1,07,1,00,1,99999,9,04,1,99,9","","","","","7,1,005,1,+999,9","","","SYN060AAXX  01031 31725 42998 72302 11104 21140 40162 57005 8704/;",
"31725099999","2000-03-01T06:00:00","4","48.6166666","133.8333333","52.0","SMIDOVICH, RS","FM-12","99999","V020","999,9,C,0000,1","99999,9,9,N","020000,1,N,1","-0065,1","-0120,1","10147,1","","","","","","","","06,99,1,06,1,00,1,99999,9,04,1,00,1","","","","","7,1,015,1,+999,9","","","SYN060AAXX  01061 31725 42998 60000 11065 21120 40147 57015 86040;",
"31725099999","2000-03-01T09:00:00","4","48.6166666","133.8333333","52.0","SMIDOVICH, RS","FM-12","99999","V020","999,9,C,0000,1","22000,1,9,N","020000,1,N,1","-0070,1","-0122,1","10144,1","99,0000,9,1","","","","","","","02,99,1,02,1,00,1,99999,9,04,1,00,1","","","999,M,-0062,1","","7,1,003,1,+999,9","","","SYN070AAXX  01091 31725 32998 20000 11070 21122 40144 57003 82040 333 11062;","Q01  00002PRCP99"
"31725099999","2000-03-01T12:00:00","4","48.6166666","133.8333333","52.0","SMIDOVICH, RS","FM-12","99999","V020","999,9,C,0000,1","22000,1,9,N","020000,1,N,1","-0095,1","-0130,1","10158,1","99,0000,9,1","","","","","","00,1,+99999,9,99,9","00,99,1,00,1,00,1,99999,9,00,1,00,1","","","999,M,-0062,1","99999,9,10089,1","3,1,014,1,+999,9","","","SYN070AAXX  01121 31725 32998 00000 11095 21130 30089 40158 53014 333 11062;","Q01  00002PRCP99"
"31725099999","2000-03-01T15:00:00","4","48.6166666","133.8333333","52.0","SMIDOVICH, RS","FM-12","99999","V020","999,9,C,0000,1","22000,1,9,N","020000,1,N,1","-0113,1","-0148,1","10162,1","","","","","","","00,1,+99999,9,99,9","00,99,1,00,1,00,1,99999,9,00,1,00,1","","","","","2,1,004,1,+999,9","","","SYN054AAXX  01151 31725 42998 00000 11113 21148 40162 52004;",
"31725099999","2000-03-01T18:00:00","4","48.6166666","133.8333333","52.0","SMIDOVICH, RS","FM-12","99999","V020","230,1,N,0020,1","22000,1,9,N","020000,1,N,1","-0115,1","-0159,1","10172,1","","","","","","","00,1,+99999,9,99,9","00,99,1,00,1,00,1,99999,9,00,1,00,1","","","","","2,1,009,1,+999,9","","","SYN054AAXX  01181 31725 42998 02302 11115 21159 40172 52009;",
"31725099999","2000-03-01T21:00:00","4","48.6166666","133.8333333","52.0","SMIDOVICH, RS","FM-12","99999","V020","320,1,N,0020,1","22000,1,9,N","020000,1,N,1","-0100,1","-0163,1","10182,1","99,0000,9,1","","","","","","00,1,+99999,9,99,9","00,99,1,00,1,00,1,99999,9,00,1,00,1","","","","","2,1,011,1,+999,9","","","SYN054AAXX  01211 31725 32998 03202 11100 21163 40182 52011;","Q01  00002PRCP99"
"31725099999","2000-03-02T00:00:00","4","48.6166666","133.8333333","52.0","SMIDOVICH, RS","FM-12","99999","V020","290,1,N,0030,1","22000,1,9,N","020000,1,N,1","-0088,1","-0167,1","10199,1","99,0000,9,1","0010,9,1,999999,9,9","","","","","00,1,+99999,9,99,9","00,99,1,00,1,00,1,99999,9,00,1,00,1","24,9","","120,N,-0160,1","99999,9,10130,1","2,1,017,1,+999,9","","","SYN076AAXX  02001 31725 32998 02903 11088 21167 30130 40199 52017 333 21160 48010;","Q01  00002PRCP99"
"31725099999","2000-03-02T03:00:00","4","48.6166666","133.8333333","52.0","SMIDOVICH, RS","FM-12","99999","V020","250,1,N,0040,1","22000,1,9,N","020000,1,N,1","-0057,1","-0140,1","10198,1","","","","","","","00,1,+99999,9,99,9","00,99,1,00,1,00,1,99999,9,00,1,00,1","","","","","8,1,001,1,+999,9","","","SYN054AAXX  02031 31725 42998 02504 11057 21140 40198 58001;",
"31725099999","2000-03-02T06:00:00","4","48.6166666","133.8333333","52.0","SMIDOVICH, RS","FM-12","99999","V020","250,1,N,0040,1","22000,1,9,N","020000,1,N,1","-0031,1","-0124,1","10189,1","","","","","","","","01,99,1,00,1,00,1,99999,9,00,1,02,1","","","","","7,1,008,1,+999,9","","","SYN060AAXX  02061 31725 42998 12504 11031 21124 40189 57008 80002;",
"31725099999","2000-03-02T09:00:00","4","48.6166666","133.8333333","52.0","SMIDOVICH, RS","FM-12","99999","V020","160,1,N,0010,1","22000,1,9,N","020000,1,N,1","-0085,1","-0144,1","10191,1","99,0000,9,1","","","","","","","02,99,1,02,1,00,1,99999,9,04,1,02,1","","","999,M,-0022,1","","3,1,001,1,+999,9","","","SYN070AAXX  02091 31725 32998 21601 11085 21144 40191 53001 82042 333 11022;","Q01  00002PRCP99"
"31725099999","2000-03-02T12:00:00","4","48.6166666","133.8333333","52.0","SMIDOVICH, RS","FM-12","99999","V020","230,1,N,0010,1","22000,1,9,N","020000,1,N,1","-0130,1","-0165,1","10189,1","99,0000,9,1","","","","","","","01,99,1,01,1,00,1,99999,9,04,1,00,1","","","999,M,-0022,1","99999,9,10119,1","8,1,003,1,+999,9","","","SYN076AAXX  02121 31725 32998 12301 11130 21165 30119 40189 58003 81040 333 11022;","Q01  00002PRCP99"
"31725099999","2000-03-02T15:00:00","4","48.6166666","133.8333333","52.0","SMIDOVICH, RS","FM-12","99999","V020","999,9,C,0000,1","22000,1,9,N","020000,1,N,1","-0167,1","-0186,1","10185,1","","","","","","","00,1,+99999,9,99,9","00,99,1,00,1,00,1,99999,9,00,1,00,1","","","","","7,1,005,1,+999,9","","","SYN054AAXX  02151 31725 42998 00000 11167 21186 40185 57005;",
"31725099999","2000-03-02T18:00:00","4","48.6166666","133.8333333","52.0","SMIDOVICH, RS","FM-12","99999","V020","999,9,C,0000,1","22000,1,9,N","010000,1,N,1","-0182,1","-0194,1","10173,1","","","","0,1,06,1","0,1,06,1","","00,1,+99999,9,99,9","00,99,1,00,1,00,1,99999,9,00,1,00,1","","","","","7,1,012,1,+999,9","10,1","","SYN060AAXX  02181 31725 41997 00000 11182 21194 40173 57012 71000;",
"31725099999","2000-03-02T21:00:00","4","48.6166666","133.8333333","52.0","SMIDOVICH, RS","FM-12","99999","V020","999,9,C,0000,1","99999,9,9,N","010000,1,N,1","-0180,1","-0192,1","10155,1","99,0000,9,1","","","1,1,03,1","1,1,03,1","","","08,99,1,03,1,00,1,99999,9,04,1,02,1","","","","","7,1,018,1,+999,9","10,1","","SYN066AAXX  02211 31725 31997 80000 11180 21192 40155 57018 71011 83042;","Q01  00002PRCP99"
"31725099999","2000-03-03T00:00:00","4","48.6166666","133.8333333","52.0","SMIDOVICH, RS","FM-12","99999","V020","140,1,N,0010,1","03600,1,9,N","010000,1,N,1","-0145,1","-0158,1","10134,1","99,0000,9,1","0009,9,1,999999,9,9","","1,1,06,1","1,1,06,1","","","08,99,1,02,1,03,1,00450,1,04,1,99,9","28,9","","120,N,-0195,1","99999,9,10063,1","7,1,021,1,+999,9","10,1","","SYN088AAXX  03001 31725 31497 81401 11145 21158 30063 40134 57021 71011 8234/ 333 21195 44009;","Q01  00002PRCP99"
"31725099999","2000-03-03T03:00:00","4","48.6166666","133.8333333","52.0","SMIDOVICH, RS","FM-12","99999","V020","050,1,N,0020,1","00420,1,9,N","020000,1,N,1","-0077,1","-0122,1","10097,1","","","","","","","","08,99,1,05,1,03,1,00450,1,04,1,99,9","","","","","7,1,034,1,+999,9","","","SYN060AAXX  03031 31725 42498 80502 11077 21122 40097 57034 8534/;",
"31725099999","2000-03-03T06:00:00","4","48.6166666","133.8333333","52.0","SMIDOVICH, RS","FM-12","99999","V020","050,1,N,0010,1","00420,1,9,N","010000,1,N,1","-0054,1","-0087,1","10071,1","","","","8,1,06,1","2,1,06,1","","","08,99,1,08,1,03,1,00450,1,99,9,99,9","","","","","7,1,026,1,+999,9","85,1","","SYN066AAXX  03061 31725 41497 80501 11054 21087 40071 57026 78582 883//;",
"31725099999","2000-03-03T09:00:00","4","48.6166666","133.8333333","52.0","SMIDOVICH, RS","FM-12","99999","V020","050,1,N,0010,1","00420,1,9,N","010000,1,N,1","-0058,1","-0065,1","10058,1","","","","8,1,03,1","2,1,03,1","","","08,99,1,08,1,03,1,00450,1,99,9,99,9","","","999,M,-0040,1","","7,1,013,1,+999,9","85,1","","SYN076AAXX  03091 31725 /1497 80501 11058 21065 40058 57013 78582 883// 333 11040;",
"31725099999","2000-03-03T12:00:00","4","48.6166666","133.8333333","52.0","SMIDOVICH, RS","FM-12","99999","V020","999,9,C,0000,1","00420,1,9,N","020000,1,N,1","-0061,1","-0065,1","10055,1","00,0010,9,1","","","8,1,06,1","2,1,06,1","","","08,99,1,08,1,03,1,00450,1,99,9,99,9","","","999,M,-0040,1","99999,9,09987,1","7,1,003,1,+999,9","26,1","","SYN088AAXX  03121 31725 11498 80000 11061 21065 39987 40055 57003 60010 72682 883// 333 11040;",
"31725099999","2000-03-03T15:00:00","4","48.6166666","133.8333333","52.0","SMIDOVICH, RS","FM-12","99999","V020","999,9,C,0000,1","00420,1,9,N","020000,1,N,1","-0065,1","-0070,1","10047,1","","","","","","","","08,99,1,08,1,03,1,00450,1,99,9,99,9","","","","","7,1,008,1,+999,9","","","SYN060AAXX  03151 31725 42498 80000 11065 21070 40047 57008 883//;",
"31725099999","2000-03-03T18:00:00","4","48.6166666","133.8333333","52.0","SMIDOVICH, RS","FM-12","99999","V020","999,9,C,0000,1","00420,1,9,N","020000,1,N,1","-0080,1","-0090,1","10045,1","","","","","","","","08,99,1,08,1,03,1,00450,1,99,9,99,9","","","","","6,1,002,1,+999,9","","","SYN060AAXX  03181 31725 42498 80000 11080 21090 40045 56002 883//;",
"31725099999","2000-03-03T21:00:00","4","48.6166666","133.8333333","52.0","SMIDOVICH, RS","FM-12","99999","V020","270,1,N,0010,1","00420,1,9,N","010000,1,N,1","-0084,1","-0094,1","10041,1","","","","2,1,03,1","2,1,03,1","","","08,99,1,08,1,03,1,00450,1,99,9,99,9","","","","","8,1,004,1,+999,9","10,1","","SYN066AAXX  03211 31725 /1497 82701 11084 21094 40041 58004 71022 883//;",
"31725099999","2000-03-04T00:00:00","4","48.6166666","133.8333333","52.0","SMIDOVICH, RS","FM-12","99999","V020","230,1,N,0020,1","00420,1,9,N","001000,1,N,1","-0094,1","-0101,1","10038,1","00,0008,9,1","0010,9,1,999999,9,9","","4,1,06,1","4,1,06,1","","","08,99,1,08,1,03,1,00450,1,99,9,99,9","24,9","","120,N,-0094,1","99999,9,09970,1","7,1,003,1,+999,9","48,1","","SYN094AAXX  04001 31725 11494 82302 11094 21101 39970 40038 57003 69970 74844 883// 333 21094 48010;",
"31725099999","2000-03-04T03:00:00","4","48.6166666","133.8333333","52.0","SMIDOVICH, RS","FM-12","99999","V020","230,1,N,0020,1","99999,9,9,N","010000,1,N,1","-0041,1","-0079,1","10030,1","","","","4,1,03,1","2,1,03,1","","","08,99,1,07,1,00,1,99999,9,04,1,99,9","","","","","7,1,007,1,+999,9","02,1","","SYN066AAXX  04031 31725 41997 82302 11041 21079 40030 57007 70242 8704/;",
"31725099999","2000-03-04T06:00:00","4","48.6166666","133.8333333","52.0","SMIDOVICH, RS","FM-12","99999","V020","230,1,N,0040,1","22000,1,9,N","020000,1,N,1","-0016,1","-0085,1","10027,1","","","","","","","","03,99,1,02,1,00,1,99999,9,04,1,02,1","","","","","7,1,003,1,+999,9","","","SYN060AAXX  04061 31725 42998 32304 11016 21085 40027 57003 82042;",
"31725099999","2000-03-04T09:00:00","4","48.6166666","133.8333333","52.0","SMIDOVICH, RS","FM-12","99999","V020","230,1,N,0020,1","99999,9,9,N","020000,1,N,1","-0040,1","-0103,1","10030,1","99,0000,9,1","","","","","","","05,99,1,03,1,00,1,99999,9,04,1,02,1","","","999,M,-0005,1","","3,1,003,1,+999,9","","","SYN070AAXX  04091 31725 32998 52302 11040 21103 40030 53003 83042 333 11005;","Q01  00002PRCP99"
"31725099999","2000-03-04T12:00:00","4","48.6166666","133.8333333","52.0","SMIDOVICH, RS","FM-12","99999","V020","999,9,C,0000,1","00420,1,9,N","020000,1,N,1","-0039,1","-0097,1","10030,1","99,0000,2,1","","","8,1,06,1","1,1,06,1","","","05,99,1,05,1,03,1,00450,1,00,1,00,1","","","999,M,-0005,1","99999,9,09963,1","4,1,000,1,+999,9","26,1","","SYN082AAXX  04121 31725 31498 50000 11039 21097 39963 40030 54000 72681 85300 333 11005;",
"31725099999","2000-03-04T15:00:00","4","48.6166666","133.8333333","52.0","SMIDOVICH, RS","FM-12","99999","V020","270,1,N,0010,1","00420,1,9,N","010000,1,N,1","-0082,1","-0096,1","10032,1","","","","8,1,03,1","2,1,03,1","","","08,99,1,08,1,03,1,00450,1,99,9,99,9","","","","","1,1,001,1,+999,9","85,1","","SYN066AAXX  04151 31725 41497 82701 11082 21096 40032 51001 78582 883//;",
"31725099999","2000-03-04T18:00:00","4","48.6166666","133.8333333","52.0","SMIDOVICH, RS","FM-12","99999","V020","270,1,N,0010,1","00420,1,9,N","999999,9,N,1","-0060,1","-0123,1","10050,1","","","","8,1,06,1","2,1,06,1","","","05,99,1,05,1,03,1,00450,1,00,1,00,1","","","","","2,1,018,1,+999,9","26,1","","SYN066AAXX  04181 31725 4149/ 52701 11060 21123 40050 52018 72682 85300;",
"31725099999","2000-03-04T21:00:00","4","48.6166666","133.8333333","52.0","SMIDOVICH, RS","FM-12","99999","V020","230,1,N,0010,1","22000,1,9,N","020000,1,N,1","-0100,1","-0144,1","10070,1","","","","","","","","03,99,1,03,1,00,1,99999,9,04,1,00,1","","","","","2,1,020,1,+999,9","","","SYN060AAXX  04211 31725 /2998 32301 11100 21144 40070 52020 83040;",
"31725099999","2000-03-05T00:00:00","4","48.6166666","133.8333333","52.0","SMIDOVICH, RS","FM-12","99999","V020","230,1,N,0010,1","22000,1,9,N","020000,1,N,1","-0085,1","-0127,1","10094,1","00,0007,9,1","0010,9,1,999999,9,9","","","","","","02,99,1,02,1,00,1,99999,9,04,1,00,1","24,9","","120,N,-0111,1","99999,9,10026,1","2,1,024,1,+999,9","","","SYN088AAXX  05001 31725 12998 22301 11085 21127 30026 40094 52024 69900 82040 333 21111 48010;",
"31725099999","2000-03-05T03:00:00","4","48.6166666","133.8333333","52.0","SMIDOVICH, RS","FM-12","99999","V020","230,1,N,0010,1","99999,9,9,N","020000,1,N,1","-0045,1","-0117,1","10102,1","","","","","","","","08,99,1,00,1,00,1,99999,9,00,1,02,1","","","","","2,1,008,1,+999,9","","","SYN060AAXX  05031 31725 42998 82301 11045 21117 40102 52008 80002;",
"31725099999","2000-03-05T06:00:00","4","48.6166666","133.8333333","52.0","SMIDOVICH, RS","FM-12","99999","V020","230,1,N,0010,1","22000,1,9,N","020000,1,N,1","-0041,1","-0125,1","10105,1","","","","","","","00,1,+99999,9,99,9","00,99,1,00,1,00,1,99999,9,00,1,00,1","","","","","2,1,004,1,+999,9","","","SYN054AAXX  05061 31725 42998 02301 11041 21125 40105 52004;",
"31725099999","2000-03-05T09:00:00","4","48.6166666","133.8333333","52.0","SMIDOVICH, RS","FM-12","99999","V020","230,1,N,0010,1","22000,1,9,N","020000,1,N,1","-0075,1","-0130,1","10117,1","99,0000,9,1","","","","","","","02,99,1,02,1,00,1,99999,9,04,1,00,1","","","999,M,-0036,1","","2,1,011,1,+999,9","","","SYN070AAXX  05091 31725 32998 22301 11075 21130 40117 52011 82040 333 11036;","Q01  00002PRCP99"
"31725099999","2000-03-05T12:00:00","4","48.6166666","133.8333333","52.0","SMIDOVICH, RS","FM-12","99999","V020","230,1,N,0010,1","22000,1,9,N","020000,1,N,1","-0120,1","-0140,1","10129,1","99,0000,9,1","","","","","","00,1,+99999,9,99,9","00,99,1,00,1,00,1,99999,9,00,1,00,1","","","999,M,-0036,1","99999,9,10059,1","2,1,010,1,+999,9","","","SYN070AAXX  05121 31725 32998 02301 11120 21140 30059 40129 52010 333 11036;","Q01  00002PRCP99"
"31725099999","2000-03-05T15:00:00","4","48.6166666","133.8333333","52.0","SMIDOVICH, RS","FM-12","99999","V020","230,1,N,0010,1","22000,1,9,N","020000,1,N,1","-0142,1","-0162,1","10132,1","","","","","","","00,1,+99999,9,99,9","00,99,1,00,1,00,1,99999,9,00,1,00,1","","","","","2,1,003,1,+999,9","","","SYN054AAXX  05151 31725 42998 02301 11142 21162 40132 52003;",
"31725099999","2000-03-05T18:00:00","4","48.6166666","133.8333333","52.0","SMIDOVICH, RS","FM-12","99999","V020","320,1,N,0020,1","22000,1,9,N","020000,1,N,1","-0142,1","-0155,1","10131,1","","","","","","","","02,99,1,02,1,00,1,99999,9,04,1,00,1","","","","","8,1,001,1,+999,9","","","SYN060AAXX  05181 31725 42998 23202 11142 21155 40131 58001 82040;",
"31725099999","2000-03-05T21:00:00","4","48.6166666","133.8333333","52.0","SMIDOVICH, RS","FM-12","99999","V020","050,1,N,0020,1","99999,9,9,N","020000,1,N,1","-0135,1","-0155,1","10118,1","99,0000,9,1","","","","","","","08,99,1,07,1,00,1,99999,9,04,1,99,9","","","","","7,1,013,1,+999,9","","","SYN060AAXX  05211 31725 32998 80502 11135 21155 40118 57013 8704/;","Q01  00002PRCP99"
"31725099999","2000-03-06T00:00:00","4","48.6166666","133.8333333","52.0","SMIDOVICH, RS","FM-12","99999","V020","050,1,N,0030,1","03600,1,9,N","020000,1,N,1","-0108,1","-0152,1","10110,1","99,0000,9,1","0010,9,1,999999,9,9","","","","","","08,99,1,02,1,05,1,00800,1,04,1,99,9","28,9","","120,N,-0149,1","99999,9,10041,1","7,1,007,1,+999,9","","","SYN082AAXX  06001 31725 32598 80503 11108 21152 30041 40110 57007 8254/ 333 21149 44010;","Q01  00002PRCP99"
"31725099999","2000-03-06T03:00:00","4","48.6166666","133.8333333","52.0","SMIDOVICH, RS","FM-12","99999","V020","050,1,N,0080,1","03600,1,9,N","020000,1,N,1","-0076,1","-0153,1","10097,1","","","","","","","","08,99,1,02,1,05,1,00800,1,04,1,99,9","","","","","7,1,012,1,+999,9","","","SYN070AAXX  06031 31725 42598 80508 11076 21153 40097 57012 8254/ 333 91114;",
"31725099999","2000-03-06T06:00:00","4","48.6166666","133.8333333","52.0","SMIDOVICH, RS","FM-12","99999","V020","050,1,N,0080,1","00420,1,9,N","020000,1,N,1","-0064,1","-0135,1","10064,1","","","","","","","","08,99,1,08,1,03,1,00450,1,99,9,99,9","","","","","7,1,033,1,+999,9","","","SYN070AAXX  06061 31725 42498 80508 11064 21135 40064 57033 883// 333 91114;",
"31725099999","2000-03-06T09:00:00","4","48.6166666","133.8333333","52.0","SMIDOVICH, RS","FM-12","99999","V020","050,1,N,0040,1","00420,1,9,N","001000,1,N,1","-0085,1","-0100,1","10063,1","","","","8,1,03,1","2,1,03,1","","","08,99,1,08,1,03,1,00450,1,99,9,99,9","","","999,M,-0060,1","","3,1,001,1,+999,9","86,1","","SYN076AAXX  06091 31725 /1494 80504 11085 21100 40063 53001 78682 883// 333 11060;",
"31725099999","2000-03-06T12:00:00","4","48.6166666","133.8333333","52.0","SMIDOVICH, RS","FM-12","99999","V020","050,1,N,0030,1","00420,1,9,N","004000,1,N,1","-0089,1","-0109,1","10057,1","00,0005,9,1","","","8,1,06,1","2,1,06,1","","","08,99,1,08,1,03,1,00450,1,99,9,99,9","","","999,M,-0060,1","99999,9,09989,1","8,1,006,1,+999,9","85,1","","SYN088AAXX  06121 31725 11496 80503 11089 21109 39989 40057 58006 69960 78582 883// 333 11060;",
"31725099999","2000-03-06T15:00:00","4","48.6166666","133.8333333","52.0","SMIDOVICH, RS","FM-12","99999","V020","050,1,N,0030,1","00420,1,9,N","004000,1,N,1","-0086,1","-0105,1","10046,1","","","","8,1,03,1","2,1,03,1","","","08,99,1,08,1,03,1,00450,1,99,9,99,9","","","","","7,1,011,1,+999,9","85,1","","SYN066AAXX  06151 31725 41496 80503 11086 21105 40046 57011 78582 883//;",
"31725099999","2000-03-06T18:00:00","4","48.6166666","133.8333333","52.0","SMIDOVICH, RS","FM-12","99999","V020","070,1,N,0020,1","00420,1,9,N","001000,1,N,1","-0090,1","-0101,1","10037,1","","","","8,1,06,1","2,1,06,1","","","08,99,1,08,1,03,1,00450,1,99,9,99,9","","","","","7,1,009,1,+999,9","86,1","","SYN066AAXX  06181 31725 41494 80702 11090 21101 40037 57009 78682 883//;",
"31725099999","2000-03-06T21:00:00","4","48.6166666","133.8333333","52.0","SMIDOVICH, RS","FM-12","99999","V020","050,1,N,0010,1","00420,1,9,N","001000,1,N,1","-0096,1","-0104,1","10028,1","","","","8,1,03,1","2,1,03,1","","","08,99,1,08,1,03,1,00450,1,99,9,99,9","","","","","7,1,009,1,+999,9","86,1","","SYN066AAXX  06211 31725 /1494 80501 11096 21104 40028 57009 78682 883//;",
"31725099999","2000-03-07T00:00:00","4","48.6166666","133.8333333","52.0","SMIDOVICH, RS","FM-12","99999","V020","050,1,N,0040,1","00420,1,9,N","001000,1,N,1","-0095,1","-0130,1","10028,1","12,0051,9,1","0017,9,1,999999,9,9","","8,1,06,1","3,1,06,1","","","08,99,1,08,1,03,1,00450,1,99,9,99,9","24,9","","120,N,-0100,1","99999,9,09960,1","4,1,000,1,+999,9","86,1","","SYN094AAXX  07001 31725 11494 80504 11095 21130 39960 40028 54000 60052 78683 883// 333 21100 48017;",
"31725099999","2000-03-07T03:00:00","4","48.6166666","133.8333333","52.0","SMIDOVICH, RS","FM-12","99999","V020","020,1,N,0100,1","00420,1,9,N","020000,1,N,1","-0081,1","-0168,1","10017,1","","","","8,1,03,1","3,1,03,1","","","08,99,1,08,1,03,1,00450,1,99,9,99,9","","","","","8,1,011,1,+999,9","36,1","4,01,0100,1","SYN082AAXX  07031 31725 41498 80210 11081 21168 40017 58011 73683 883// 333 91010 91117;",
"31725099999","2000-03-07T06:00:00","4","48.6166666","133.8333333","52.0","SMIDOVICH, RS","FM-12","99999","V020","050,1,N,0050,1","00420,1,9,N","002000,1,N,1","-0080,1","-0131,1","10019,1","","","","8,1,06,1","3,1,06,1","","","08,99,1,08,1,03,1,00450,1,99,9,99,9","","","999,M,+9999,9","","3,1,002,1,+999,9","86,1","","SYN076AAXX  07061 31725 41495 80505 11080 21131 40019 53002 78683 883// 333 11114;","Q01 -01142ATMX  "
"31725099999","2000-03-07T09:00:00","4","48.6166666","133.8333333","52.0","SMIDOVICH, RS","FM-12","99999","V020","260,1,N,9999,9","00420,1,9,N","010000,1,N,1","-0085,1","-0127,1","10025,1","","","","8,1,03,1","3,1,03,1","","","08,99,1,08,1,03,1,00450,1,99,9,99,9","","","999,M,-0072,1","","2,1,006,1,+999,9","85,1","","SYN076AAXX  07091 31725 /1497 87604 11085 21127 40025 52006 78583 883// 333 11072;","Q01+010401WOSPD "
"31725099999","2000-03-07T12:00:00","4","48.6166666","133.8333333","52.0","SMIDOVICH, RS","FM-12","99999","V020","060,1,N,0010,1","00420,1,9,N","001000,1,N,1","-0091,1","-0111,1","10041,1","00,0010,9,1","","","8,1,06,1","3,1,06,1","","","08,99,1,08,1,03,1,00450,1,99,9,99,9","","","999,M,-0072,1","99999,9,09973,1","2,1,016,1,+999,9","86,1","","SYN088AAXX  07121 31725 11494 80601 11091 21111 39973 40041 52016 60010 78683 883// 333 11072;",
"31725099999","2000-03-07T15:00:00","4","48.6166666","133.8333333","52.0","SMIDOVICH, RS","FM-12","99999","V020","999,9,C,0000,1","00420,1,9,N","010000,1,N,1","-0096,1","-0108,1","10047,1","","","","8,1,03,1","2,1,03,1","","","08,99,1,08,1,03,1,00450,1,99,9,99,9","","","","","2,1,006,1,+999,9","85,1","","SYN066AAXX  07151 31725 41497 80000 11096 21108 40047 52006 78582 883//;",
"31725099999","2000-03-07T18:00:00","4","48.6166666","133.8333333","52.0","SMIDOVICH, RS","FM-12","99999","V020","999,9,C,0000,1","00420,1,9,N","001000,1,N,1","-0108,1","-0121,1","10054,1","","","","8,1,06,1","2,1,06,1","","","08,99,1,08,1,03,1,00450,1,99,9,99,9","","","","","2,1,007,1,+999,9","86,1","","SYN066AAXX  07181 31725 41494 80000 11108 21121 40054 52007 78682 883//;",
"31725099999","2000-03-07T21:00:00","4","48.6166666","133.8333333","52.0","SMIDOVICH, RS","FM-12","99999","V020","999,9,C,0000,1","00420,1,9,N","010000,1,N,1","-0122,1","-0135,1","10058,1","","","","8,1,03,1","2,1,03,1","","","08,99,1,08,1,03,1,00450,1,99,9,99,9","","","","","2,1,003,1,+999,9","85,1","","SYN066AAXX  07211 31725 /1497 80000 11122 21135 40058 52003 78582 883//;",
"31725099999","2000-03-08T00:00:00","4","48.6166666","133.8333333","52.0","SMIDOVICH, RS","FM-12","99999","V020","999,9,C,0000,1","00420,1,9,N","010000,1,N,1","-0130,1","-0150,1","10077,1","00,0030,9,1","0019,9,1,999999,9,9","","8,1,06,1","2,1,06,1","","","06,99,1,06,1,03,1,00450,1,00,1,00,1","24,9","","120,N,-0132,1","99999,9,10008,1","2,1,019,1,+999,9","85,1","","SYN094AAXX  08001 31725 11497 60000 11130 21150 30008 40077 52019 60030 78582 86300 333 21132 48019;",
"31725099999","2000-03-08T03:00:00","4","48.6166666","133.8333333","52.0","SMIDOVICH, RS","FM-12","99999","V020","200,1,N,0010,1","00750,1,9,N","020000,1,N,1","-0104,1","-0140,1","10070,1","","","","8,1,03,1","2,1,03,1","","","08,99,1,06,1,03,1,00800,1,00,1,02,1","","","","","8,1,006,1,+999,9","26,1","","SYN066AAXX  08031 31725 41598 82001 11104 21140 40070 58006 72682 86302;",
"31725099999","2000-03-08T06:00:00","4","48.6166666","133.8333333","52.0","SMIDOVICH, RS","FM-12","99999","V020","200,1,N,0020,1","99999,9,9,N","010000,1,N,1","-0113,1","-0148,1","10075,1","","","","2,1,06,1","2,1,06,1","","","08,99,1,08,1,03,1,99999,9,99,9,99,9","","","","","3,1,005,1,+999,9","85,1","","SYN066AAXX  08061 31725 41997 82002 11113 21148 40075 53005 78522 883//;",
"31725099999","2000-03-08T09:00:00","4","48.6166666","133.8333333","52.0","SMIDOVICH, RS","FM-12","99999","V020","999,9,C,0000,1","99999,9,9,N","020000,1,N,1","-0143,1","-0178,1","10083,1","","","","8,1,03,1","2,1,03,1","","","06,99,1,03,1,00,1,99999,9,04,1,02,1","","","999,M,-0096,1","","2,1,006,1,+999,9","01,1","","SYN076AAXX  08091 31725 /1998 60000 11143 21178 40083 52006 70182 83042 333 11096;",
"31725099999","2000-03-08T12:00:00","4","48.6166666","133.8333333","52.0","SMIDOVICH, RS","FM-12","99999","V020","999,9,C,0000,1","99999,9,9,N","020000,1,N,1","-0168,1","-0218,1","10095,1","00,0005,9,1","","","","","","","05,99,1,02,1,00,1,99999,9,04,1,02,1","","","999,M,-0096,1","99999,9,10024,1","2,1,011,1,+999,9","","","SYN082AAXX  08121 31725 12998 50000 11168 21218 30024 40095 52011 69950 82042 333 11096;",
"31725099999","2000-03-08T15:00:00","4","48.6166666","133.8333333","52.0","SMIDOVICH, RS","FM-12","99999","V020","999,9,C,0000,1","99999,9,9,N","020000,1,N,1","-0189,1","-0222,1","10099,1","","","","","","","","05,99,1,02,1,00,1,99999,9,04,1,02,1","","","","","2,1,003,1,+999,9","","","SYN060AAXX  08151 31725 42998 50000 11189 21222 40099 52003 82042;",
"31725099999","2000-03-08T18:00:00","4","48.6166666","133.8333333","52.0","SMIDOVICH, RS","FM-12","99999","V020","999,9,C,0000,1","00420,1,9,N","010000,1,N,1","-0184,1","-0203,1","10102,1","","","","8,1,06,1","2,1,06,1","","","08,99,1,08,1,03,1,00450,1,99,9,99,9","","","","","2,1,004,1,+999,9","85,1","","SYN066AAXX  08181 31725 41497 80000 11184 21203 40102 52004 78582 883//;",
"31725099999","2000-03-08T21:00:00","4","48.6166666","133.8333333","52.0","SMIDOVICH, RS","FM-12","99999","V020","999,9,C,0000,1","00420,1,9,N","020000,1,N,1","-0186,1","-0205,1","10111,1","","","","8,1,03,1","2,1,03,1","","","08,99,1,08,1,03,1,00450,1,99,9,99,9","","","","","2,1,008,1,+999,9","26,1","","SYN066AAXX  08211 31725 /1498 80000 11186 21205 40111 52008 72682 883//;",
"31725099999","2000-03-09T00:00:00","4","48.6166666","133.8333333","52.0","SMIDOVICH, RS","FM-12","99999","V020","230,1,N,0010,1","99999,9,9,N","010000,1,N,1","-0170,1","-0196,1","10127,1","00,0007,9,1","0018,9,1,999999,9,9","","7,1,06,1","7,1,06,1","","","08,99,1,00,1,00,1,99999,9,00,1,07,1","24,9","","120,N,-0214,1","99999,9,10056,1","2,1,017,1,+999,9","71,1","","SYN094AAXX  09001 31725 11997 82301 11170 21196 30056 40127 52017 69900 77177 80007 333 21214 48018;",
"31725099999","2000-03-09T03:00:00","4","48.6166666","133.8333333","52.0","SMIDOVICH, RS","FM-12","99999","V020","230,1,N,0010,1","99999,9,9,N","020000,1,N,1","-0131,1","-0174,1","10135,1","","","","7,1,03,1","2,1,03,1","","","08,99,1,00,1,00,1,99999,9,00,1,02,1","","","","","2,1,009,1,+999,9","22,1","","SYN066AAXX  09031 31725 41998 82301 11131 21174 40135 52009 72272 80002;",
"31725099999","2000-03-09T06:00:00","4","48.6166666","133.8333333","52.0","SMIDOVICH, RS","FM-12","99999","V020","230,1,N,0030,1","22000,1,9,N","020000,1,N,1","-0120,1","-0192,1","10131,1","","","","7,1,06,1","1,1,06,1","","","02,99,1,00,1,00,1,99999,9,00,1,02,1","","","","","8,1,004,1,+999,9","01,1","","SYN066AAXX  09061 31725 41998 22303 11120 21192 40131 58004 70171 80002;",
"31725099999","2000-03-09T09:00:00","4","48.6166666","133.8333333","52.0","SMIDOVICH, RS","FM-12","99999","V020","230,1,N,0030,1","99999,9,9,N","020000,1,N,1","-0138,1","-0220,1","10130,1","","","","","","","","08,99,1,00,1,00,1,99999,9,00,1,02,1","","","999,M,-0116,1","","6,1,001,1,+999,9","","","SYN070AAXX  09091 31725 /2998 82303 11138 21220 40130 56001 80002 333 11116;",
"31725099999","2000-03-09T12:00:00","4","48.6166666","133.8333333","52.0","SMIDOVICH, RS","FM-12","99999","V020","230,1,N,0010,1","22000,1,9,N","020000,1,N,1","-0161,1","-0241,1","10139,1","00,0007,9,1","","","","","","00,1,+99999,9,99,9","00,99,1,00,1,00,1,99999,9,00,1,00,1","","","999,M,-0116,1","99999,9,10068,1","3,1,008,1,+999,9","","","SYN076AAXX  09121 31725 12998 02301 11161 21241 30068 40139 53008 69900 333 11116;",
"31725099999","2000-03-09T15:00:00","4","48.6166666","133.8333333","52.0","SMIDOVICH, RS","FM-12","99999","V020","230,1,N,0020,1","22000,1,9,N","020000,1,N,1","-0188,1","-0266,1","10144,1","","","","","","","00,1,+99999,9,99,9","00,99,1,00,1,00,1,99999,9,00,1,00,1","","","","","2,1,004,1,+999,9","","","SYN054AAXX  09151 31725 42998 02302 11188 21266 40144 52004;",
"31725099999","2000-03-09T18:00:00","4","48.6166666","133.8333333","52.0","SMIDOVICH, RS","FM-12","99999","V020","230,1,N,0020,1","22000,1,9,N","020000,1,N,1","-0196,1","-0274,1","10141,1","","","","","","","00,1,+99999,9,99,9","00,99,1,00,1,00,1,99999,9,00,1,00,1","","","","","8,1,003,1,+999,9","","","SYN054AAXX  09181 31725 42998 02302 11196 21274 40141 58003;",
"31725099999","2000-03-09T21:00:00","4","48.6166666","133.8333333","52.0","SMIDOVICH, RS","FM-12","99999","V020","230,1,N,0020,1","99999,9,9,N","050000,1,N,1","-0205,1","-0272,1","10137,1","99,0000,9,1","","","","","","","08,99,1,03,1,00,1,99999,9,04,1,02,1","","","","","7,1,004,1,+999,9","","","SYN060AAXX  09211 31725 32999 82302 11205 21272 40137 57004 83042;","Q01  00002PRCP99"
"31725099999","2000-03-10T00:00:00","4","48.6166666","133.8333333","52.0","SMIDOVICH, RS","FM-12","99999","V020","230,1,N,0020,1","22000,1,9,N","020000,1,N,1","-0186,1","-0254,1","10130,1","99,0000,9,1","0018,9,1,999999,9,9","","","","","","03,99,1,01,1,00,1,99999,9,04,1,02,1","24,9","","120,N,-0241,1","99999,9,10058,1","7,1,007,1,+999,9","","","SYN082AAXX  10001 31725 32998 32302 11186 21254 30058 40130 57007 81042 333 21241 48018;","Q01  00002PRCP99"
"31725099999","2000-03-10T03:00:00","4","48.6166666","133.8333333","52.0","SMIDOVICH, RS","FM-12","99999","V020","230,1,N,0030,1","99999,9,9,N","020000,1,N,1","-0140,1","-0222,1","10116,1","","","","","","","","08,99,1,05,1,00,1,99999,9,04,1,04,1","","","","","7,1,012,1,+999,9","","","SYN060AAXX  10031 31725 42998 82303 11140 21222 40116 57012 85044;",
"31725099999","2000-03-10T06:00:00","4","48.6166666","133.8333333","52.0","SMIDOVICH, RS","FM-12","99999","V020","230,1,N,0030,1","03600,1,9,N","020000,1,N,1","-0104,1","-0188,1","10099,1","","","","","","","","08,99,1,02,1,05,1,00800,1,04,1,02,1","","","","","7,1,015,1,+999,9","","","SYN060AAXX  10061 31725 42598 82303 11104 21188 40099 57015 82542;",
"31725099999","2000-03-10T09:00:00","4","48.6166666","133.8333333","52.0","SMIDOVICH, RS","FM-12","99999","V020","230,1,N,0010,1","00750,1,9,N","020000,1,N,1","-0105,1","-0178,1","10091,1","99,0000,9,1","","","","","","","06,99,1,06,1,05,1,00800,1,04,1,00,1","","","999,M,-0101,1","","7,1,008,1,+999,9","","","SYN070AAXX  10091 31725 32598 62301 11105 21178 40091 57008 86540 333 11101;","Q01  00002PRCP99"
"31725099999","2000-03-10T12:00:00","4","48.6166666","133.8333333","52.0","SMIDOVICH, RS","FM-12","99999","V020","290,1,N,0010,1","22000,1,9,N","020000,1,N,1","-0119,1","-0202,1","10093,1","99,0000,9,1","","","","","","","01,99,1,01,1,00,1,99999,9,04,1,00,1","","","999,M,-0101,1","99999,9,10024,1","3,1,001,1,+999,9","","","SYN076AAXX  10121 31725 32998 12901 11119 21202 30024 40093 53001 81040 333 11101;","Q01  00002PRCP99"
"31725099999","2000-03-10T15:00:00","4","48.6166666","133.8333333","52.0","SMIDOVICH, RS","FM-12","99999","V020","270,1,N,0010,1","22000,1,9,N","020000,1,N,1","-0136,1","-0243,1","10093,1","","","","","","","00,1,+99999,9,99,9","00,99,1,00,1,00,1,99999,9,00,1,00,1","","","","","8,1,001,1,+999,9","","","SYN054AAXX  10151 31725 42998 02701 11136 21243 40093 58001;",
"31725099999","2000-03-10T18:00:00","4","48.6166666","133.8333333","52.0","SMIDOVICH, RS","FM-12","99999","V020","270,1,N,0010,1","22000,1,9,N","020000,1,N,1","-0144,1","-0251,1","10101,1","","","","","","","00,1,+99999,9,99,9","00,99,1,00,1,00,1,99999,9,00,1,00,1","","","","","3,1,008,1,+999,9","","","SYN054AAXX  10181 31725 42998 02701 11144 21251 40101 53008;",
"31725099999","2000-03-10T21:00:00","4","48.6166666","133.8333333","52.0","SMIDOVICH, RS","FM-12","99999","V020","999,9,C,0000,1","99999,9,9,N","050000,1,N,1","-0236,1","-0292,1","10108,1","99,0000,9,1","","","","","","","08,99,1,02,1,00,1,99999,9,04,1,02,1","","","","","2,1,004,1,+999,9","","","SYN060AAXX  10211 31725 32999 80000 11236 21292 40108 52004 82042;","Q01  00002PRCP99"
"31725099999","2000-03-11T00:00:00","4","48.6166666","133.8333333","52.0","SMIDOVICH, RS","FM-12","99999","V020","270,1,N,0010,1","22000,1,9,N","050000,1,N,1","-0161,1","-0241,1","10103,1","99,0000,9,1","0016,9,1,999999,9,9","","","","","","02,99,1,02,1,00,1,99999,9,04,1,02,1","24,9","","120,N,-0236,1","99999,9,10033,1","8,1,002,1,+999,9","","","SYN082AAXX  11001 31725 32999 22701 11161 21241 30033 40103 58002 82042 333 21236 48016;","Q01  00002PRCP99"
"31725099999","2000-03-11T03:00:00","4","48.6166666","133.8333333","52.0","SMIDOVICH, RS","FM-12","99999","V020","250,1,N,0030,1","22000,1,9,N","050000,1,N,1","-0094,1","-0192,1","10097,1","","","","","","","00,1,+99999,9,99,9","00,99,1,00,1,00,1,99999,9,00,1,00,1","","","","","7,1,004,1,+999,9","","","SYN054AAXX  11031 31725 42999 02503 11094 21192 40097 57004;",
"31725099999","2000-03-11T06:00:00","4","48.6166666","133.8333333","52.0","SMIDOVICH, RS","FM-12","99999","V020","230,1,N,0020,1","99999,9,9,N","050000,1,N,1","-0065,1","-0167,1","10087,1","","","","","","","","05,99,1,02,1,00,1,99999,9,04,1,02,1","","","","","7,1,010,1,+999,9","","","SYN060AAXX  11061 31725 42999 52302 11065 21167 40087 57010 82042;",
"31725099999","2000-03-11T09:00:00","4","48.6166666","133.8333333","52.0","SMIDOVICH, RS","FM-12","99999","V020","230,1,N,0030,1","22000,1,9,N","050000,1,N,1","-0091,1","-0194,1","10080,1","99,0000,9,1","","","","","","","03,99,1,02,1,04,1,00800,1,04,1,00,1","","","999,M,-0062,1","","7,1,007,1,+999,9","","","SYN070AAXX  11091 31725 32599 32303 11091 21194 40080 57007 82440 333 11062;","Q01  00002PRCP99"
"31725099999","2000-03-11T12:00:00","4","48.6166666","133.8333333","52.0","SMIDOVICH, RS","FM-12","99999","V020","270,1,N,0020,1","22000,1,9,N","020000,1,N,1","-0112,1","-0208,1","10085,1","99,0000,9,1","","","","","","","03,99,1,02,1,04,1,00800,1,04,1,00,1","","","999,M,-0062,1","99999,9,10017,1","3,1,005,1,+999,9","","","SYN076AAXX  11121 31725 32598 32702 11112 21208 30017 40085 53005 82440 333 11062;","Q01  00002PRCP99"
"31725099999","2000-03-11T15:00:00","4","48.6166666","133.8333333","52.0","SMIDOVICH, RS","FM-12","99999","V020","270,1,N,0010,1","22000,1,9,N","020000,1,N,1","-0134,1","-0228,1","10091,1","","","","","","","00,1,+99999,9,99,9","00,99,1,00,1,00,1,99999,9,00,1,00,1","","","","","2,1,005,1,+999,9","","","SYN054AAXX  11151 31725 42998 02701 11134 21228 40091 52005;",
"31725099999","2000-03-11T21:00:00","4","48.6166666","133.8333333","52.0","SMIDOVICH, RS","FM-12","99999","V020","270,1,N,0020,1","22000,1,9,N","050000,1,N,1","-0169,1","-0249,1","10093,1","99,0000,9,1","","","","","","00,1,+99999,9,99,9","00,99,1,00,1,00,1,99999,9,00,1,00,1","","","","","4,1,000,1,+999,9","","","SYN054AAXX  11211 31725 32999 02702 11169 21249 40093 54000;","Q01  00002PRCP99"
"31725099999","2000-03-12T00:00:00","4","48.6166666","133.8333333","52.0","SMIDOVICH, RS","FM-12","99999","V020","270,1,N,0020,1","22000,1,9,N","050000,1,N,1","-0138,1","-0232,1","10095,1","99,0000,9,1","0016,9,1,999999,9,9","","","","","00,1,+99999,9,99,9","00,99,1,00,1,00,1,99999,9,00,1,00,1","24,9","","120,N,-0175,1","99999,9,10025,1","3,1,003,1,+999,9","","","SYN076AAXX  12001 31725 32999 02702 11138 21232 30025 40095 53003 333 21175 48016;","Q01  00002PRCP99"
"31725099999","2000-03-12T03:00:00","4","48.6166666","133.8333333","52.0","SMIDOVICH, RS","FM-12","99999","V020","999,9,9,9999,9","99999,9,9,N","050000,1,N,1","-0096,1","-0204,1","10097,1","","","","","","","","06,99,1,00,1,00,1,99999,9,00,1,02,1","","","","","2,1,004,1,+999,9","","","SYN060AAXX  12031 31725 42999 63901 11096 21204 40097 52004 80002;",
"31725099999","2000-03-12T06:00:00","4","48.6166666","133.8333333","52.0","SMIDOVICH, RS","FM-12","99999","V020","200,1,N,0010,1","22000,1,9,N","020000,1,N,1","-0085,1","-0199,1","10099,1","","","","","","","","03,99,1,00,1,00,1,99999,9,00,1,02,1","","","","","1,1,002,1,+999,9","","","SYN060AAXX  12061 31725 42998 32001 11085 21199 40099 51002 80002;",
"31725099999","2000-03-12T09:00:00","4","48.6166666","133.8333333","52.0","SMIDOVICH, RS","FM-12","99999","V020","200,1,N,0010,1","22000,1,9,N","050000,1,N,1","-0114,1","-0210,1","10114,1","99,0000,9,1","","","","","","","02,99,1,00,1,00,1,99999,9,00,1,02,1","","","999,M,-0065,1","","3,1,015,1,+999,9","","","SYN070AAXX  12091 31725 32999 22001 11114 21210 40114 53015 80002 333 11065;","Q01  00002PRCP99"
"31725099999","2000-03-12T12:00:00","4","48.6166666","133.8333333","52.0","SMIDOVICH, RS","FM-12","99999","V020","230,1,N,0010,1","22000,1,9,N","050000,1,N,1","-0170,1","-0220,1","10129,1","99,0000,9,1","","","","","","","02,99,1,00,1,00,1,99999,9,00,1,02,1","","","999,M,-0065,1","99999,9,10058,1","2,1,012,1,+999,9","","","SYN076AAXX  12121 31725 32999 22301 11170 21220 30058 40129 52012 80002 333 11065;","Q01  00002PRCP99"
"31725099999","2000-03-12T15:00:00","4","48.6166666","133.8333333","52.0","SMIDOVICH, RS","FM-12","99999","V020","999,9,C,0000,1","22000,1,9,N","050000,1,N,1","-0182,1","-0272,1","10130,1","","","","","","","00,1,+99999,9,99,9","00,99,1,00,1,00,1,99999,9,00,1,00,1","","","","","1,1,001,1,+999,9","","","SYN054AAXX  12151 31725 42999 00000 11182 21272 40130 51001;",
"31725099999","2000-03-12T18:00:00","4","48.6166666","133.8333333","52.0","SMIDOVICH, RS","FM-12","99999","V020","320,1,N,0010,1","22000,1,9,N","050000,1,N,1","-0162,1","-0242,1","10131,1","","","","","","","00,1,+99999,9,99,9","00,99,1,00,1,00,1,99999,9,00,1,00,1","","","","","1,1,001,1,+999,9","","","SYN054AAXX  12181 31725 42999 03201 11162 21242 40131 51001;",
"31725099999","2000-03-12T21:00:00","4","48.6166666","133.8333333","52.0","SMIDOVICH, RS","FM-12","99999","V020","999,9,C,0000,1","22000,1,9,N","050000,1,N,1","-0265,1","-0312,1","10136,1","99,0000,9,1","","","","","","00,1,+99999,9,99,9","00,99,1,00,1,00,1,99999,9,00,1,00,1","","","","","1,1,002,1,+999,9","","","SYN054AAXX  12211 31725 32999 00000 11265 21312 40136 51002;","Q01  00002PRCP99"
"31725099999","2000-03-13T00:00:00","4","48.6166666","133.8333333","52.0","SMIDOVICH, RS","FM-12","99999","V020","230,1,N,0020,1","22000,1,9,N","050000,1,N,1","-0146,1","-0227,1","10141,1","99,0000,9,1","0013,9,1,999999,9,9","","","","","00,1,+99999,9,99,9","00,99,1,00,1,00,1,99999,9,00,1,00,1","24,9","","120,N,-0278,1","99999,9,10070,1","3,1,008,1,+999,9","","","SYN076AAXX  13001 31725 32999 02302 11146 21227 30070 40141 53008 333 21278 48013;","Q01  00002PRCP99"
"31725099999","2000-03-13T03:00:00","4","48.6166666","133.8333333","52.0","SMIDOVICH, RS","FM-12","99999","V020","230,1,N,0030,1","22000,1,9,N","050000,1,N,1","-0105,1","-0301,1","10134,1","","","","","","","00,1,+99999,9,99,9","00,99,1,00,1,00,1,99999,9,00,1,00,1","","","","","8,1,005,1,+999,9","","","SYN054AAXX  13031 31725 42999 02303 11105 21301 40134 58005;",
"31725099999","2000-03-13T09:00:00","4","48.6166666","133.8333333","52.0","SMIDOVICH, RS","FM-12","99999","V020","230,1,N,0020,1","99999,9,9,N","050000,1,N,1","-0081,1","-0155,1","10135,1","99,0000,9,1","","","","","","","07,99,1,07,1,00,1,99999,9,04,1,99,9","","","999,M,-0055,1","","3,1,005,1,+999,9","","","SYN070AAXX  13091 31725 32999 72302 11081 21155 40135 53005 8704/ 333 11055;","Q01  00002PRCP99"
"31725099999","2000-03-13T12:00:00","4","48.6166666","133.8333333","52.0","SMIDOVICH, RS","FM-12","99999","V020","230,1,N,0020,1","99999,9,9,N","050000,1,N,1","-0100,1","-0173,1","10145,1","99,0000,9,1","","","","","","","05,99,1,05,1,00,1,99999,9,04,1,02,1","","","999,M,-0055,1","99999,9,10076,1","2,1,010,1,+999,9","","","SYN076AAXX  13121 31725 32999 52302 11100 21173 30076 40145 52010 85042 333 11055;","Q01  00002PRCP99"
"31725099999","2000-03-13T15:00:00","4","48.6166666","133.8333333","52.0","SMIDOVICH, RS","FM-12","99999","V020","999,9,C,0000,1","22000,1,9,N","050000,1,N,1","-0137,1","-0208,1","10152,1","","","","","","","","03,99,1,99,9,99,9,99999,9,99,9,99,9","","","","","2,1,006,1,+999,9","","","SYN054AAXX  13151 31725 42999 30000 11137 21208 40152 52006;",
"31725099999","2000-03-13T18:00:00","4","48.6166666","133.8333333","52.0","SMIDOVICH, RS","FM-12","99999","V020","999,9,C,0000,1","22000,1,9,N","050000,1,N,1","-0155,1","-0197,1","10158,1","","","","","","","00,1,+99999,9,99,9","00,99,1,00,1,00,1,99999,9,00,1,00,1","","","","","2,1,005,1,+999,9","","","SYN054AAXX  13181 31725 42999 00000 11155 21197 40158 52005;",
"31725099999","2000-03-13T21:00:00","4","48.6166666","133.8333333","52.0","SMIDOVICH, RS","FM-12","99999","V020","999,9,C,0000,1","22000,1,9,N","050000,1,N,1","-0220,1","-0252,1","10166,1","99,0000,9,1","","","","","","00,1,+99999,9,99,9","00,99,1,00,1,00,1,99999,9,00,1,00,1","","","","","2,1,006,1,+999,9","","","SYN054AAXX  13211 31725 32999 00000 11220 21252 40166 52006;","Q01  00002PRCP99"
"31725099999","2000-03-14T00:00:00","4","48.6166666","133.8333333","52.0","SMIDOVICH, RS","FM-12","99999","V020","999,9,C,0000,1","99999,9,9,N","020000,1,N,1","-0154,1","-0205,1","10174,1","99,0000,9,1","0015,9,1,999999,9,9","","","","","","08,99,1,02,1,00,1,99999,9,04,1,02,1","24,9","","","99999,9,10103,1","2,1,010,1,+999,9","","","SYN076AAXX  14001 31725 32998 80000 11154 21205 30103 40174 52010 82042 333 48015;","Q01  00002PRCP99"
"31725099999","2000-03-14T03:00:00","4","48.6166666","133.8333333","52.0","SMIDOVICH, RS","FM-12","99999","V020","200,1,N,0010,1","99999,9,9,N","020000,1,N,1","-0084,1","-0154,1","10166,1","","","","","","","","08,99,1,02,1,00,1,99999,9,04,1,02,1","","","","","8,1,006,1,+999,9","","","SYN060AAXX  14031 31725 42998 82001 11084 21154 40166 58006 82042;",
"31725099999","2000-03-14T06:00:00","4","48.6166666","133.8333333","52.0","SMIDOVICH, RS","FM-12","99999","V020","200,1,N,0030,1","99999,9,9,N","020000,1,N,1","-0055,1","-0131,1","10153,1","","","","","","","","08,99,1,03,1,00,1,99999,9,04,1,04,1","","","","","7,1,013,1,+999,9","","","SYN060AAXX  14061 31725 42998 82003 11055 21131 40153 57013 83044;",
"31725099999","2000-03-14T09:00:00","4","48.6166666","133.8333333","52.0","SMIDOVICH, RS","FM-12","99999","V020","200,1,N,0010,1","99999,9,9,N","020000,1,N,1","-0081,1","-0149,1","10142,1","99,0000,9,1","","","","","","","07,99,1,02,1,00,1,99999,9,04,1,01,1","","","999,M,-0047,1","","7,1,011,1,+999,9","","","SYN070AAXX  14091 31725 32998 72001 11081 21149 40142 57011 82041 333 11047;","Q01  00002PRCP99"
"31725099999","2000-03-14T12:00:00","4","48.6166666","133.8333333","52.0","SMIDOVICH, RS","FM-12","99999","V020","230,1,N,0020,1","99999,9,9,N","020000,1,N,1","-0130,1","-0182,1","10144,1","99,0000,9,1","","","","","","","08,99,1,02,1,00,1,99999,9,04,1,02,1","","","999,M,-0047,1","99999,9,10074,1","3,1,001,1,+999,9","","","SYN076AAXX  14121 31725 32998 82302 11130 21182 30074 40144 53001 82042 333 11047;","Q01  00002PRCP99"
"31725099999","2000-03-14T15:00:00","4","48.6166666","133.8333333","52.0","SMIDOVICH, RS","FM-12","99999","V020","230,1,N,0010,1","22000,1,9,N","050000,1,N,1","-0119,1","-0171,1","10137,1","","","","","","","","01,99,1,01,1,00,1,99999,9,04,1,00,1","","","","","8,1,007,1,+999,9","","","SYN060AAXX  14151 31725 42999 12301 11119 21171 40137 58007 81040;",
"31725099999","2000-03-14T18:00:00","4","48.6166666","133.8333333","52.0","SMIDOVICH, RS","FM-12","99999","V020","999,9,C,0000,1","22000,1,9,N","050000,1,N,1","-0180,1","-0214,1","10133,1","","","","","","","00,1,+99999,9,99,9","00,99,1,00,1,00,1,99999,9,00,1,00,1","","","","","7,1,005,1,+999,9","","","SYN054AAXX  14181 31725 42999 00000 11180 21214 40133 57005;",
"31725099999","2000-03-14T21:00:00","4","48.6166666","133.8333333","52.0","SMIDOVICH, RS","FM-12","99999","V020","999,9,C,0000,1","22000,1,9,N","050000,1,N,1","-0132,1","-0184,1","10130,1","99,0000,9,1","","","","","","00,1,+99999,9,99,9","00,99,1,00,1,00,1,99999,9,00,1,00,1","","","","","6,1,002,1,+999,9","","","SYN054AAXX  14211 31725 32999 00000 11132 21184 40130 56002;","Q01  00002PRCP99"
"31725099999","2000-03-15T00:00:00","4","48.6166666","133.8333333","52.0","SMIDOVICH, RS","FM-12","99999","V020","180,1,N,0010,1","22000,1,9,N","020000,1,N,1","-0113,1","-0166,1","10138,1","99,0000,9,1","0013,9,1,999999,9,9","","","","","00,1,+99999,9,99,9","00,99,1,00,1,00,1,99999,9,00,1,00,1","28,9","","120,N,-0194,1","99999,9,10069,1","3,1,009,1,+999,9","","","SYN076AAXX  15001 31725 32998 01801 11113 21166 30069 40138 53009 333 21194 44013;","Q01  00002PRCP99"
"31725099999","2000-03-15T03:00:00","4","48.6166666","133.8333333","52.0","SMIDOVICH, RS","FM-12","99999","V020","230,1,N,0030,1","22000,1,9,N","020000,1,N,1","-0054,1","-0124,1","10139,1","","","","","","","00,1,+99999,9,99,9","00,99,1,00,1,00,1,99999,9,00,1,00,1","","","","","1,1,001,1,+999,9","","","SYN054AAXX  15031 31725 42998 02303 11054 21124 40139 51001;",
"31725099999","2000-03-15T06:00:00","4","48.6166666","133.8333333","52.0","SMIDOVICH, RS","FM-12","99999","V020","230,1,N,0030,1","22000,1,9,N","020000,1,N,1","-0029,1","-0115,1","10134,1","","","","","","","00,1,+99999,9,99,9","00,99,1,00,1,00,1,99999,9,00,1,00,1","","","","","8,1,004,1,+999,9","","","SYN054AAXX  15061 31725 42998 02303 11029 21115 40134 58004;",
"31725099999","2000-03-15T09:00:00","4","48.6166666","133.8333333","52.0","SMIDOVICH, RS","FM-12","99999","V020","180,1,N,0020,1","22000,1,9,N","050000,1,N,1","-0082,1","-0163,1","10137,1","99,0000,9,1","","","","","","","02,99,1,02,1,00,1,99999,9,04,1,00,1","","","999,M,-0028,1","","3,1,002,1,+999,9","","","SYN070AAXX  15091 31725 32999 21802 11082 21163 40137 53002 82040 333 11028;","Q01  00002PRCP99"
"31725099999","2000-03-15T12:00:00","4","48.6166666","133.8333333","52.0","SMIDOVICH, RS","FM-12","99999","V020","270,1,N,0010,1","22000,1,9,N","050000,1,N,1","-0093,1","-0162,1","10140,1","99,0000,9,1","","","","","","","02,99,1,02,1,00,1,99999,9,04,1,00,1","","","999,M,-0028,1","99999,9,10071,1","2,1,003,1,+999,9","","","SYN076AAXX  15121 31725 32999 22701 11093 21162 30071 40140 52003 82040 333 11028;","Q01  00002PRCP99"
"31725099999","2000-03-15T15:00:00","4","48.6166666","133.8333333","52.0","SMIDOVICH, RS","FM-12","99999","V020","999,9,C,0000,1","22000,1,9,N","050000,1,N,1","-0145,1","-0188,1","10139,1","","","","","","","00,1,+99999,9,99,9","00,99,1,00,1,00,1,99999,9,00,1,00,1","","","","","8,1,003,1,+999,9","","","SYN054AAXX  15151 31725 42999 00000 11145 21188 40139 58003;",
"31725099999","2000-03-15T18:00:00","4","48.6166666","133.8333333","52.0","SMIDOVICH, RS","FM-12","99999","V020","999,9,C,0000,1","22000,1,9,N","050000,1,N,1","-0181,1","-0193,1","10139,1","","","","","","","00,1,+99999,9,99,9","00,99,1,00,1,00,1,99999,9,00,1,00,1","","","","","4,1,000,1,+999,9","","","SYN054AAXX  15181 31725 42999 00000 11181 21193 40139 54000;",
"31725099999","2000-03-15T21:00:00","4","48.6166666","133.8333333","52.0","SMIDOVICH, RS","FM-12","99999","V020","999,9,C,0000,1","22000,1,9,N","010000,1,N,1","-0188,1","-0194,1","10134,1","99,0000,9,1","","","0,1,03,1","0,1,03,1","","00,1,+99999,9,99,9","00,99,1,00,1,00,1,99999,9,00,1,00,1","","","","","8,1,006,1,+999,9","10,1","","SYN060AAXX  15211 31725 31997 00000 11188 21194 40134 58006 71000;","Q01  00002PRCP99"
"31725099999","2000-03-16T00:00:00","4","48.6166666","133.8333333","52.0","SMIDOVICH, RS","FM-12","99999","V020","999,9,C,0000,1","22000,1,9,N","020000,1,N,1","-0138,1","-0151,1","10136,1","99,0000,9,1","0010,9,1,999999,9,9","","","","","00,1,+99999,9,99,9","00,99,1,00,1,00,1,99999,9,00,1,00,1","24,9","","120,N,-0195,1","99999,9,10066,1","3,1,004,1,+999,9","","","SYN076AAXX  16001 31725 32998 00000 11138 21151 30066 40136 53004 333 21195 48010;","Q01  00002PRCP99"
"31725099999","2000-03-16T03:00:00","4","48.6166666","133.8333333","52.0","SMIDOVICH, RS","FM-12","99999","V020","999,9,C,0000,1","22000,1,9,N","020000,1,N,1","-0068,1","-0135,1","10129,1","","","","","","","00,1,+99999,9,99,9","00,99,1,00,1,00,1,99999,9,00,1,00,1","","","","","8,1,006,1,+999,9","","","SYN054AAXX  16031 31725 42998 00000 11068 21135 40129 58006;",
"31725099999","2000-03-16T06:00:00","4","48.6166666","133.8333333","52.0","SMIDOVICH, RS","FM-12","99999","V020","999,9,C,0000,1","22000,1,9,N","020000,1,N,1","-0038,1","-0110,1","10111,1","","","","","","","00,1,+99999,9,99,9","00,99,1,00,1,00,1,99999,9,00,1,00,1","","","","","7,1,016,1,+999,9","","","SYN054AAXX  16061 31725 42998 00000 11038 21110 40111 57016;",
"31725099999","2000-03-16T09:00:00","4","48.6166666","133.8333333","52.0","SMIDOVICH, RS","FM-12","99999","V020","999,9,C,0000,1","22000,1,9,N","020000,1,N,1","-0057,1","-0119,1","10110,1","99,0000,9,1","","","","","","00,1,+99999,9,99,9","00,99,1,00,1,00,1,99999,9,00,1,00,1","","","999,M,-0034,1","","6,1,002,1,+999,9","","","SYN064AAXX  16091 31725 32998 00000 11057 21119 40110 56002 333 11034;","Q01  00002PRCP99"
"31725099999","2000-03-16T12:00:00","4","48.6166666","133.8333333","52.0","SMIDOVICH, RS","FM-12","99999","V020","999,9,C,0000,1","22000,1,9,N","020000,1,N,1","-0008,1","-0121,1","10112,1","99,0000,9,1","","","","","","00,1,+99999,9,99,9","00,99,1,00,1,00,1,99999,9,00,1,00,1","","","999,M,+9999,9","99999,9,10044,1","3,1,002,1,+999,9","","","SYN070AAXX  16121 31725 32998 00000 11008 21121 30044 40112 53002 333 11034;","Q01  00002PRCP99Q02 -00342ATMX  "
"31725099999","2000-03-16T15:00:00","4","48.6166666","133.8333333","52.0","SMIDOVICH, RS","FM-12","99999","V020","999,9,C,0000,1","22000,1,9,N","020000,1,N,1","-0124,1","-0137,1","10115,1","","","","","","","00,1,+99999,9,99,9","00,99,1,00,1,00,1,99999,9,00,1,00,1","","","","","1,1,002,1,+999,9","","","SYN054AAXX  16151 31725 42998 00000 11124 21137 40115 51002;",
"31725099999","2000-03-16T18:00:00","4","48.6166666","133.8333333","52.0","SMIDOVICH, RS","FM-12","99999","V020","290,1,N,0010,1","22000,1,9,N","020000,1,N,1","-0144,1","-0157,1","10116,1","","","","","","","","02,99,1,02,1,00,1,99999,9,04,1,00,1","","","","","4,1,000,1,+999,9","","","SYN060AAXX  16181 31725 42998 22901 11144 21157 40116 54000 82040;",
"31725099999","2000-03-16T21:00:00","4","48.6166666","133.8333333","52.0","SMIDOVICH, RS","FM-12","99999","V020","290,1,N,0010,1","22000,1,9,N","020000,1,N,1","-0150,1","-0163,1","10116,1","99,0000,9,1","","","","","","","02,99,1,02,1,00,1,99999,9,04,1,00,1","","","","","4,1,000,1,+999,9","","","SYN060AAXX  16211 31725 32998 22901 11150 21163 40116 54000 82040;","Q01  00002PRCP99"
"31725099999","2000-03-17T00:00:00","4","48.6166666","133.8333333","52.0","SMIDOVICH, RS","FM-12","99999","V020","999,9,C,0000,1","22000,1,9,N","050000,1,N,1","-0106,1","-0142,1","10126,1","99,0000,9,1","0010,9,1,999999,9,9","","","","","00,1,+99999,9,99,9","00,99,1,00,1,00,1,99999,9,00,1,00,1","24,9","","120,N,-0150,1","99999,9,10057,1","3,1,011,1,+999,9","","","SYN082AAXX  17001 31725 32999 00000 11106 21142 30057 40126 53011 82040 333 21150 48010;","Q01  00002PRCP99"
"31725099999","2000-03-17T03:00:00","4","48.6166666","133.8333333","52.0","SMIDOVICH, RS","FM-12","99999","V020","180,1,N,0010,1","22000,1,9,N","050000,1,N,1","-0065,1","-0120,1","10131,1","","","","","","","00,1,+99999,9,99,9","00,99,1,00,1,00,1,99999,9,00,1,00,1","","","","","2,1,005,1,+999,9","","","SYN054AAXX  17031 31725 42999 01801 11065 21120 40131 52005;",
"31725099999","2000-03-17T06:00:00","4","48.6166666","133.8333333","52.0","SMIDOVICH, RS","FM-12","99999","V020","200,1,N,0020,1","22000,1,9,N","050000,1,N,1","-0036,1","-0116,1","10128,1","","","","","","","00,1,+99999,9,99,9","00,99,1,00,1,00,1,99999,9,00,1,00,1","","","","","8,1,002,1,+999,9","","","SYN054AAXX  17061 31725 42999 02002 11036 21116 40128 58002;",
"31725099999","2000-03-17T09:00:00","4","48.6166666","133.8333333","52.0","SMIDOVICH, RS","FM-12","99999","V020","180,1,N,0010,1","22000,1,9,N","050000,1,N,1","-0057,1","-0124,1","10127,1","99,0000,9,1","","","","","","","02,99,1,00,1,00,1,99999,9,00,1,02,1","","","999,M,-0024,1","","6,1,002,1,+999,9","","","SYN070AAXX  17091 31725 32999 21801 11057 21124 40127 56002 80002 333 11024;","Q01  00002PRCP99"
"31725099999","2000-03-17T12:00:00","4","48.6166666","133.8333333","52.0","SMIDOVICH, RS","FM-12","99999","V020","999,9,C,0000,1","22000,1,9,N","050000,1,N,1","-0112,1","-0147,1","10135,1","99,0000,9,1","","","","","","00,1,+99999,9,99,9","00,99,1,00,1,00,1,99999,9,00,1,00,1","","","999,M,-0024,1","99999,9,10066,1","3,1,008,1,+999,9","","","SYN070AAXX  17121 31725 32999 00000 11112 21147 30066 40135 53008 333 11024;","Q01  00002PRCP99"
"31725099999","2000-03-17T15:00:00","4","48.6166666","133.8333333","52.0","SMIDOVICH, RS","FM-12","99999","V020","999,9,C,0000,1","22000,1,9,N","050000,1,N,1","-0137,1","-0172,1","10139,1","","","","","","","00,1,+99999,9,99,9","00,99,1,00,1,00,1,99999,9,00,1,00,1","","","","","2,1,003,1,+999,9","","","SYN054AAXX  17151 31725 42999 00000 11137 21172 40139 52003;",
"31725099999","2000-03-17T18:00:00","4","48.6166666","133.8333333","52.0","SMIDOVICH, RS","FM-12","99999","V020","999,9,C,0000,1","22000,1,9,N","004000,1,N,1","-0185,1","-0197,1","10136,1","","","","0,1,06,1","0,1,06,1","","00,1,+99999,9,99,9","00,99,1,00,1,00,1,99999,9,00,1,00,1","","","","","8,1,005,1,+999,9","10,1","","SYN060AAXX  17181 31725 41996 00000 11185 21197 40136 58005 71000;",
"31725099999","2000-03-17T21:00:00","4","48.6166666","133.8333333","52.0","SMIDOVICH, RS","FM-12","99999","V020","999,9,C,0000,1","22000,1,9,N","000200,1,N,1","-0190,1","-0202,1","10132,1","99,0000,9,1","","","4,1,03,1","0,1,03,1","","00,1,+99999,9,99,9","00,99,1,00,1,00,1,99999,9,00,1,00,1","","","","","7,1,004,1,+999,9","","","SYN060AAXX  17211 31725 31992 00000 11190 21202 40132 57004 77840;","Q01+000782PRSWM1Q02  00002PRCP99"
"31725099999","2000-03-18T00:00:00","4","48.6166666","133.8333333","52.0","SMIDOVICH, RS","FM-12","99999","V020","360,1,N,0010,1","22000,1,9,N","001000,1,N,1","-0138,1","-0151,1","10130,1","99,0000,9,1","0009,9,1,999999,9,9","","4,1,06,1","0,1,06,1","","","03,99,1,00,1,00,1,99999,9,00,1,02,1","28,9","","120,N,-0195,1","99999,9,10060,1","4,1,000,1,+999,9","48,1","","SYN088AAXX  18001 31725 31994 33601 11138 21151 30060 40130 54000 74840 80002 333 21195 44009;","Q01  00002PRCP99"
"31725099999","2000-03-18T03:00:00","4","48.6166666","133.8333333","52.0","SMIDOVICH, RS","FM-12","99999","V020","360,1,N,0010,1","22000,1,9,N","020000,1,N,1","-0049,1","-0112,1","10122,1","","","","","","","","02,99,1,00,1,00,1,99999,9,00,1,01,1","","","","","8,1,007,1,+999,9","","","SYN060AAXX  18031 31725 41998 23601 11049 21112 40122 58007 80001;",
"31725099999","2000-03-18T09:00:00","4","48.6166666","133.8333333","52.0","SMIDOVICH, RS","FM-12","99999","V020","230,1,N,0010,1","22000,1,9,N","020000,1,N,1","-0050,1","-0108,1","10118,1","99,0000,9,1","","","","","","","01,99,1,01,1,00,1,99999,9,04,1,00,1","","","999,M,-0012,1","","3,1,002,1,+999,9","","","SYN070AAXX  18091 31725 32998 12301 11050 21108 40118 53002 81040 333 11012;","Q01  00002PRCP99"
"31725099999","2000-03-18T12:00:00","4","48.6166666","133.8333333","52.0","SMIDOVICH, RS","FM-12","99999","V020","130,1,N,0010,1","22000,1,9,N","020000,1,N,1","-0098,1","-0134,1","10126,1","99,0000,9,1","","","","","","","02,99,1,99,9,00,1,99999,9,04,1,00,1","","","999,M,-0012,1","99999,9,10057,1","2,1,007,1,+999,9","","","SYN076AAXX  18121 31725 32998 21301 11098 21134 30057 40126 52007 83040 333 11012;","Q01+000032SCOTLCQ02  00002PRCP99"
"31725099999","2000-03-18T15:00:00","4","48.6166666","133.8333333","52.0","SMIDOVICH, RS","FM-12","99999","V020","230,1,N,0010,1","22000,1,9,N","020000,1,N,1","-0080,1","-0121,1","10130,1","","","","","","","","02,99,1,02,1,00,1,99999,9,04,1,00,1","","","","","2,1,004,1,+999,9","","","SYN060AAXX  18151 31725 42998 22301 11080 21121 40130 52004 82040;",
"31725099999","2000-03-18T18:00:00","4","48.6166666","133.8333333","52.0","SMIDOVICH, RS","FM-12","99999","V020","999,9,C,0000,1","22000,1,9,N","020000,1,N,1","-0116,1","-0136,1","10133,1","","","","","","","","02,99,1,02,1,00,1,99999,9,04,1,00,1","","","","","1,1,002,1,+999,9","","","SYN060AAXX  18181 31725 42998 20000 11116 21136 40133 51002 82040;",
"31725099999","2000-03-18T21:00:00","4","48.6166666","133.8333333","52.0","SMIDOVICH, RS","FM-12","99999","V020","999,9,C,0000,1","22000,1,9,N","004000,1,N,1","-0146,1","-0152,1","10140,1","99,0000,9,1","","","0,1,03,1","0,1,03,1","","","01,99,1,01,1,00,1,99999,9,04,1,00,1","","","","","3,1,006,1,+999,9","10,1","","SYN066AAXX  18211 31725 31996 10000 11146 21152 40140 53006 71000 81040;","Q01  00002PRCP99"
"31725099999","2000-03-19T00:00:00","4","48.6166666","133.8333333","52.0","SMIDOVICH, RS","FM-12","99999","V020","999,9,C,0000,1","22000,1,9,N","020000,1,N,1","-0080,1","-0112,1","10147,1","99,0000,9,1","0008,9,1,999999,9,9","","","","","","01,99,1,01,1,00,1,99999,9,04,1,00,1","28,9","","120,N,-0172,1","99999,9,10078,1","2,1,009,1,+999,9","","","SYN082AAXX  19001 31725 32998 10000 11080 21112 30078 40147 52009 81040 333 21172 44008;","Q01  00002PRCP99"
"31725099999","2000-03-19T03:00:00","4","48.6166666","133.8333333","52.0","SMIDOVICH, RS","FM-12","99999","V020","180,1,N,0010,1","22000,1,9,N","020000,1,N,1","-0029,1","-0120,1","10143,1","","","","","","","","01,99,1,01,1,00,1,99999,9,04,1,00,1","","","","","8,1,003,1,+999,9","","","SYN060AAXX  19031 31725 42998 11801 11029 21120 40143 58003 81040;",
"31725099999","2000-03-19T06:00:00","4","48.6166666","133.8333333","52.0","SMIDOVICH, RS","FM-12","99999","V020","180,1,N,0020,1","99999,9,9,N","020000,1,N,1","-0022,1","-0108,1","10142,1","","","","","","","","06,99,1,02,1,00,1,99999,9,04,1,02,1","","","","","6,1,001,1,+999,9","","","SYN060AAXX  19061 31725 42998 61802 11022 21108 40142 56001 82042;",
"31725099999","2000-03-19T09:00:00","4","48.6166666","133.8333333","52.0","SMIDOVICH, RS","FM-12","99999","V020","180,1,N,0010,1","99999,9,9,N","020000,1,N,1","-0040,1","-0113,1","10149,1","99,0000,9,1","","","","","","","06,99,1,02,1,00,1,99999,9,04,1,02,1","","","999,M,-0002,1","","3,1,007,1,+999,9","","","SYN070AAXX  19091 31725 32998 61801 11040 21113 40149 53007 82042 333 11002;","Q01  00002PRCP99"
"31725099999","2000-03-19T12:00:00","4","48.6166666","133.8333333","52.0","SMIDOVICH, RS","FM-12","99999","V020","999,9,C,0000,1","22000,1,9,N","020000,1,N,1","-0108,1","-0144,1","10156,1","99,0000,9,1","","","","","","00,1,+99999,9,99,9","00,99,1,00,1,00,1,99999,9,00,1,00,1","","","999,M,-0002,1","99999,9,10087,1","2,1,006,1,+999,9","","","SYN070AAXX  19121 31725 32998 00000 11108 21144 30087 40156 52006 333 11002;","Q01  00002PRCP99"
"31725099999","2000-03-19T15:00:00","4","48.6166666","133.8333333","52.0","SMIDOVICH, RS","FM-12","99999","V020","999,9,C,0000,1","22000,1,9,N","020000,1,N,1","-0131,1","-0144,1","10167,1","","","","","","","00,1,+99999,9,99,9","00,99,1,00,1,00,1,99999,9,00,1,00,1","","","","","2,1,010,1,+999,9","","","SYN054AAXX  19151 31725 42998 00000 11131 21144 40167 52010;",
"31725099999","2000-03-19T18:00:00","4","48.6166666","133.8333333","52.0","SMIDOVICH, RS","FM-12","99999","V020","999,9,C,0000,1","22000,1,9,N","020000,1,N,1","-0143,1","-0156,1","10175,1","","","","","","","00,1,+99999,9,99,9","00,99,1,00,1,00,1,99999,9,00,1,00,1","","","","","2,1,008,1,+999,9","","","SYN054AAXX  19181 31725 42998 00000 11143 21156 40175 52008;",
"31725099999","2000-03-19T21:00:00","4","48.6166666","133.8333333","52.0","SMIDOVICH, RS","FM-12","99999","V020","999,9,C,0000,1","22000,1,9,N","004000,1,N,1","-0146,1","-0152,1","10186,1","99,0000,9,1","","","0,1,03,1","0,1,03,1","","","03,99,1,03,1,00,1,99999,9,04,1,00,1","","","","","2,1,010,1,+999,9","10,1","","SYN066AAXX  19211 31725 31996 30000 11146 21152 40186 52010 71000 83040;","Q01  00002PRCP99"
"31725099999","2000-03-20T00:00:00","4","48.6166666","133.8333333","52.0","SMIDOVICH, RS","FM-12","99999","V020","140,1,N,0010,1","22000,1,9,N","020000,1,N,1","-0102,1","-0115,1","10194,1","99,0000,9,1","0006,9,1,999999,9,9","","","","","","02,99,1,02,1,00,1,99999,9,04,1,00,1","30,9","","120,N,-0155,1","99999,9,10125,1","2,1,010,1,+999,9","","","SYN082AAXX  20001 31725 32998 21401 11102 21115 30125 40194 52010 82040 333 21155 42006;","Q01  00002PRCP99"
"31725099999","2000-03-20T03:00:00","4","48.6166666","133.8333333","52.0","SMIDOVICH, RS","FM-12","99999","V020","140,1,N,0010,1","22000,1,9,N","020000,1,N,1","-0042,1","-0097,1","10188,1","","","","","","","","02,99,1,02,1,00,1,99999,9,04,1,00,1","","","","","8,1,005,1,+999,9","","","SYN060AAXX  20031 31725 42998 21401 11042 21097 40188 58005 82040;",
"31725099999","2000-03-20T06:00:00","4","48.6166666","133.8333333","52.0","SMIDOVICH, RS","FM-12","99999","V020","090,1,N,0010,1","22000,1,9,N","020000,1,N,1","-0038,1","-0096,1","10184,1","","","","","","","","02,99,1,02,1,00,1,99999,9,04,1,00,1","","","","","7,1,004,1,+999,9","","","SYN060AAXX  20061 31725 42998 20901 11038 21096 40184 57004 82040;",
"31725099999","2000-03-20T09:00:00","4","48.6166666","133.8333333","52.0","SMIDOVICH, RS","FM-12","99999","V020","999,9,C,0000,1","99999,9,9,N","020000,1,N,1","-0060,1","-0113,1","10178,1","99,0000,9,1","","","","","","","06,99,1,04,1,00,1,99999,9,04,1,02,1","","","999,M,-0025,1","","7,1,007,1,+999,9","","","SYN070AAXX  20091 31725 32998 60000 11060 21113 40178 57007 84042 333 11025;","Q01  00002PRCP99"
"31725099999","2000-03-20T12:00:00","4","48.6166666","133.8333333","52.0","SMIDOVICH, RS","FM-12","99999","V020","999,9,C,0000,1","22000,1,9,N","020000,1,N,1","-0102,1","-0115,1","10188,1","99,0000,9,1","","","","","","","02,99,1,02,1,00,1,99999,9,04,1,00,1","","","999,M,-0025,1","99999,9,10119,1","3,1,010,1,+999,9","","","SYN076AAXX  20121 31725 32998 20000 11102 21115 30119 40188 53010 82040 333 11025;","Q01  00002PRCP99"
"31725099999","2000-03-20T15:00:00","4","48.6166666","133.8333333","52.0","SMIDOVICH, RS","FM-12","99999","V020","999,9,C,0000,1","22000,1,9,N","020000,1,N,1","-0124,1","-0130,1","10189,1","","","","","","","","02,99,1,02,1,00,1,99999,9,04,1,00,1","","","","","4,1,000,1,+999,9","","","SYN060AAXX  20151 31725 42998 20000 11124 21130 40189 54000 82040;",
"31725099999","2000-03-20T18:00:00","4","48.6166666","133.8333333","52.0","SMIDOVICH, RS","FM-12","99999","V020","999,9,C,0000,1","22000,1,9,N","020000,1,N,1","-0144,1","-0150,1","10194,1","","","","","","","","02,99,1,02,1,00,1,99999,9,04,1,00,1","","","","","3,1,005,1,+999,9","","","SYN060AAXX  20181 31725 42998 20000 11144 21150 40194 53005 82040;",
"31725099999","2000-03-20T21:00:00","4","48.6166666","133.8333333","52.0","SMIDOVICH, RS","FM-12","99999","V020","999,9,C,0000,1","22000,1,9,N","020000,1,N,1","-0149,1","-0155,1","10200,1","99,0000,9,1","","","","","","","02,99,1,02,1,00,1,99999,9,04,1,00,1","","","","","2,1,005,1,+999,9","","","SYN060AAXX  20211 31725 32998 20000 11149 21155 40200 52005 82040;","Q01  00002PRCP99"
"31725099999","2000-03-21T00:00:00","4","48.6166666","133.8333333","52.0","SMIDOVICH, RS","FM-12","99999","V020","999,9,C,0000,1","22000,1,9,N","020000,1,N,1","-0076,1","-0111,1","10206,1","99,0000,9,1","0002,9,1,999999,9,9","","","","","00,1,+99999,9,99,9","00,99,1,00,1,00,1,99999,9,00,1,00,1","30,9","","120,N,-0184,1","99999,9,10137,1","2,1,008,1,+999,9","","","SYN076AAXX  21001 31725 32998 00000 11076 21111 30137 40206 52008 333 21184 42002;","Q01  00002PRCP99"
"31725099999","2000-03-21T03:00:00","4","48.6166666","133.8333333","52.0","SMIDOVICH, RS","FM-12","99999","V020","999,9,C,0000,1","22000,1,9,N","020000,1,N,1","-0025,1","-0114,1","10208,1","","","","","","","00,1,+99999,9,99,9","00,99,1,00,1,00,1,99999,9,00,1,00,1","","","","","2,1,003,1,+999,9","","","SYN054AAXX  21031 31725 42998 00000 11025 21114 40208 52003;",
"31725099999","2000-03-21T06:00:00","4","48.6166666","133.8333333","52.0","SMIDOVICH, RS","FM-12","99999","V020","230,1,N,0020,1","22000,1,9,N","020000,1,N,1","-0025,1","-0094,1","10195,1","","","","","","","","02,99,1,00,1,00,1,99999,9,00,1,02,1","","","","","8,1,013,1,+999,9","","","SYN060AAXX  21061 31725 42998 22302 11025 21094 40195 58013 80002;",
"31725099999","2000-03-21T09:00:00","4","48.6166666","133.8333333","52.0","SMIDOVICH, RS","FM-12","99999","V020","180,1,N,0010,1","22000,1,9,N","050000,1,N,1","-0035,1","-0091,1","10196,1","99,0000,9,1","","","","","","00,1,+99999,9,99,9","00,99,1,00,1,00,1,99999,9,00,1,00,1","","","999,M,-0011,1","","3,1,001,1,+999,9","","","SYN064AAXX  21091 31725 32999 01801 11035 21091 40196 53001 333 11011;","Q01  00002PRCP99"
"31725099999","2000-03-21T12:00:00","4","48.6166666","133.8333333","52.0","SMIDOVICH, RS","FM-12","99999","V020","999,9,C,0000,1","22000,1,9,N","050000,1,N,1","-0095,1","-0111,1","10201,1","99,0000,9,1","","","","","","00,1,+99999,9,99,9","00,99,1,00,1,00,1,99999,9,00,1,00,1","","","999,M,-0011,1","99999,9,10132,1","2,1,004,1,+999,9","","","SYN070AAXX  21121 31725 32999 00000 11095 21111 30132 40201 52004 333 11011;","Q01  00002PRCP99"
"31725099999","2000-03-21T15:00:00","4","48.6166666","133.8333333","52.0","SMIDOVICH, RS","FM-12","99999","V020","999,9,C,0000,1","22000,1,9,N","050000,1,N,1","-0108,1","-0128,1","10203,1","","","","","","","00,1,+99999,9,99,9","00,99,1,00,1,00,1,99999,9,00,1,00,1","","","","","1,1,002,1,+999,9","","","SYN054AAXX  21151 31725 42999 00000 11108 21128 40203 51002;",
"31725099999","2000-03-21T18:00:00","4","48.6166666","133.8333333","52.0","SMIDOVICH, RS","FM-12","99999","V020","999,9,C,0000,1","22000,1,9,N","050000,1,N,1","-0080,1","-0154,1","10208,1","","","","","","","00,1,+99999,9,99,9","00,99,1,00,1,00,1,99999,9,00,1,00,1","","","","","3,1,005,1,+999,9","","","SYN054AAXX  21181 31725 42999 00000 11080 21154 40208 53005;",
"31725099999","2000-03-21T21:00:00","4","48.6166666","133.8333333","52.0","SMIDOVICH, RS","FM-12","99999","V020","999,9,C,0000,1","22000,1,9,N","050000,1,N,1","-0099,1","-0178,1","10220,1","99,0000,9,1","","","","","","00,1,+99999,9,99,9","00,99,1,00,1,00,1,99999,9,00,1,00,1","","","","","2,1,012,1,+999,9","","","SYN054AAXX  21211 31725 32999 00000 11099 21178 40220 52012;","Q01  00002PRCP99"
"31725099999","2000-03-22T00:00:00","4","48.6166666","133.8333333","52.0","SMIDOVICH, RS","FM-12","99999","V020","320,1,N,0020,1","22000,1,9,N","020000,1,N,1","-0059,1","-0170,1","10227,1","99,0000,9,1","0000,9,1,999999,9,9","","","","","","01,99,1,00,1,00,1,99999,9,00,1,02,1","30,9","","120,N,-0110,1","99999,9,10158,1","2,1,007,1,+999,9","","","SYN082AAXX  22001 31725 32998 13202 11059 21170 30158 40227 52007 80002 333 21110 42997;","Q01  00002PRCP99"
"31725099999","2000-03-22T03:00:00","4","48.6166666","133.8333333","52.0","SMIDOVICH, RS","FM-12","99999","V020","320,1,N,0020,1","22000,1,9,N","050000,1,N,1","-0016,1","-0148,1","10221,1","","","","","","","","02,99,1,00,1,00,1,99999,9,00,1,02,1","","","","","8,1,005,1,+999,9","","","SYN060AAXX  22031 31725 42999 23202 11016 21148 40221 58005 80002;",
"31725099999","2000-03-22T06:00:00","4","48.6166666","133.8333333","52.0","SMIDOVICH, RS","FM-12","99999","V020","290,1,N,0020,1","99999,9,9,N","050000,1,N,1","-0001,1","-0123,1","10213,1","","","","","","","","08,99,1,02,1,00,1,99999,9,04,1,04,1","","","","","7,1,008,1,+999,9","","","SYN060AAXX  22061 31725 42999 82902 11001 21123 40213 57008 82044;",
"31725099999","2000-03-22T09:00:00","4","48.6166666","133.8333333","52.0","SMIDOVICH, RS","FM-12","99999","V020","230,1,N,0020,1","03600,1,9,N","020000,1,N,1","-0039,1","-0111,1","10205,1","99,0000,9,1","","","","","","","08,99,1,03,1,05,1,00800,1,04,1,99,9","","","999,M,+0006,1","","7,1,008,1,+999,9","","","SYN070AAXX  22091 31725 32598 82302 11039 21111 40205 57008 8354/ 333 10006;","Q01  00002PRCP99"
"31725099999","2000-03-22T12:00:00","4","48.6166666","133.8333333","52.0","SMIDOVICH, RS","FM-12","99999","V020","180,1,N,0010,1","99999,9,9,N","020000,1,N,1","-0070,1","-0117,1","10200,1","99,0000,9,1","","","","","","","08,99,1,03,1,05,1,99999,9,04,1,99,9","","","999,M,+0006,1","99999,9,10131,1","7,1,006,1,+999,9","","","SYN076AAXX  22121 31725 32998 81801 11070 21117 30131 40200 57006 8354/ 333 10006;","Q01  00002PRCP99"
"31725099999","2000-03-22T15:00:00","4","48.6166666","133.8333333","52.0","SMIDOVICH, RS","FM-12","99999","V020","160,1,N,0010,1","99999,9,9,N","020000,1,N,1","-0089,1","-0113,1","10188,1","","","","","","","","07,99,1,07,1,00,1,99999,9,04,1,99,9","","","","","7,1,012,1,+999,9","","","SYN060AAXX  22151 31725 42998 71601 11089 21113 40188 57012 8704/;",
"31725099999","2000-03-22T18:00:00","4","48.6166666","133.8333333","52.0","SMIDOVICH, RS","FM-12","99999","V020","999,9,C,0000,1","03600,1,9,N","020000,1,N,1","-0093,1","-0114,1","10165,1","","","","","","","","08,99,1,03,1,05,1,00800,1,04,1,99,9","","","","","7,1,023,1,+999,9","","","SYN060AAXX  22181 31725 42598 80000 11093 21114 40165 57023 8354/;",
"31725099999","2000-03-22T21:00:00","4","48.6166666","133.8333333","52.0","SMIDOVICH, RS","FM-12","99999","V020","070,1,N,0020,1","00420,1,9,N","020000,1,N,1","-0075,1","-0124,1","10137,1","99,0000,9,1","","","","","","","08,99,1,06,1,03,1,00450,1,04,1,99,9","","","","","7,1,028,1,+999,9","","","SYN060AAXX  22211 31725 32498 80702 11075 21124 40137 57028 8634/;","Q01  00002PRCP99"
"31725099999","2000-03-23T00:00:00","4","48.6166666","133.8333333","52.0","SMIDOVICH, RS","FM-12","99999","V020","050,1,N,0050,1","00420,1,9,N","020000,1,N,1","-0056,1","-0117,1","10115,1","99,0000,9,1","9999,3,9,999999,9,9","","","","","","08,99,1,06,1,03,1,00450,1,04,1,99,9","30,9","","120,N,-0097,1","99999,9,10047,1","7,1,021,1,+999,9","","","SYN088AAXX  23001 31725 32498 80505 11056 21117 30047 40115 57021 8634/ 333 21097 42997 91010;","Q01  00002PRCP99Q02  09982SNDP  "
"31725099999","2000-03-23T03:00:00","4","48.6166666","133.8333333","52.0","SMIDOVICH, RS","FM-12","99999","V020","050,1,N,0080,1","00420,1,9,N","020000,1,N,1","-0031,1","-0099,1","10077,1","","","","","","","","08,99,1,06,1,03,1,00450,1,04,1,99,9","","","","","7,1,037,1,+999,9","","","SYN060AAXX  23031 31725 42498 80508 11031 21099 40077 57037 8634/;",
"31725099999","2000-03-23T06:00:00","4","48.6166666","133.8333333","52.0","SMIDOVICH, RS","FM-12","99999","V020","050,1,N,0080,1","00420,1,9,N","004000,1,N,1","-0035,1","-0056,1","10052,1","","","","8,1,06,1","2,1,06,1","","","08,99,1,08,1,03,1,00450,1,99,9,99,9","","","","","7,1,025,1,+999,9","85,1","","SYN076AAXX  23061 31725 41496 80508 11035 21056 40052 57025 78582 883// 333 91114;",
"31725099999","2000-03-23T09:00:00","4","48.6166666","133.8333333","52.0","SMIDOVICH, RS","FM-12","99999","V020","020,1,N,0060,1","00420,1,9,N","002000,1,N,1","-0046,1","-0055,1","10046,1","","","","8,1,03,1","2,1,03,1","","","08,99,1,08,1,03,1,00450,1,99,9,99,9","","","120,M,-0025,1","","7,1,007,1,+999,9","86,1","","SYN082AAXX  23091 31725 /1495 80206 11046 21055 40046 57007 78682 883// 333 11025 91112;",
"31725099999","2000-03-23T12:00:00","4","48.6166666","133.8333333","52.0","SMIDOVICH, RS","FM-12","99999","V020","090,1,N,0060,1","00420,1,9,N","002000,1,N,1","-0047,1","-0053,1","10050,1","00,0010,9,1","","","8,1,06,1","3,1,06,1","","","08,99,1,08,1,03,1,00450,1,99,9,99,9","","","120,M,-0025,1","99999,9,09982,1","3,1,004,1,+999,9","85,1","","SYN094AAXX  23121 31725 11495 80906 11047 21053 39982 40050 53004 69990 78583 883// 333 11025 91112;",
"31725099999","2000-03-23T15:00:00","4","48.6166666","133.8333333","52.0","SMIDOVICH, RS","FM-12","99999","V020","070,1,N,0050,1","00420,1,9,N","004000,1,N,1","-0046,1","-0055,1","10041,1","","","","8,1,03,1","3,1,03,1","","","08,99,1,08,1,03,1,00450,1,99,9,99,9","","","","","8,1,009,1,+999,9","85,1","","SYN076AAXX  23151 31725 41496 80705 11046 21055 40041 58009 78583 883// 333 91110;",
"31725099999","2000-03-23T18:00:00","4","48.6166666","133.8333333","52.0","SMIDOVICH, RS","FM-12","99999","V020","050,1,N,0050,1","00420,1,9,N","004000,1,N,1","-0050,1","-0060,1","10028,1","","","","8,1,06,1","3,1,06,1","","","08,99,1,08,1,03,1,00450,1,99,9,99,9","","","","","7,1,013,1,+999,9","85,1","","SYN076AAXX  23181 31725 41496 80505 11050 21060 40028 57013 78583 883// 333 91110;",
"31725099999","2000-03-23T21:00:00","4","48.6166666","133.8333333","52.0","SMIDOVICH, RS","FM-12","99999","V020","050,1,N,0050,1","00420,1,9,N","004000,1,N,1","-0050,1","-0060,1","10023,1","","","","8,1,03,1","3,1,03,1","","","08,99,1,08,1,03,1,00450,1,99,9,99,9","","","","","7,1,005,1,+999,9","85,1","","SYN076AAXX  23211 31725 /1496 80505 11050 21060 40023 57005 78583 883// 333 91110;",
"31725099999","2000-03-24T00:00:00","4","48.6166666","133.8333333","52.0","SMIDOVICH, RS","FM-12","99999","V020","050,1,N,0060,1","00420,1,9,N","004000,1,N,1","-0048,1","-0072,1","10027,1","00,0041,9,1","0003,9,1,999999,9,9","","7,1,06,1","3,1,06,1","","","08,99,1,08,1,03,1,00450,1,99,9,99,9","24,9","","120,N,-0050,1","99999,9,09959,1","3,1,004,1,+999,9","73,1","","SYN100AAXX  24001 31725 11496 80506 11048 21072 39959 40027 53004 60040 77373 883// 333 21050 48003 91112;",
"31725099999","2000-03-24T03:00:00","4","48.6166666","133.8333333","52.0","SMIDOVICH, RS","FM-12","99999","V020","050,1,N,0060,1","02100,1,9,N","004000,1,N,1","-0038,1","-0064,1","10020,1","","","","7,1,03,1","3,1,03,1","","","08,99,1,08,1,00,1,02250,1,02,1,99,9","","","","","8,1,006,1,+999,9","73,1","","SYN076AAXX  24031 31725 41896 80506 11038 21064 40020 58006 77373 8802/ 333 91112;",
"31725099999","2000-03-24T06:00:00","4","48.6166666","133.8333333","52.0","SMIDOVICH, RS","FM-12","99999","V020","050,1,N,0060,1","99999,9,9,N","004000,1,N,1","-0031,1","-0055,1","10026,1","","","","7,1,06,1","3,1,06,1","","","08,99,1,08,1,00,1,99999,9,02,1,99,9","","","","","3,1,006,1,+999,9","71,1","","SYN076AAXX  24061 31725 41996 80506 11031 21055 40026 53006 77173 8802/ 333 91112;",
"31725099999","2000-03-24T09:00:00","4","48.6166666","133.8333333","52.0","SMIDOVICH, RS","FM-12","99999","V020","020,1,N,0050,1","99999,9,9,N","004000,1,N,1","-0037,1","-0048,1","10036,1","","","","7,1,03,1","3,1,03,1","","","08,99,1,08,1,00,1,99999,9,02,1,99,9","","","999,M,-0025,1","","2,1,010,1,+999,9","71,1","","SYN076AAXX  24091 31725 /1996 80205 11037 21048 40036 52010 77173 8802/ 333 11025;",
"31725099999","2000-03-24T12:00:00","4","48.6166666","133.8333333","52.0","SMIDOVICH, RS","FM-12","99999","V020","050,1,N,0050,1","99999,9,9,N","004000,1,N,1","-0038,1","-0053,1","10050,1","00,0030,9,1","","","7,1,06,1","2,1,06,1","","","08,99,1,08,1,00,1,99999,9,02,1,99,9","","","999,M,-0025,1","99999,9,09983,1","2,1,014,1,+999,9","71,1","","SYN088AAXX  24121 31725 11996 80505 11038 21053 39983 40050 52014 60030 77172 8802/ 333 11025;",
"31725099999","2000-03-24T15:00:00","4","48.6166666","133.8333333","52.0","SMIDOVICH, RS","FM-12","99999","V020","050,1,N,0050,1","99999,9,9,N","010000,1,N,1","-0038,1","-0100,1","10049,1","","","","7,1,03,1","2,1,03,1","","","08,99,1,08,1,00,1,99999,9,02,1,99,9","","","","","8,1,001,1,+999,9","02,1","","SYN066AAXX  24151 31725 41997 80505 11038 21100 40049 58001 70272 8802/;",
"31725099999","2000-03-24T18:00:00","4","48.6166666","133.8333333","52.0","SMIDOVICH, RS","FM-12","99999","V020","050,1,N,0040,1","99999,9,9,N","010000,1,N,1","-0040,1","-0098,1","10047,1","","","","","","","","08,99,1,08,1,00,1,99999,9,04,1,99,9","","","","","6,1,002,1,+999,9","","","SYN060AAXX  24181 31725 42997 80504 11040 21098 40047 56002 8804/;",
"31725099999","2000-03-24T21:00:00","4","48.6166666","133.8333333","52.0","SMIDOVICH, RS","FM-12","99999","V020","999,9,C,0000,1","22000,1,9,N","020000,1,N,1","-0080,1","-0098,1","10046,1","","","","","","","","04,99,1,04,1,00,1,99999,9,04,1,00,1","","","","","6,1,002,1,+999,9","","","SYN060AAXX  24211 31725 /2998 40000 11080 21098 40046 56002 84040;",
"31725099999","2000-03-25T00:00:00","4","48.6166666","133.8333333","52.0","SMIDOVICH, RS","FM-12","99999","V020","999,9,C,0000,1","99999,9,9,N","050000,1,N,1","-0065,1","-0111,1","10053,1","00,0003,9,1","0005,9,1,999999,9,9","","","","","","08,99,1,00,1,00,1,99999,9,00,1,06,1","27,9","","120,N,-0099,1","99999,9,09985,1","3,1,007,1,+999,9","","","SYN088AAXX  25001 31725 12999 80000 11065 21111 39985 40053 53007 69930 85006 333 21099 43005;","Q01+000052SCOTLC"
"31725099999","2000-03-25T03:00:00","4","48.6166666","133.8333333","52.0","SMIDOVICH, RS","FM-12","99999","V020","050,1,N,0030,1","99999,9,9,N","050000,1,N,1","-0031,1","-0147,1","10051,1","","","","","","","","08,99,1,00,1,00,1,99999,9,00,1,02,1","","","","","8,1,001,1,+999,9","","","SYN060AAXX  25031 31725 42999 80503 11031 21147 40051 58001 80002;",
"31725099999","2000-03-25T06:00:00","4","48.6166666","133.8333333","52.0","SMIDOVICH, RS","FM-12","99999","V020","230,1,N,0020,1","00420,1,9,N","050000,1,N,1","-0020,1","-0155,1","10047,1","","","","","","","","08,99,1,05,1,03,1,00450,1,04,1,02,1","","","","","7,1,004,1,+999,9","","","SYN060AAXX  25061 31725 42499 82302 11020 21155 40047 57004 85342;",
"31725099999","2000-03-25T09:00:00","4","48.6166666","133.8333333","52.0","SMIDOVICH, RS","FM-12","99999","V020","140,1,N,0020,1","00420,1,9,N","004000,1,N,1","-0066,1","-0086,1","10056,1","","","","8,1,03,1","2,1,03,1","","","08,99,1,08,1,03,1,00450,1,99,9,99,9","","","999,M,-0008,1","","3,1,008,1,+999,9","85,1","","SYN076AAXX  25091 31725 /1496 81402 11066 21086 40056 53008 78582 883// 333 11008;",
"31725099999","2000-03-25T12:00:00","4","48.6166666","133.8333333","52.0","SMIDOVICH, RS","FM-12","99999","V020","999,9,C,0000,1","00420,1,9,N","020000,1,N,1","-0083,1","-0093,1","10071,1","00,0007,9,1","","","8,1,06,1","2,1,06,1","","","08,99,1,08,1,03,1,00450,1,99,9,99,9","","","999,M,-0008,1","99999,9,10003,1","2,1,015,1,+999,9","02,1","","SYN088AAXX  25121 31725 11498 80000 11083 21093 30003 40071 52015 69900 70282 883// 333 11008;",
"31725099999","2000-03-25T15:00:00","4","48.6166666","133.8333333","52.0","SMIDOVICH, RS","FM-12","99999","V020","999,9,C,0000,1","00420,1,9,N","020000,1,N,1","-0092,1","-0103,1","10070,1","","","","","","","","08,99,1,07,1,05,1,00450,1,99,9,99,9","","","","","8,1,001,1,+999,9","","","SYN060AAXX  25151 31725 42498 80000 11092 21103 40070 58001 875//;",
"31725099999","2000-03-25T18:00:00","4","48.6166666","133.8333333","52.0","SMIDOVICH, RS","FM-12","99999","V020","999,9,C,0000,1","99999,9,9,N","020000,1,N,1","-0088,1","-0095,1","10069,1","","","","","","","","08,99,1,05,1,00,1,99999,9,04,1,02,1","","","","","6,1,001,1,+999,9","","","SYN060AAXX  25181 31725 42998 80000 11088 21095 40069 56001 85042;",
"31725099999","2000-03-25T21:00:00","4","48.6166666","133.8333333","52.0","SMIDOVICH, RS","FM-12","99999","V020","230,1,N,0010,1","99999,9,9,N","020000,1,N,1","-0110,1","-0123,1","10074,1","","","","","","","","08,99,1,05,1,00,1,99999,9,04,1,02,1","","","","","3,1,005,1,+999,9","","","SYN060AAXX  25211 31725 /2998 82301 11110 21123 40074 53005 85042;",
"31725099999","2000-03-26T00:00:00","4","48.6166666","133.8333333","52.0","SMIDOVICH, RS","FM-12","99999","V020","320,1,N,0010,1","99999,9,9,N","020000,1,N,1","-0080,1","-0160,1","10083,1","00,0007,9,1","0003,9,1,999999,9,9","","","","","","08,99,1,02,1,00,1,99999,9,04,1,02,1","28,9","","120,N,-0110,1","99999,9,10015,1","2,1,009,1,+999,9","","","SYN088AAXX  26001 31725 12998 83201 11080 21160 30015 40083 52009 69900 82042 333 21110 44003;",
"31725099999","2000-03-26T03:00:00","4","48.6166666","133.8333333","52.0","SMIDOVICH, RS","FM-12","99999","V020","230,1,N,0020,1","99999,9,9,N","020000,1,N,1","-0060,1","-0139,1","10086,1","","","","","","","","08,99,1,02,1,00,1,99999,9,04,1,02,1","","","","","2,1,003,1,+999,9","","","SYN060AAXX  26031 31725 42998 82302 11060 21139 40086 52003 82042;",
"31725099999","2000-03-26T06:00:00","4","48.6166666","133.8333333","52.0","SMIDOVICH, RS","FM-12","99999","V020","230,1,N,0030,1","99999,9,9,N","020000,1,N,1","-0038,1","-0142,1","10086,1","","","","","","","","08,99,1,04,1,00,1,99999,9,04,1,02,1","","","","","1,1,001,1,+999,9","","","SYN060AAXX  26061 31725 42998 82303 11038 21142 40086 51001 84042;",
"31725099999","2000-03-26T09:00:00","4","48.6166666","133.8333333","52.0","SMIDOVICH, RS","FM-12","99999","V020","180,1,N,0030,1","22000,1,9,N","020000,1,N,1","-0058,1","-0142,1","10086,1","99,0000,9,1","","","","","","","02,99,1,02,1,00,1,99999,9,04,1,00,1","","","999,M,+0030,1","","8,1,001,1,+999,9","","","SYN070AAXX  26091 31725 32998 21803 11058 21142 40086 58001 82040 333 10030;","Q01  00002PRCP99"
"31725099999","2000-03-26T12:00:00","4","48.6166666","133.8333333","52.0","SMIDOVICH, RS","FM-12","99999","V020","230,1,N,0010,1","22000,1,9,N","020000,1,N,1","-0116,1","-0160,1","10095,1","99,0000,9,1","","","","","","00,1,+99999,9,99,9","00,99,1,00,1,00,1,99999,9,00,1,00,1","","","999,M,-0030,1","99999,9,10026,1","3,1,008,1,+999,9","","","SYN070AAXX  26121 31725 32998 02301 11116 21160 30026 40095 53008 333 11030;","Q01  00002PRCP99"
"31725099999","2000-03-26T15:00:00","4","48.6166666","133.8333333","52.0","SMIDOVICH, RS","FM-12","99999","V020","999,9,C,0000,1","22000,1,9,N","020000,1,N,1","-0168,1","-0187,1","10106,1","","","","","","","00,1,+99999,9,99,9","00,99,1,00,1,00,1,99999,9,00,1,00,1","","","","","2,1,009,1,+999,9","","","SYN054AAXX  26151 31725 42998 00000 11168 21187 40106 52009;",
"31725099999","2000-03-26T18:00:00","4","48.6166666","133.8333333","52.0","SMIDOVICH, RS","FM-12","99999","V020","999,9,C,0000,1","22000,1,9,N","004000,1,N,1","-0166,1","-0179,1","10115,1","","","","0,1,06,1","0,1,06,1","","00,1,+99999,9,99,9","00,99,1,00,1,00,1,99999,9,00,1,00,1","","","","","2,1,007,1,+999,9","10,1","","SYN060AAXX  26181 31725 41996 00000 11166 21179 40115 52007 71000;",
"31725099999","2000-03-26T21:00:00","4","48.6166666","133.8333333","52.0","SMIDOVICH, RS","FM-12","99999","V020","999,9,C,0000,1","22000,1,9,N","004000,1,N,1","-0185,1","-0197,1","10125,1","99,0000,9,1","","","0,1,03,1","0,1,03,1","","","02,99,1,02,1,00,1,99999,9,04,1,00,1","","","","","2,1,011,1,+999,9","10,1","","SYN066AAXX  26211 31725 31996 20000 11185 21197 40125 52011 71000 82040;","Q01  00002PRCP99"
"31725099999","2000-03-27T03:00:00","4","48.6166666","133.8333333","52.0","SMIDOVICH, RS","FM-12","99999","V020","999,9,C,0000,1","22000,1,9,N","020000,1,N,1","-0065,1","-0131,1","10148,1","","","","","","","","03,99,1,00,1,00,1,99999,9,00,1,02,1","","","","","2,1,005,1,+999,9","","","SYN060AAXX  27031 31725 42998 30000 11065 21131 40148 52005 80002;",
"31725099999","2000-03-27T06:00:00","4","48.6166666","133.8333333","52.0","SMIDOVICH, RS","FM-12","99999","V020","999,9,C,0000,1","22000,1,9,N","020000,1,N,1","-0046,1","-0117,1","10146,1","","","","","","","","03,99,1,00,1,00,1,99999,9,00,1,02,1","","","","","8,1,002,1,+999,9","","","SYN060AAXX  27061 31725 42998 30000 11046 21117 40146 58002 80002;",
"31725099999","2000-03-27T09:00:00","4","48.6166666","133.8333333","52.0","SMIDOVICH, RS","FM-12","99999","V020","180,1,N,0010,1","22000,1,9,N","020000,1,N,1","-0064,1","-0124,1","10150,1","99,0000,9,1","","","","","","","02,99,1,00,1,00,1,99999,9,00,1,02,1","","","999,M,-0045,1","","3,1,004,1,+999,9","","","SYN070AAXX  27091 31725 32998 21801 11064 21124 40150 53004 80002 333 11045;","Q01  00002PRCP99"
"31725099999","2000-03-27T12:00:00","4","48.6166666","133.8333333","52.0","SMIDOVICH, RS","FM-12","99999","V020","230,1,N,0010,1","22000,1,9,N","020000,1,N,1","-0116,1","-0129,1","10170,1","99,0000,9,1","","","","","","00,1,+99999,9,99,9","00,99,1,00,1,00,1,99999,9,00,1,00,1","","","999,M,-0045,1","99999,9,10100,1","2,1,019,1,+999,9","","","SYN070AAXX  27121 31725 32998 02301 11116 21129 30100 40170 52019 333 11045;","Q01  00002PRCP99"
"31725099999","2000-03-27T15:00:00","4","48.6166666","133.8333333","52.0","SMIDOVICH, RS","FM-12","99999","V020","230,1,N,0010,1","22000,1,9,N","020000,1,N,1","-0122,1","-0135,1","10170,1","","","","","","","00,1,+99999,9,99,9","00,99,1,00,1,00,1,99999,9,00,1,00,1","","","","","4,1,000,1,+999,9","","","SYN054AAXX  27151 31725 42998 02301 11122 21135 40170 54000;",
"31725099999","2000-03-27T18:00:00","4","48.6166666","133.8333333","52.0","SMIDOVICH, RS","FM-12","99999","V020","999,9,C,0000,1","22000,1,9,N","010000,1,N,1","-0150,1","-0163,1","10174,1","","","","","","","00,1,+99999,9,99,9","00,99,1,00,1,00,1,99999,9,00,1,00,1","","","","","3,1,003,1,+999,9","","","SYN054AAXX  27181 31725 42997 00000 11150 21163 40174 53003;",
"31725099999","2000-03-27T21:00:00","4","48.6166666","133.8333333","52.0","SMIDOVICH, RS","FM-12","99999","V020","360,1,N,0010,1","22000,1,9,N","020000,1,N,1","-0155,1","-0168,1","10174,1","99,0000,9,1","","","","","","00,1,+99999,9,99,9","00,99,1,00,1,00,1,99999,9,00,1,00,1","","","","","4,1,000,1,+999,9","","","SYN054AAXX  27211 31725 32998 03601 11155 21168 40174 54000;","Q01  00002PRCP99"
"31725099999","2000-03-28T00:00:00","4","48.6166666","133.8333333","52.0","SMIDOVICH, RS","FM-12","99999","V020","320,1,N,0010,1","99999,9,9,N","050000,1,N,1","-0096,1","-0126,1","10175,1","99,0000,9,1","0002,9,1,999999,9,9","","","","","","05,99,1,05,1,00,1,99999,9,04,1,00,1","30,9","","120,N,-0155,1","99999,9,10106,1","3,1,003,1,+999,9","","","SYN082AAXX  28001 31725 32999 53201 11096 21126 30106 40175 53003 85040 333 21155 42002;","Q01  00002PRCP99"
"31725099999","2000-03-28T03:00:00","4","48.6166666","133.8333333","52.0","SMIDOVICH, RS","FM-12","99999","V020","050,1,N,0040,1","99999,9,9,N","020000,1,N,1","-0016,1","-0119,1","10170,1","","","","","","","","08,99,1,00,1,00,1,99999,9,00,1,07,1","","","","","8,1,004,1,+999,9","","","SYN060AAXX  28031 31725 42998 80504 11016 21119 40170 58004 80007;",
"31725099999","2000-03-28T06:00:00","4","48.6166666","133.8333333","52.0","SMIDOVICH, RS","FM-12","99999","V020","050,1,N,0040,1","99999,9,9,N","020000,1,N,1","+0004,1","-0135,1","10149,1","","","","","","","","08,99,1,07,1,00,1,99999,9,04,1,99,9","","","","","7,1,021,1,+999,9","","","SYN060AAXX  28061 31725 42998 80504 10004 21135 40149 57021 8704/;",
"31725099999","2000-03-28T09:00:00","4","48.6166666","133.8333333","52.0","SMIDOVICH, RS","FM-12","99999","V020","999,9,C,0000,1","99999,9,9,N","050000,1,N,1","+0000,1","-0138,1","10142,1","99,0000,9,1","","","","","","","08,99,1,07,1,00,1,99999,9,04,1,99,9","","","999,M,+0011,1","","7,1,007,1,+999,9","","","SYN070AAXX  28091 31725 32999 80000 10000 21138 40142 57007 8704/ 333 10011;","Q01  00002PRCP99"
"31725099999","2000-03-28T12:00:00","4","48.6166666","133.8333333","52.0","SMIDOVICH, RS","FM-12","99999","V020","999,9,C,0000,1","99999,9,9,N","050000,1,N,1","-0018,1","-0086,1","10153,1","99,0000,9,1","","","","","","","08,99,1,07,1,00,1,99999,9,04,1,99,9","","","999,M,+0011,1","99999,9,10085,1","3,1,011,1,+999,9","","","SYN076AAXX  28121 31725 32999 80000 11018 21086 30085 40153 53011 8704/ 333 10011;","Q01  00002PRCP99"
"31725099999","2000-03-28T15:00:00","4","48.6166666","133.8333333","52.0","SMIDOVICH, RS","FM-12","99999","V020","999,9,C,0000,1","99999,9,9,N","050000,1,N,1","-0022,1","-0135,1","10140,1","","","","","","","","08,99,1,07,1,00,1,99999,9,04,1,99,9","","","","","8,1,013,1,+999,9","","","SYN060AAXX  28151 31725 42999 80000 11022 21135 40140 5813/ 8704/;","Q01+001302APC3  "
"31725099999","2000-03-28T18:00:00","4","48.6166666","133.8333333","52.0","SMIDOVICH, RS","FM-12","99999","V020","999,9,C,0000,1","99999,9,9,N","050000,1,N,1","-0038,1","-0131,1","10128,1","","","","","","","","08,99,1,07,1,00,1,99999,9,04,1,99,9","","","","","7,1,012,1,+999,9","","","SYN060AAXX  28181 31725 42999 80000 11038 21131 40128 57012 8704/;",
"31725099999","2000-03-29T00:00:00","4","48.6166666","133.8333333","52.0","SMIDOVICH, RS","FM-12","99999","V020","999,9,C,0000,1","22000,1,9,N","020000,1,N,1","-0060,1","-0128,1","10121,1","99,0000,9,1","0001,9,1,999999,9,9","","","","","00,1,+99999,9,99,9","00,99,1,00,1,00,1,99999,9,00,1,00,1","30,9","","120,N,-0133,1","99999,9,10052,1","8,1,006,1,+999,9","","","SYN076AAXX  29001 31725 32998 00000 11060 21128 30052 40121 58006 333 21133 42001;","Q01  00002PRCP99"
"31725099999","2000-03-29T03:00:00","4","48.6166666","133.8333333","52.0","SMIDOVICH, RS","FM-12","99999","V020","270,1,N,0010,1","22000,1,9,N","020000,1,N,1","+0025,1","-0104,1","10097,1","","","","","","","00,1,+99999,9,99,9","00,99,1,00,1,00,1,99999,9,00,1,00,1","","","","","7,1,021,1,+999,9","","","SYN054AAXX  29031 31725 42998 02701 10025 21104 40097 57021;",
"31725099999","2000-03-29T06:00:00","4","48.6166666","133.8333333","52.0","SMIDOVICH, RS","FM-12","99999","V020","999,9,C,0000,1","22000,1,9,N","020000,1,N,1","+0044,1","-0095,1","10070,1","","","","","","","00,1,+99999,9,99,9","00,99,1,00,1,00,1,99999,9,00,1,00,1","","","","","7,1,027,1,+999,9","","","SYN054AAXX  29061 31725 42998 00000 10044 21095 40070 57027;",
"31725099999","2000-03-29T09:00:00","4","48.6166666","133.8333333","52.0","SMIDOVICH, RS","FM-12","99999","V020","999,9,C,0000,1","22000,1,9,N","050000,1,N,1","+0014,1","-0092,1","10054,1","99,0000,9,1","","","","","","00,1,+99999,9,99,9","00,99,1,00,1,00,1,99999,9,00,1,00,1","","","999,M,+0048,1","","7,1,017,1,+999,9","","","SYN064AAXX  29091 31725 32999 00000 10014 21092 40054 57017 333 10048;","Q01  00002PRCP99"
"31725099999","2000-03-29T12:00:00","4","48.6166666","133.8333333","52.0","SMIDOVICH, RS","FM-12","99999","V020","999,9,C,0000,1","22000,1,9,N","050000,1,N,1","-0034,1","-0085,1","10053,1","99,0000,9,1","","","","","","00,1,+99999,9,99,9","00,99,1,00,1,00,1,99999,9,00,1,00,1","","","999,M,+0048,1","99999,9,09986,1","6,1,001,1,+999,9","","","SYN070AAXX  29121 31725 32999 00000 11034 21085 39986 40053 56001 333 10048;","Q01  00002PRCP99"
"31725099999","2000-03-29T15:00:00","4","48.6166666","133.8333333","52.0","SMIDOVICH, RS","FM-12","99999","V020","999,9,C,0000,1","22000,1,9,N","050000,1,N,1","-0052,1","-0102,1","10037,1","","","","","","","00,1,+99999,9,99,9","00,99,1,00,1,00,1,99999,9,00,1,00,1","","","","","8,1,017,1,+999,9","","","SYN054AAXX  29151 31725 42999 00000 11052 21102 40037 58017;",
"31725099999","2000-03-29T18:00:00","4","48.6166666","133.8333333","52.0","SMIDOVICH, RS","FM-12","99999","V020","999,9,C,0000,1","22000,1,9,N","050000,1,N,1","-0101,1","-0137,1","10020,1","","","","","","","00,1,+99999,9,99,9","00,99,1,00,1,00,1,99999,9,00,1,00,1","","","","","7,1,017,1,+999,9","","","SYN054AAXX  29181 31725 42999 00000 11101 21137 40020 57017;",
"31725099999","2000-03-29T21:00:00","4","48.6166666","133.8333333","52.0","SMIDOVICH, RS","FM-12","99999","V020","999,9,C,0000,1","99999,9,9,N","050000,1,N,1","-0120,1","-0133,1","09995,1","99,0000,9,1","","","","","","","08,99,1,00,1,00,1,99999,9,00,1,02,1","","","","","7,1,025,1,+999,9","","","SYN060AAXX  29211 31725 32999 80000 11120 21133 49995 57025 80002;","Q01  00002PRCP99"
"31725099999","2000-03-30T00:00:00","4","48.6166666","133.8333333","52.0","SMIDOVICH, RS","FM-12","99999","V020","160,1,N,0010,1","99999,9,9,N","020000,1,N,1","-0082,1","-0114,1","10003,1","99,0000,9,1","0000,9,1,999999,9,9","","","","","","08,99,1,04,1,00,1,99999,9,04,1,02,1","25,9","","120,N,-0126,1","99999,9,09935,1","3,1,008,1,+999,9","","","SYN082AAXX  30001 31725 32998 81601 11082 21114 39935 40003 53008 84042 333 21126 41997;","Q01  00002PRCP99"
"31725099999","2000-03-30T03:00:00","4","48.6166666","133.8333333","52.0","SMIDOVICH, RS","FM-12","99999","V020","090,1,N,0010,1","99999,9,9,N","020000,1,N,1","-0045,1","-0097,1","09992,1","","","","","","","","08,99,1,06,1,00,1,99999,9,04,1,06,1","","","","","8,1,010,1,+999,9","","","SYN060AAXX  30031 31725 42998 80901 11045 21097 49992 58010 86046;",
"31725099999","2000-03-30T06:00:00","4","48.6166666","133.8333333","52.0","SMIDOVICH, RS","FM-12","99999","V020","140,1,N,0010,1","99999,9,9,N","020000,1,N,1","-0008,1","-0072,1","09982,1","","","","","","","","06,99,1,02,1,00,1,99999,9,04,1,01,1","","","","","7,1,009,1,+999,9","","","SYN060AAXX  30061 31725 42998 61401 11008 21072 49982 57009 82041;",
"31725099999","2000-03-30T09:00:00","4","48.6166666","133.8333333","52.0","SMIDOVICH, RS","FM-12","99999","V020","140,1,N,0010,1","22000,1,9,N","020000,1,N,1","-0012,1","-0079,1","09983,1","99,0000,9,1","","","","","","","03,99,1,02,1,00,1,99999,9,04,1,01,1","","","999,M,+0002,1","","3,1,001,1,+999,9","","","SYN070AAXX  30091 31725 32998 31401 11012 21079 49983 53001 82041 333 10002;","Q01  00002PRCP99"
"31725099999","2000-03-30T12:00:00","4","48.6166666","133.8333333","52.0","SMIDOVICH, RS","FM-12","99999","V020","999,9,C,0000,1","99999,9,9,N","020000,1,N,1","-0026,1","-0071,1","09990,1","99,0000,9,1","","","","","","","07,99,1,07,1,00,1,99999,9,04,1,00,1","","","999,M,+0002,1","99999,9,09923,1","2,1,006,1,+999,9","","","SYN076AAXX  30121 31725 32998 70000 11026 21071 39923 49990 52006 87040 333 10002;","Q01  00002PRCP99"
"31725099999","2000-03-30T15:00:00","4","48.6166666","133.8333333","52.0","SMIDOVICH, RS","FM-12","99999","V020","050,1,N,0010,1","03600,1,9,N","020000,1,N,1","-0024,1","-0068,1","09992,1","","","","","","","","08,99,1,02,1,05,1,00800,1,04,1,99,9","","","","","2,1,003,1,+999,9","","","SYN060AAXX  30151 31725 42598 80501 11024 21068 49992 52003 8254/;",
"31725099999","2000-03-30T18:00:00","4","48.6166666","133.8333333","52.0","SMIDOVICH, RS","FM-12","99999","V020","020,1,N,0010,1","00420,1,9,N","020000,1,N,1","-0026,1","-0052,1","09992,1","","","","2,1,06,1","2,1,06,1","","","06,99,1,06,1,03,1,00450,1,00,1,00,1","","","","","8,1,001,1,+999,9","26,1","","SYN066AAXX  30181 31725 41498 60201 11026 21052 49992 58001 72622 86300;",
"31725099999","2000-03-30T21:00:00","4","48.6166666","133.8333333","52.0","SMIDOVICH, RS","FM-12","99999","V020","050,1,N,0010,1","00420,1,9,N","020000,1,N,1","-0040,1","-0074,1","09996,1","","","","","","","","08,99,1,07,1,03,1,00450,1,04,1,99,9","","","","","3,1,004,1,+999,9","","","SYN060AAXX  30211 31725 /2498 80501 11040 21074 49996 53004 8734/;",
"31725099999","2000-03-31T00:00:00","4","48.6166666","133.8333333","52.0","SMIDOVICH, RS","FM-12","99999","V020","090,1,N,0020,1","00420,1,9,N","020000,1,N,1","-0029,1","-0096,1","10008,1","00,0007,9,1","0000,9,1,999999,9,9","","","","","","08,99,1,06,1,03,1,00450,1,04,1,99,9","23,9","","120,N,-0040,1","99999,9,09941,1","2,1,012,1,+999,9","","","SYN088AAXX  31001 31725 12498 80902 11029 21096 39941 40008 52012 69900 8634/ 333 21040 47000;",
"31725099999","2000-03-31T03:00:00","4","48.6166666","133.8333333","52.0","SMIDOVICH, RS","FM-12","99999","V020","090,1,N,0040,1","00420,1,9,N","020000,1,N,1","+0003,1","-0094,1","10012,1","","","","","","","","06,99,1,06,1,03,1,00450,1,00,1,00,1","","","","","2,1,005,1,+999,9","","","SYN060AAXX  31031 31725 42498 60904 10003 21094 40012 52005 86300;",
"31725099999","2000-03-31T06:00:00","4","48.6166666","133.8333333","52.0","SMIDOVICH, RS","FM-12","99999","V020","140,1,N,0020,1","00420,1,9,N","020000,1,N,1","+0010,1","-0079,1","10012,1","","","","","","","","06,99,1,06,1,03,1,00450,1,00,1,00,1","","","","","4,1,000,1,+999,9","","","SYN060AAXX  31061 31725 42498 61402 10010 21079 40012 54000 86300;",
"31725099999","2000-03-31T12:00:00","4","48.6166666","133.8333333","52.0","SMIDOVICH, RS","FM-12","99999","V020","999,9,C,0000,1","22000,1,9,N","020000,1,N,1","-0028,1","-0077,1","10032,1","99,0000,9,1","","","","","","00,1,+99999,9,99,9","00,99,1,00,1,00,1,99999,9,00,1,00,1","","","999,M,+0021,1","99999,9,09965,1","2,1,016,1,+999,9","","","SYN070AAXX  31121 31725 32998 00000 11028 21077 39965 40032 52016 333 10021;","Q01  00002PRCP99"
"31725099999","2000-03-31T15:00:00","4","48.6166666","133.8333333","52.0","SMIDOVICH, RS","FM-12","99999","V020","999,9,C,0000,1","03600,1,9,N","020000,1,N,1","-0027,1","-0084,1","10043,1","","","","","","","","05,99,1,02,1,03,1,00450,1,04,1,00,1","","","","","2,1,011,1,+999,9","","","SYN060AAXX  31151 31725 42498 50000 11027 21084 40043 52011 82340;",
"31725099999","2000-03-31T18:00:00","4","48.6166666","133.8333333","52.0","SMIDOVICH, RS","FM-12","99999","V020","999,9,C,0000,1","03600,1,9,N","020000,1,N,1","-0035,1","-0083,1","10043,1","","","","","","","","05,99,1,02,1,03,1,00450,1,04,1,00,1","","","","","4,1,000,1,+999,9","","","SYN060AAXX  31181 31725 42498 50000 11035 21083 40043 54000 82340;",
"31725099999","2000-03-31T21:00:00","4","48.6166666","133.8333333","52.0","SMIDOVICH, RS","FM-12","99999","V020","180,1,N,0010,1","00420,1,9,N","020000,1,N,1","-0039,1","-0058,1","10055,1","99,0000,9,1","","","","","","","08,99,1,06,1,03,1,00450,1,04,1,99,9","","","","","3,1,012,1,+999,9","","","SYN060AAXX  31211 31725 32498 81801 11039 21058 40055 53012 8634/;","Q01  00002PRCP99"
"31725099999","2000-04-01T00:00:00","4","48.6166666","133.8333333","52.0","SMIDOVICH, RS","FM-12","99999","V020","999,9,C,0000,1","00420,1,9,N","020000,1,N,1","-0018,1","-0103,1","10070,1","99,0000,9,1","0000,9,1,999999,9,9","","8,1,06,1","2,1,06,1","","","08,99,1,06,1,03,1,00450,1,04,1,99,9","25,9","","120,N,-0042,1","99999,9,10004,1","2,1,016,1,+999,9","03,1","","SYN088AAXX  01001 31725 31498 80000 11018 21103 30004 4007/ 52016 70382 8634/ 333 21042 41000;","Q01  00002PRCP99"
"31725099999","2000-04-01T03:00:00","4","48.6166666","133.8333333","52.0","SMIDOVICH, RS","FM-12","99999","V020","160,1,N,0010,1","00420,1,9,N","020000,1,N,1","+0005,1","-0105,1","10082,1","","","","","","","","06,99,1,06,1,05,1,00450,1,04,1,00,1","","","","","2,1,011,1,+999,9","","","SYN060AAXX  01031 31725 42498 61601 10005 21105 40082 52011 86540;",
"31725099999","2000-04-01T06:00:00","4","48.6166666","133.8333333","52.0","SMIDOVICH, RS","FM-12","99999","V020","230,1,N,0020,1","99999,9,9,N","020000,1,N,1","+0008,1","-0085,1","10084,1","","","","","","","","05,99,1,03,1,00,1,99999,9,04,1,02,1","","","","","1,1,002,1,+999,9","","","SYN060AAXX  01061 31725 42998 52302 10008 21085 40084 51002 83042;",
"31725099999","2000-04-01T09:00:00","4","48.6166666","133.8333333","52.0","SMIDOVICH, RS","FM-12","99999","V020","180,1,N,0010,1","00420,1,9,N","020000,1,N,1","+0000,1","-0050,1","10091,1","","","","","","","","08,99,1,06,1,05,1,00450,1,04,1,99,9","","","999,M,+0017,1","","3,1,007,1,+999,9","","","SYN070AAXX  01091 31725 /2498 81801 10000 21050 40091 53007 8654/ 333 10017;",
"31725099999","2000-04-01T12:00:00","4","48.6166666","133.8333333","52.0","SMIDOVICH, RS","FM-12","99999","V020","270,1,N,0010,1","22000,1,9,N","020000,1,N,1","+0001,1","-0045,1","10109,1","00,0007,9,1","","","","","","00,1,+99999,9,99,9","00,99,1,00,1,00,1,99999,9,00,1,00,1","","","999,M,+0017,1","99999,9,10042,1","2,1,018,1,+999,9","","","SYN076AAXX  01121 31725 12998 02701 10001 21045 30042 40109 52018 69900 333 10017;",
"31725099999","2000-04-01T15:00:00","4","48.6166666","133.8333333","52.0","SMIDOVICH, RS","FM-12","99999","V020","270,1,N,0020,1","22000,1,9,N","020000,1,N,1","-0004,1","-0078,1","10127,1","","","","","","","00,1,+99999,9,99,9","00,99,1,00,1,00,1,99999,9,00,1,00,1","","","","","2,1,017,1,+999,9","","","SYN054AAXX  01151 31725 42998 02702 11004 21078 40127 52017;",
"31725099999","2000-04-01T18:00:00","4","48.6166666","133.8333333","52.0","SMIDOVICH, RS","FM-12","99999","V020","270,1,N,0010,1","22000,1,9,N","020000,1,N,1","-0038,1","-0091,1","10134,1","","","","","","","00,1,+99999,9,99,9","00,99,1,00,1,00,1,99999,9,00,1,00,1","","","","","2,1,007,1,+999,9","","","SYN054AAXX  01181 31725 42998 02701 11038 21091 40134 52007;",
"31725099999","2000-04-01T21:00:00","4","48.6166666","133.8333333","52.0","SMIDOVICH, RS","FM-12","99999","V020","230,1,N,0020,1","22000,1,9,N","020000,1,N,1","-0044,1","-0104,1","10143,1","99,0000,9,1","","","","","","","02,99,1,02,1,00,1,99999,9,04,1,00,1","","","","","2,1,009,1,+999,9","","","SYN060AAXX  01211 31725 32998 22302 11044 21104 40143 52009 82040;","Q01  00002PRCP99"
"31725099999","2000-04-02T00:00:00","4","48.6166666","133.8333333","52.0","SMIDOVICH, RS","FM-12","99999","V020","290,1,N,0030,1","22000,1,9,N","020000,1,N,1","-0024,1","-0116,1","10162,1","99,0000,9,1","","","","","","00,1,+99999,9,99,9","00,99,1,00,1,00,1,99999,9,00,1,00,1","","","999,N,-0054,1","99999,9,10094,1","2,1,019,1,+999,9","","","SYN070AAXX  02001 31725 32998 02903 11024 21116 30094 40162 52019 333 21054;","Q01  00002PRCP99"
"31725099999","2000-04-02T03:00:00","4","48.6166666","133.8333333","52.0","SMIDOVICH, RS","FM-12","99999","V020","250,1,N,0070,1","22000,1,9,N","050000,1,N,1","+0021,1","-0136,1","10166,1","","","","","","","00,1,+99999,9,99,9","00,99,1,00,1,00,1,99999,9,00,1,00,1","","","","","2,1,005,1,+999,9","","","SYN054AAXX  02031 31725 42999 02507 10021 21136 40166 52005;",
"31725099999","2000-04-02T06:00:00","4","48.6166666","133.8333333","52.0","SMIDOVICH, RS","FM-12","99999","V020","270,1,N,0070,1","22000,1,9,N","050000,1,N,1","+0042,1","-0135,1","10157,1","","","","","","","00,1,+99999,9,99,9","00,99,1,00,1,00,1,99999,9,00,1,00,1","","","","","8,1,008,1,+999,9","","","SYN064AAXX  02061 31725 42999 02707 10042 21135 40157 58008 333 91010;",
"31725099999","2000-04-02T09:00:00","4","48.6166666","133.8333333","52.0","SMIDOVICH, RS","FM-12","99999","V020","250,1,N,0010,1","22000,1,9,N","050000,1,N,1","+0036,1","-0136,1","10158,1","99,0000,9,1","","","","","","00,1,+99999,9,99,9","00,99,1,00,1,00,1,99999,9,00,1,00,1","","","999,M,+0048,1","","3,1,001,1,+999,9","","","SYN064AAXX  02091 31725 32999 02501 10036 21136 40158 53001 333 10048;","Q01  00002PRCP99"
"31725099999","2000-04-02T12:00:00","4","48.6166666","133.8333333","52.0","SMIDOVICH, RS","FM-12","99999","V020","999,9,C,0000,1","22000,1,9,N","050000,1,N,1","-0035,1","-0125,1","10170,1","99,0000,9,1","","","","","","00,1,+99999,9,99,9","00,99,1,00,1,00,1,99999,9,00,1,00,1","","","999,M,+0048,1","99999,9,10102,1","2,1,010,1,+999,9","","","SYN070AAXX  02121 31725 32999 00000 11035 21125 30102 40170 52010 333 10048;","Q01  00002PRCP99"
"31725099999","2000-04-02T15:00:00","4","48.6166666","133.8333333","52.0","SMIDOVICH, RS","FM-12","99999","V020","999,9,C,0000,1","22000,1,9,N","050000,1,N,1","-0046,1","-0133,1","10169,1","","","","","","","00,1,+99999,9,99,9","00,99,1,00,1,00,1,99999,9,00,1,00,1","","","","","8,1,002,1,+999,9","","","SYN054AAXX  02151 31725 42999 00000 11046 21133 40169 58002;",
"31725099999","2000-04-02T18:00:00","4","48.6166666","133.8333333","52.0","SMIDOVICH, RS","FM-12","99999","V020","999,9,C,0000,1","99999,9,9,N","050000,1,N,1","-0031,1","-0099,1","10154,1","99,0000,9,1","","","","","","","07,99,1,07,1,00,1,99999,9,04,1,99,9","","","","","7,1,014,1,+999,9","","","SYN060AAXX  02181 31725 32999 70000 11031 21099 40154 57014 8704/;","Q01  00002PRCP99"
"31725099999","2000-04-02T21:00:00","4","48.6166666","133.8333333","52.0","SMIDOVICH, RS","FM-12","99999","V020","999,9,C,0000,1","99999,9,9,N","020000,1,N,1","-0039,1","-0088,1","10136,1","99,0000,9,1","","","","","","","08,99,1,03,1,04,1,99999,9,99,9,99,9","","","","","7,1,018,1,+999,9","","","SYN060AAXX  02211 31725 32998 80000 11039 21088 40136 57018 834//;","Q01  00002PRCP99"
"31725099999","2000-04-03T00:00:00","4","48.6166666","133.8333333","52.0","SMIDOVICH, RS","FM-12","99999","V020","140,1,N,0030,1","99999,9,9,N","020000,1,N,1","+0006,1","-0071,1","10121,1","99,0000,9,1","","","","","","","08,99,1,02,1,00,1,99999,9,04,1,02,1","","","999,N,-0060,1","99999,9,10053,1","7,1,015,1,+999,9","","","SYN076AAXX  03001 31725 32998 81403 10006 21071 30053 40121 57015 82042 333 21060;","Q01  00002PRCP99"
"31725099999","2000-04-03T03:00:00","4","48.6166666","133.8333333","52.0","SMIDOVICH, RS","FM-12","99999","V020","050,1,N,0020,1","22000,1,9,N","020000,1,N,1","+0040,1","-0053,1","10119,1","","","","","","","","02,99,1,00,1,00,1,99999,9,00,1,01,1","","","","","4,1,000,1,+999,9","","","SYN060AAXX  03031 31725 42998 20502 10040 21053 40119 54000 80001;",
"31725099999","2000-04-03T06:00:00","4","48.6166666","133.8333333","52.0","SMIDOVICH, RS","FM-12","99999","V020","140,1,N,0030,1","22000,1,9,N","020000,1,N,1","+0048,1","-0055,1","10117,1","","","","","","","","02,99,1,00,1,00,1,99999,9,00,1,01,1","","","","","8,1,002,1,+999,9","","","SYN060AAXX  03061 31725 42998 21403 10048 21055 40117 58002 80001;",
"31725099999","2000-04-03T09:00:00","4","48.6166666","133.8333333","52.0","SMIDOVICH, RS","FM-12","99999","V020","200,1,N,0010,1","99999,9,9,N","020000,1,N,1","+0022,1","-0042,1","10115,1","99,0000,9,1","","","","","","","08,99,1,02,1,00,1,99999,9,04,1,06,1","","","999,M,+0053,1","","6,1,002,1,+999,9","","","SYN070AAXX  03091 31725 32998 82001 10022 21042 40115 56002 82046 333 10053;","Q01  00002PRCP99"
"31725099999","2000-04-03T12:00:00","4","48.6166666","133.8333333","52.0","SMIDOVICH, RS","FM-12","99999","V020","999,9,C,0000,1","99999,9,9,N","020000,1,N,1","-0018,1","-0048,1","10117,1","99,0000,9,1","","","","","","","06,99,1,02,1,00,1,99999,9,04,1,01,1","","","999,M,+0053,1","99999,9,10050,1","3,1,008,1,+999,9","","","SYN076AAXX  03121 31725 32998 60000 11018 21048 30050 40117 53008 82041 333 10053;","Q01  00002PRCP99"
"31725099999","2000-04-03T15:00:00","4","48.6166666","133.8333333","52.0","SMIDOVICH, RS","FM-12","99999","V020","070,1,N,0010,1","99999,9,9,N","020000,1,N,1","-0008,1","-0036,1","10104,1","","","","","","","","06,99,1,02,1,00,1,99999,9,04,1,01,1","","","","","8,1,013,1,+999,9","","","SYN060AAXX  03151 31725 42998 60701 11008 21036 40104 58013 82041;",
"31725099999","2000-04-03T18:00:00","4","48.6166666","133.8333333","52.0","SMIDOVICH, RS","FM-12","99999","V020","050,1,N,0040,1","00420,1,9,N","020000,1,N,1","-0006,1","-0034,1","10080,1","","","","","","","","08,99,1,06,1,03,1,00450,1,04,1,99,9","","","","","7,1,024,1,+999,9","","","SYN060AAXX  03181 31725 42498 80504 11006 21034 40080 57024 8634/;",
"31725099999","2000-04-03T21:00:00","4","48.6166666","133.8333333","52.0","SMIDOVICH, RS","FM-12","99999","V020","050,1,N,0020,1","00420,1,9,N","020000,1,N,1","-0002,1","-0033,1","10072,1","99,0000,9,1","","","","","","","08,99,1,06,1,03,1,00450,1,04,1,99,9","","","","","7,1,008,1,+999,9","","","SYN060AAXX  03211 31725 32498 80502 11002 21033 40072 57008 8634/;","Q01  00002PRCP99"
"31725099999","2000-04-04T00:00:00","4","48.6166666","133.8333333","52.0","SMIDOVICH, RS","FM-12","99999","V020","140,1,N,0020,1","00420,1,9,N","020000,1,N,1","+0024,1","-0051,1","10045,1","99,0000,9,1","","","","","","","08,99,1,08,1,03,1,00450,1,99,9,99,9","","","999,N,-0023,1","99999,9,09979,1","7,1,026,1,+999,9","","","SYN076AAXX  04001 31725 32498 81402 10024 21051 39979 40045 57026 883// 333 21023;","Q01  00002PRCP99"
"31725099999","2000-04-04T03:00:00","4","48.6166666","133.8333333","52.0","SMIDOVICH, RS","FM-12","99999","V020","180,1,N,0010,1","00420,1,9,N","020000,1,N,1","+0036,1","-0002,1","10028,1","","","","","","","","08,99,1,08,1,03,1,00450,1,99,9,99,9","","","","","7,1,017,1,+999,9","","","SYN060AAXX  04031 31725 42498 81801 10036 21002 40028 57017 883//;",
"31725099999","2000-04-04T06:00:00","4","48.6166666","133.8333333","52.0","SMIDOVICH, RS","FM-12","99999","V020","180,1,N,0020,1","00420,1,9,N","020000,1,N,1","+0045,1","+0000,1","10001,1","","","","","","","","08,99,1,08,1,03,1,00450,1,99,9,99,9","","","","","7,1,026,1,+999,9","","","SYN060AAXX  04061 31725 42498 81802 10045 20000 40001 57026 883//;",
"31725099999","2000-04-04T09:00:00","4","48.6166666","133.8333333","52.0","SMIDOVICH, RS","FM-12","99999","V020","230,1,N,0020,1","00420,1,9,N","010000,1,N,1","+0040,1","+0009,1","09974,1","","","","8,1,03,1","2,1,03,1","","","08,99,1,08,1,03,1,00450,1,99,9,99,9","","","999,M,+0055,1","","7,1,027,1,+999,9","80,1","","SYN076AAXX  04091 31725 /1497 82302 10040 20009 49974 57027 78082 883// 333 10055;",
"31725099999","2000-04-04T12:00:00","4","48.6166666","133.8333333","52.0","SMIDOVICH, RS","FM-12","99999","V020","200,1,N,0120,1","22000,1,9,N","020000,1,N,1","+0039,1","+0007,1","09965,1","00,0007,9,1","","","8,1,06,1","1,1,06,1","","","02,99,1,02,1,03,1,00450,1,00,1,00,1","","","120,M,+0055,1","99999,9,09900,1","7,1,009,1,+999,9","01,1","4,01,0120,1","SYN100AAXX  04121 31725 11498 22012 10039 20007 39900 49965 57009 69900 70181 82300 333 10055 91012 91117;",
"31725099999","2000-04-04T15:00:00","4","48.6166666","133.8333333","52.0","SMIDOVICH, RS","FM-12","99999","V020","200,1,N,0120,1","22000,1,9,N","020000,1,N,1","-0006,1","-0041,1","09989,1","","","","","","","00,1,+99999,9,99,9","00,99,1,00,1,00,1,99999,9,00,1,00,1","","","","","3,1,023,1,+999,9","","4,01,0120,1","SYN070AAXX  04151 31725 42998 02012 11006 21041 49989 53023 333 91012 91117;",
"31725099999","2000-04-04T18:00:00","4","48.6166666","133.8333333","52.0","SMIDOVICH, RS","FM-12","99999","V020","230,1,N,0080,1","22000,1,9,N","020000,1,N,1","-0022,1","-0054,1","10007,1","","","","","","","00,1,+99999,9,99,9","00,99,1,00,1,00,1,99999,9,00,1,00,1","","","","","2,1,018,1,+999,9","","","SYN064AAXX  04181 31725 42998 02308 11022 21054 40007 52018 333 91114;",
"31725099999","2000-04-04T21:00:00","4","48.6166666","133.8333333","52.0","SMIDOVICH, RS","FM-12","99999","V020","230,1,N,0060,1","00420,1,9,N","020000,1,N,1","-0034,1","-0066,1","10018,1","","","","","","","","06,99,1,05,1,03,1,00450,1,04,1,00,1","","","","","2,1,010,1,+999,9","","","SYN060AAXX  04211 31725 /2498 62306 11034 21066 40018 52010 85340;",
"31725099999","2000-04-05T00:00:00","4","48.6166666","133.8333333","52.0","SMIDOVICH, RS","FM-12","99999","V020","230,1,N,0060,1","99999,9,9,N","050000,1,N,1","-0011,1","-0077,1","10032,1","00,0007,9,1","","","","","","","06,99,1,06,1,00,1,99999,9,04,1,00,1","","","999,N,-0034,1","99999,9,09965,1","2,1,014,1,+999,9","","","SYN082AAXX  05001 31725 12999 62306 11011 21077 39965 40032 52014 69900 86040 333 21034;",
"31725099999","2000-04-05T03:00:00","4","48.6166666","133.8333333","52.0","SMIDOVICH, RS","FM-12","99999","V020","230,1,N,0050,1","22000,1,9,N","050000,1,N,1","+0021,1","-0081,1","10031,1","","","","","","","","03,99,1,02,1,00,1,99999,9,04,1,02,1","","","","","4,1,000,1,+999,9","","","SYN060AAXX  05031 31725 42999 32305 10021 21081 40031 54000 82042;",
"31725099999","2000-04-05T06:00:00","4","48.6166666","133.8333333","52.0","SMIDOVICH, RS","FM-12","99999","V020","230,1,N,0050,1","22000,1,9,N","050000,1,N,1","+0036,1","-0084,1","10032,1","","","","","","","","02,99,1,99,9,99,9,99999,9,99,9,99,9","","","","","3,1,001,1,+999,9","","","SYN054AAXX  05061 31725 42999 22305 10036 21084 40032 53001;",
"31725099999","2000-04-05T09:00:00","4","48.6166666","133.8333333","52.0","SMIDOVICH, RS","FM-12","99999","V020","230,1,N,0010,1","22000,1,9,N","050000,1,N,1","+0025,1","-0107,1","10033,1","99,0000,9,1","","","","","","","04,99,1,03,1,05,1,99999,9,04,1,02,1","","","999,M,+0045,1","","1,1,001,1,+999,9","","","SYN070AAXX  05091 31725 32999 42301 10025 21107 40033 51001 83542 333 10045;","Q01  00002PRCP99"
"31725099999","2000-04-05T12:00:00","4","48.6166666","133.8333333","52.0","SMIDOVICH, RS","FM-12","99999","V020","999,9,C,0000,1","22000,1,9,N","050000,1,N,1","-0013,1","-0045,1","10155,2","99,0000,9,1","","","","","","","02,99,1,02,1,00,1,99999,9,04,1,00,1","","","999,M,+0045,1","99999,9,10087,1","3,1,012,1,+999,9","","","SYN076AAXX  05121 31725 32999 20000 11013 21045 30087 40155 53012 82040 333 10045;","Q01+101553APOSLPQ02  00002PRCP99"
"31725099999","2000-04-05T15:00:00","4","48.6166666","133.8333333","52.0","SMIDOVICH, RS","FM-12","99999","V020","999,9,9,9999,9","22000,1,9,N","000200,1,N,1","-0030,1","-0054,1","10167,1","","","","","","","00,1,+99999,9,99,9","00,99,1,00,1,00,1,99999,9,00,1,00,1","","","","","2,1,012,1,+999,9","","","SYN060AAXX  05151 31725 42992 0000/ 11030 21054 40167 52012 82040;",
"31725099999","2000-04-05T18:00:00","4","48.6166666","133.8333333","52.0","SMIDOVICH, RS","FM-12","99999","V020","999,9,C,0000,1","22000,1,9,N","050000,1,N,1","-0044,1","-0091,1","10155,1","","","","","","","","02,99,1,02,1,00,1,99999,9,04,1,00,1","","","","","8,1,011,1,+999,9","","","SYN060AAXX  05181 31725 42999 20000 11044 21091 40155 58011 82040;",
"31725099999","2000-04-05T21:00:00","4","48.6166666","133.8333333","52.0","SMIDOVICH, RS","FM-12","99999","V020","270,1,N,0020,1","00420,1,9,N","020000,1,N,1","-0028,1","-0051,1","10160,1","","","","1,1,03,1","1,1,03,1","","","08,99,1,08,1,03,1,00450,1,99,9,99,9","","","","","3,1,005,1,+999,9","26,1","","SYN066AAXX  05211 31725 11498 82702 11028 21051 40160 53005 72611 883//;",
"31725099999","2000-04-06T00:00:00","4","48.6166666","133.8333333","52.0","SMIDOVICH, RS","FM-12","99999","V020","050,1,N,0020,1","99999,9,9,N","020000,1,N,1","-0015,1","-0045,1","10079,1","00,0007,9,1","","","2,1,06,1","8,1,06,1","","","08,99,1,03,1,99,9,00450,1,99,9,99,9","","","999,N,-0045,1","99999,9,10012,1","2,1,020,1,+999,9","28,1","","SYN088AAXX  06001 31725 11498 80502 11015 21045 30012 40079 52020 69900 72828 83/// 333 21045;",
"31725099999","2000-04-06T03:00:00","4","48.6166666","133.8333333","52.0","SMIDOVICH, RS","FM-12","99999","V020","230,1,N,0040,1","22000,1,9,N","020000,1,N,1","+0020,1","-0073,1","10078,1","","","","","","","","02,99,1,02,1,05,1,00450,1,00,1,00,1","","","","","4,1,000,1,+999,9","","","SYN060AAXX  06031 31725 42498 22304 10020 21073 40078 54000 82500;",
"31725099999","2000-04-06T06:00:00","4","48.6166666","133.8333333","52.0","SMIDOVICH, RS","FM-12","99999","V020","230,1,N,0020,1","22000,1,9,N","020000,1,N,1","+0034,1","-0078,1","10078,1","","","","","","","00,1,+99999,9,99,9","00,99,1,00,1,00,1,99999,9,00,1,00,1","","","","","4,1,000,1,+999,9","","","SYN054AAXX  06061 31725 42998 02302 10034 21078 40078 54000;",
"31725099999","2000-04-06T09:00:00","4","48.6166666","133.8333333","52.0","SMIDOVICH, RS","FM-12","99999","V020","230,1,N,0010,1","22000,1,9,N","050000,1,N,1","+0031,1","-0083,1","10072,1","","","","","","","00,1,+99999,9,99,9","00,99,1,00,1,00,1,99999,9,00,1,00,1","","","999,M,+0048,1","","8,1,006,1,+999,9","","","SYN064AAXX  06091 31725 /2999 02301 10031 21083 40072 58006 333 10048;",
"31725099999","2000-04-06T12:00:00","4","48.6166666","133.8333333","52.0","SMIDOVICH, RS","FM-12","99999","V020","230,1,N,0010,1","22000,1,9,N","050000,1,N,1","-0016,1","-0081,1","10087,1","00,0007,9,1","","","","","","00,1,+99999,9,99,9","00,99,1,00,1,00,1,99999,9,00,1,00,1","","","999,M,+0048,1","99999,9,10020,1","3,1,014,1,+999,9","","","SYN076AAXX  06121 31725 12999 02301 11016 21081 30020 40087 53014 69900 333 10048;",
"31725099999","2000-04-06T18:00:00","4","48.6166666","133.8333333","52.0","SMIDOVICH, RS","FM-12","99999","V020","999,9,C,0000,1","00420,1,9,N","020000,1,N,1","-0045,1","-0061,1","10084,1","","","","","","","","08,99,1,08,1,03,1,00450,1,99,9,99,9","","","","","8,1,004,1,+999,9","","","SYN060AAXX  06181 31725 42498 80000 11045 21061 40084 58004 883//;",
"31725099999","2000-04-06T21:00:00","4","48.6166666","133.8333333","52.0","SMIDOVICH, RS","FM-12","99999","V020","999,9,C,0000,1","00420,1,9,N","020000,1,N,1","-0041,1","-0053,1","10072,1","99,0000,9,1","","","","","","","08,99,1,05,1,03,1,00450,1,04,1,99,9","","","","","7,1,011,1,+999,9","","","SYN060AAXX  06211 31725 32498 80000 11041 21053 40072 57011 8534/;","Q01  00002PRCP99"
"31725099999","2000-04-07T00:00:00","4","48.6166666","133.8333333","52.0","SMIDOVICH, RS","FM-12","99999","V020","050,1,N,0010,1","00420,1,9,N","020000,1,N,1","+9999,9","+9999,9","99999,9","","","","","","","","08,99,1,05,1,03,1,00450,1,04,1,99,9","","","999,N,-0050,1","","6,1,002,1,+999,9","","","SYN052AAXX  07001 31725 42498 80501 56002 8534/ 333 21050;",
"31725099999","2000-04-07T03:00:00","4","48.6166666","133.8333333","52.0","SMIDOVICH, RS","FM-12","99999","V020","050,1,N,0030,1","03600,1,9,N","020000,1,N,1","+0036,1","-0066,1","10056,1","","","","","","","","08,99,1,02,1,03,1,00450,1,04,1,06,1","","","","","8,1,013,1,+999,9","","","SYN060AAXX  07031 31725 42498 80503 10036 21066 40056 58013 82346;",
"31725099999","2000-04-07T06:00:00","4","48.6166666","133.8333333","52.0","SMIDOVICH, RS","FM-12","99999","V020","020,1,N,0030,1","03600,1,9,N","020000,1,N,1","+0054,1","-0120,1","10043,1","","","","","","","","08,99,1,01,1,04,1,00800,1,04,1,06,1","","","","","7,1,013,1,+999,9","","","SYN060AAXX  07061 31725 42598 80203 10054 21120 40043 57013 81446;",
"31725099999","2000-04-07T09:00:00","4","48.6166666","133.8333333","52.0","SMIDOVICH, RS","FM-12","99999","V020","999,9,C,0000,1","03600,1,9,N","020000,1,N,1","+0054,1","-0097,1","10043,1","99,0000,9,1","","","","","","","06,99,1,02,1,04,1,00800,1,04,1,01,1","","","999,M,+0058,1","","4,1,000,1,+999,9","","","SYN070AAXX  07091 31725 32598 60000 10054 21097 40043 54000 82441 333 10058;","Q01  00002PRCP99"
"31725099999","2000-04-07T12:00:00","4","48.6166666","133.8333333","52.0","SMIDOVICH, RS","FM-12","99999","V020","290,1,N,0010,1","22000,1,9,N","050000,1,N,1","-0006,1","-0076,1","10058,1","99,0000,9,1","","","","","","00,1,+99999,9,99,9","00,99,1,00,1,00,1,99999,9,00,1,00,1","","","999,M,+0058,1","99999,9,09991,1","3,1,014,1,+999,9","","","SYN070AAXX  07121 31725 32999 02901 11006 21076 39991 40058 53014 333 10058;","Q01  00002PRCP99"
"31725099999","2000-04-07T15:00:00","4","48.6166666","133.8333333","52.0","SMIDOVICH, RS","FM-12","99999","V020","270,1,N,0010,1","22000,1,9,N","050000,1,N,1","-0014,1","-0100,1","10070,1","","","","","","","00,1,+99999,9,99,9","00,99,1,00,1,00,1,99999,9,00,1,00,1","","","","","2,1,012,1,+999,9","","","SYN054AAXX  07151 31725 42999 02701 11014 21100 40070 52012;",
"31725099999","2000-04-07T18:00:00","4","48.6166666","133.8333333","52.0","SMIDOVICH, RS","FM-12","99999","V020","290,1,N,0020,1","22000,1,9,N","050000,1,N,1","-0012,1","-0106,1","10085,1","","","","","","","","02,99,1,02,1,00,1,99999,9,04,1,02,1","","","","","2,1,015,1,+999,9","","","SYN060AAXX  07181 31725 42999 22902 11012 21106 40085 52015 82042;",
"31725099999","2000-04-07T21:00:00","4","48.6166666","133.8333333","52.0","SMIDOVICH, RS","FM-12","99999","V020","290,1,N,0020,1","22000,1,9,N","050000,1,N,1","-0020,1","-0115,1","10107,1","99,0000,9,1","","","","","","","01,99,1,00,1,00,1,99999,9,00,1,01,1","","","","","2,1,022,1,+999,9","","","SYN060AAXX  07211 31725 32999 12902 11020 21115 40107 52022 80001;","Q01  00002PRCP99"
"31725099999","2000-04-08T00:00:00","4","48.6166666","133.8333333","52.0","SMIDOVICH, RS","FM-12","99999","V020","320,1,N,0020,1","99999,9,9,N","020000,1,N,1","+0041,1","-0075,1","10121,1","99,0000,9,1","","","","","","","08,99,1,00,1,00,1,99999,9,00,1,02,1","","","999,N,-0027,1","99999,9,10055,1","2,1,015,1,+999,9","","","SYN076AAXX  08001 31725 32998 83202 10041 21075 30055 40121 52015 80002 333 21027;","Q01  00002PRCP99"
"31725099999","2000-04-08T03:00:00","4","48.6166666","133.8333333","52.0","SMIDOVICH, RS","FM-12","99999","V020","250,1,N,0040,1","99999,9,9,N","050000,1,N,1","+0057,1","-0085,1","10128,1","","","","","","","","08,99,1,03,1,04,1,99999,9,00,1,02,1","","","","","2,1,007,1,+999,9","","","SYN060AAXX  08031 31725 42999 82504 10057 21085 40128 52007 83402;",
"31725099999","2000-04-08T06:00:00","4","48.6166666","133.8333333","52.0","SMIDOVICH, RS","FM-12","99999","V020","200,1,N,0060,1","99999,9,9,N","050000,1,N,1","+0088,1","-0064,1","10114,1","","","","","","","","06,99,1,03,1,04,1,99999,9,04,1,02,1","","","","","8,1,013,1,+999,9","","","SYN070AAXX  08061 31725 42999 62006 10088 21064 40114 58013 83442 333 91010;",
"31725099999","2000-04-08T09:00:00","4","48.6166666","133.8333333","52.0","SMIDOVICH, RS","FM-12","99999","V020","230,1,N,0020,1","99999,9,9,N","020000,1,N,1","+0057,1","-0058,1","10105,1","99,0000,9,1","","","","","","","06,99,1,03,1,04,1,99999,9,04,1,02,1","","","999,M,+0097,1","","7,1,009,1,+999,9","","","SYN070AAXX  08091 31725 32998 62302 10057 21058 40105 57009 83442 333 10097;","Q01  00002PRCP99"
"31725099999","2000-04-08T12:00:00","4","48.6166666","133.8333333","52.0","SMIDOVICH, RS","FM-12","99999","V020","230,1,N,0020,1","99999,9,9,N","020000,1,N,1","+0025,1","-0049,1","10112,1","99,0000,9,1","","","","","","","08,99,1,00,1,00,1,99999,9,00,1,02,1","","","999,M,+0097,1","99999,9,10046,1","3,1,006,1,+999,9","","","SYN076AAXX  08121 31725 32998 82302 10025 21049 30046 40112 53006 80002 333 10097;","Q01  00002PRCP99"
"31725099999","2000-04-08T15:00:00","4","48.6166666","133.8333333","52.0","SMIDOVICH, RS","FM-12","99999","V020","140,1,N,0030,1","99999,9,9,N","020000,1,N,1","+0016,1","-0035,1","10116,1","","","","","","","","08,99,1,05,1,04,1,99999,9,00,1,02,1","","","","","2,1,004,1,+999,9","","","SYN060AAXX  08151 31725 42998 81403 10016 21035 40116 52004 85402;",
"31725099999","2000-04-08T18:00:00","4","48.6166666","133.8333333","52.0","SMIDOVICH, RS","FM-12","99999","V020","140,1,N,0020,1","99999,9,9,N","020000,1,N,1","-0006,1","-0044,1","10111,1","","","","","","","","05,99,1,05,1,04,1,99999,9,00,1,02,1","","","","","8,1,006,1,+999,9","","","SYN060AAXX  08181 31725 42998 51402 11006 21044 40111 58006 85402;",
"31725099999","2000-04-08T21:00:00","4","48.6166666","133.8333333","52.0","SMIDOVICH, RS","FM-12","99999","V020","140,1,N,0010,1","00750,1,9,N","020000,1,N,1","+0001,1","-0043,1","10091,1","99,0000,9,1","","","","","","","08,99,1,05,1,04,1,00800,1,04,1,02,1","","","999,N,-0015,1","","7,1,020,1,+999,9","","","SYN070AAXX  08211 31725 32598 81401 10001 21043 40091 57020 85442 333 21015;","Q01  00002PRCP99"
"31725099999","2000-04-09T00:00:00","4","48.6166666","133.8333333","52.0","SMIDOVICH, RS","FM-12","99999","V020","140,1,N,0040,1","99999,9,9,N","020000,1,N,1","+0036,1","-0041,1","10083,1","99,0000,9,1","","","","","","","08,99,1,07,1,00,1,99999,9,04,1,99,9","","","999,N,-0015,1","99999,9,10017,1","7,1,007,1,+999,9","","","SYN076AAXX  09001 31725 32998 81404 10036 21041 30017 40083 57007 8704/ 333 21015;","Q01  00002PRCP99"
"31725099999","2000-04-09T03:00:00","4","48.6166666","133.8333333","52.0","SMIDOVICH, RS","FM-12","99999","V020","160,1,N,0060,1","99999,9,9,N","020000,1,N,1","+0081,1","-0038,1","10072,1","","","","","","","","08,99,1,07,1,00,1,99999,9,04,1,99,9","","","","","7,1,011,1,+999,9","","","SYN060AAXX  09031 31725 42998 81606 10081 21038 40072 57011 8704/;",
"31725099999","2000-04-09T06:00:00","4","48.6166666","133.8333333","52.0","SMIDOVICH, RS","FM-12","99999","V020","160,1,N,0040,1","99999,9,9,N","020000,1,N,1","+0098,1","-0005,1","10063,1","","","","","","","","08,99,1,07,1,00,1,99999,9,04,1,99,9","","","","","7,1,008,1,+999,9","","","SYN060AAXX  09061 31725 42998 81604 10098 21005 40063 57008 8704/;",
"31725099999","2000-04-09T09:00:00","4","48.6166666","133.8333333","52.0","SMIDOVICH, RS","FM-12","99999","V020","160,1,N,0040,1","99999,9,9,N","020000,1,N,1","+0075,1","+0004,1","10063,1","99,0000,9,1","","","","","","","08,99,1,07,1,00,1,99999,9,04,1,99,9","","","999,M,+0104,1","","6,1,001,1,+999,9","","","SYN070AAXX  09091 31725 32998 81604 10075 20004 40063 56001 8704/ 333 10104;","Q01  00002PRCP99"
"31725099999","2000-04-09T12:00:00","4","48.6166666","133.8333333","52.0","SMIDOVICH, RS","FM-12","99999","V020","999,9,C,0000,1","99999,9,9,N","020000,1,N,1","+0039,1","+0011,1","10067,1","99,0000,9,1","","","","","","","08,99,1,07,1,00,1,99999,9,04,1,99,9","","","999,M,+0104,1","99999,9,10001,1","3,1,003,1,+999,9","","","SYN076AAXX  09121 31725 32998 80000 10039 20011 30001 40067 53003 8704/ 333 10104;","Q01  00002PRCP99"
"31725099999","2000-04-09T15:00:00","4","48.6166666","133.8333333","52.0","SMIDOVICH, RS","FM-12","99999","V020","999,9,C,0000,1","99999,9,9,N","020000,1,N,1","+0028,1","+0012,1","10051,1","","","","","","","","08,99,1,07,1,00,1,99999,9,04,1,99,9","","","","","8,1,016,1,+999,9","","","SYN060AAXX  09151 31725 42998 80000 10028 20012 40051 58016 8704/;",
"31725099999","2000-04-09T18:00:00","4","48.6166666","133.8333333","52.0","SMIDOVICH, RS","FM-12","99999","V020","999,9,C,0000,1","99999,9,9,N","020000,1,N,1","+0016,1","+0005,1","10040,1","","","","","","","","08,99,1,07,1,00,1,99999,9,04,1,99,9","","","","","7,1,011,1,+999,9","","","SYN060AAXX  09181 31725 42998 80000 10016 20005 40040 57011 8704/;",
"31725099999","2000-04-09T21:00:00","4","48.6166666","133.8333333","52.0","SMIDOVICH, RS","FM-12","99999","V020","230,1,N,0010,1","99999,9,9,N","020000,1,N,1","+0019,1","+0008,1","10041,1","99,0000,9,1","","","","","","","08,99,1,07,1,00,1,99999,9,04,1,99,9","","","","","3,1,001,1,+999,9","","","SYN060AAXX  09211 31725 32998 82301 10019 20008 40041 53001 8704/;","Q01  00002PRCP99"
"31725099999","2000-04-10T00:00:00","4","48.6166666","133.8333333","52.0","SMIDOVICH, RS","FM-12","99999","V020","999,9,C,0000,1","00420,1,9,N","004000,1,N,1","+0015,1","+0001,1","10037,1","99,0000,2,1","","","8,1,06,1","2,1,06,1","","","08,99,1,08,1,03,1,00450,1,99,9,99,9","","","999,N,+0013,1","99999,9,09971,1","8,1,004,1,+999,9","85,1","","SYN082AAXX  10001 31725 31496 80000 10015 20001 39971 40037 58004 78582 883// 333 20013;",
"31725099999","2000-04-10T03:00:00","4","48.6166666","133.8333333","52.0","SMIDOVICH, RS","FM-12","99999","V020","180,1,N,0010,1","00420,1,9,N","004000,1,N,1","+0026,1","+0008,1","10028,1","","","","8,1,03,1","2,1,03,1","","","08,99,1,08,1,03,1,00450,1,99,9,99,9","","","","","7,1,009,1,+999,9","80,1","","SYN066AAXX  10031 31725 41496 81801 10026 20008 40028 57009 78082 883//;",
"31725099999","2000-04-10T06:00:00","4","48.6166666","133.8333333","52.0","SMIDOVICH, RS","FM-12","99999","V020","270,1,N,0010,1","00420,1,9,N","020000,1,N,1","+0027,1","+0011,1","10005,1","","","","8,1,06,1","2,1,06,1","","","08,99,1,08,1,03,1,00450,1,99,9,99,9","","","","","7,1,022,1,+999,9","02,1","","SYN066AAXX  10061 31725 41498 82701 10027 20011 40005 57022 70282 883//;",
"31725099999","2000-04-10T09:00:00","4","48.6166666","133.8333333","52.0","SMIDOVICH, RS","FM-12","99999","V020","320,1,N,0020,1","00420,1,9,N","004000,1,N,1","+0019,1","+0006,1","09981,1","","","","8,1,03,1","2,1,03,1","","","08,99,1,08,1,03,1,00450,1,99,9,99,9","","","999,M,+0031,1","","7,1,024,1,+999,9","80,1","","SYN076AAXX  10091 31725 /1496 83202 10019 20006 49981 57024 78082 883// 333 10031;",
"31725099999","2000-04-10T12:00:00","4","48.6166666","133.8333333","52.0","SMIDOVICH, RS","FM-12","99999","V020","270,1,N,0020,1","00420,1,9,N","004000,1,N,1","+0016,1","+0016,1","09972,1","00,0020,9,1","","","8,1,06,1","2,1,06,1","","","08,99,1,08,1,03,1,00450,1,99,9,99,9","","","999,M,+0031,1","99999,9,09907,1","7,1,009,1,+999,9","81,1","","SYN088AAXX  10121 31725 11496 82702 10016 20016 39907 49972 57009 60020 78182 883// 333 10031;",
"31725099999","2000-04-10T15:00:00","4","48.6166666","133.8333333","52.0","SMIDOVICH, RS","FM-12","99999","V020","230,1,N,0020,1","99999,9,9,N","020000,1,N,1","+0013,1","+0010,1","09939,1","","","","8,1,03,1","2,1,03,1","","09,1,+99999,9,99,9","09,99,1,09,1,99,9,99999,9,99,9,99,9","","","","","7,1,034,1,+999,9","25,1","","SYN066AAXX  10151 31725 41498 92302 10013 20010 49939 57034 72582 883//;",
"31725099999","2000-04-10T18:00:00","4","48.6166666","133.8333333","52.0","SMIDOVICH, RS","FM-12","99999","V020","230,1,N,0020,1","00420,1,9,N","004000,1,N,1","+0031,1","+0028,1","09908,1","","","","8,1,06,1","2,1,06,1","","","08,99,1,08,1,03,1,00450,1,99,9,99,9","","","","","7,1,029,1,+999,9","80,1","","SYN066AAXX  10181 31725 41496 82302 10031 20028 49908 57029 78082 883//;",
"31725099999","2000-04-10T21:00:00","4","48.6166666","133.8333333","52.0","SMIDOVICH, RS","FM-12","99999","V020","320,1,N,0020,1","00420,1,9,N","004000,1,N,1","+0034,1","+0029,1","09891,1","","","","8,1,03,1","2,1,03,1","","","08,99,1,08,1,03,1,00450,1,99,9,99,9","","","","","7,1,017,1,+999,9","81,1","","SYN066AAXX  10211 31725 /1496 83202 10034 20029 49891 57017 78182 883//;",
"31725099999","2000-04-11T00:00:00","4","48.6166666","133.8333333","52.0","SMIDOVICH, RS","FM-12","99999","V020","050,1,N,0040,1","00420,1,9,N","004000,1,N,1","+0036,1","+0013,1","09884,1","00,0191,9,1","","","8,1,06,1","2,1,06,1","","","08,99,1,08,1,03,1,00450,1,99,9,99,9","","","999,N,+0012,1","99999,9,09820,1","7,1,007,1,+999,9","80,1","","SYN088AAXX  11001 31725 11496 80504 10036 20013 39820 49884 57007 60190 78082 883// 333 20012;",
"31725099999","2000-04-11T03:00:00","4","48.6166666","133.8333333","52.0","SMIDOVICH, RS","FM-12","99999","V020","050,1,N,0080,1","00420,1,9,N","020000,1,N,1","+0071,1","-0017,1","09888,1","","","","8,1,03,1","2,1,03,1","","","08,99,1,07,1,03,1,00450,1,04,1,99,9","","","","","3,1,004,1,+999,9","01,1","","SYN076AAXX  11031 31725 41498 80508 10071 21017 49888 53004 70182 8734/ 333 91114;",
"31725099999","2000-04-11T06:00:00","4","48.6166666","133.8333333","52.0","SMIDOVICH, RS","FM-12","99999","V020","050,1,N,0050,1","00420,1,9,N","020000,1,N,1","+0070,1","+0000,1","09910,1","","","","8,1,06,1","2,1,06,1","","","08,99,1,07,1,03,1,00450,1,04,1,99,9","","","","","2,1,022,1,+999,9","25,1","","SYN076AAXX  11061 31725 41498 80505 10070 21000 49910 52022 72582 8734/ 333 91110;",
"31725099999","2000-04-11T09:00:00","4","48.6166666","133.8333333","52.0","SMIDOVICH, RS","FM-12","99999","V020","230,1,N,0020,1","00420,1,9,N","020000,1,N,1","+0040,1","+0012,1","09947,1","","","","","","","","08,99,1,07,1,03,1,00450,1,04,1,99,9","","","999,M,+0089,1","","2,1,036,1,+999,9","","","SYN070AAXX  11091 31725 /2498 82302 10040 20012 49947 52036 8734/ 333 10089;",
"31725099999","2000-04-11T12:00:00","4","48.6166666","133.8333333","52.0","SMIDOVICH, RS","FM-12","99999","V020","050,1,N,0030,1","03600,1,9,N","020000,1,N,1","+0037,1","+0019,1","09967,1","00,0030,9,1","","","","","","","08,99,1,01,1,04,1,00800,1,04,1,02,1","","","999,M,+0089,1","99999,9,09902,1","2,1,020,1,+999,9","","","SYN082AAXX  11121 31725 12598 80503 10037 20019 39902 49967 52020 60030 81442 333 10089;",
"31725099999","2000-04-11T15:00:00","4","48.6166666","133.8333333","52.0","SMIDOVICH, RS","FM-12","99999","V020","050,1,N,0030,1","00420,1,9,N","020000,1,N,1","+0042,1","-0008,1","09976,1","","","","","","","","08,99,1,07,1,03,1,00450,1,04,1,99,9","","","","","2,1,009,1,+999,9","","","SYN060AAXX  11151 31725 42498 80503 10042 21008 49976 52009 8734/;",
"31725099999","2000-04-11T18:00:00","4","48.6166666","133.8333333","52.0","SMIDOVICH, RS","FM-12","99999","V020","360,1,N,0030,1","03600,1,9,N","020000,1,N,1","+0042,1","+0000,1","09971,1","","","","","","","","08,99,1,04,1,03,1,00450,1,04,1,99,9","","","","","8,1,005,1,+999,9","","","SYN060AAXX  11181 31725 42498 83603 10042 21000 49971 58005 8434/;",
"31725099999","2000-04-11T21:00:00","4","48.6166666","133.8333333","52.0","SMIDOVICH, RS","FM-12","99999","V020","320,1,N,0010,1","00420,1,9,N","050000,1,N,1","+0038,1","+0001,1","09969,1","99,0000,9,1","","","","","","","08,99,1,07,1,03,1,00450,1,04,1,99,9","","","","","6,1,002,1,+999,9","","","SYN060AAXX  11211 31725 32499 83201 10038 20001 49969 56002 8734/;","Q01  00002PRCP99"
"31725099999","2000-04-12T00:00:00","4","48.6166666","133.8333333","52.0","SMIDOVICH, RS","FM-12","99999","V020","320,1,N,0010,1","00420,1,9,N","020000,1,N,1","+0076,1","+0011,1","09956,1","99,0000,9,1","","","","","","","08,99,1,05,1,03,1,00450,1,04,1,99,9","","","999,N,+0035,1","99999,9,09892,1","8,1,012,1,+999,9","","","SYN076AAXX  12001 31725 32498 83201 10076 20011 39892 49956 58012 8534/ 333 20035;","Q01  00002PRCP99"
"31725099999","2000-04-12T03:00:00","4","48.6166666","133.8333333","52.0","SMIDOVICH, RS","FM-12","99999","V020","050,1,N,0090,1","00420,1,9,N","020000,1,N,1","+0063,1","-0012,1","09953,1","","","","","","","","08,99,1,06,1,03,1,00450,1,04,1,99,9","","","","","7,1,003,1,+999,9","","","SYN070AAXX  12031 31725 42498 80509 10063 21012 49953 57003 8634/ 333 91017;",
"31725099999","2000-04-12T06:00:00","4","48.6166666","133.8333333","52.0","SMIDOVICH, RS","FM-12","99999","V020","050,1,N,0090,1","00420,1,9,N","020000,1,N,1","+0082,1","-0014,1","09953,1","","","","","","","","08,99,1,08,1,03,1,00450,1,99,9,99,9","","","","","4,1,000,1,+999,9","","","SYN070AAXX  12061 31725 42498 80509 10082 21014 49953 54000 883// 333 91015;",
"31725099999","2000-04-12T09:00:00","4","48.6166666","133.8333333","52.0","SMIDOVICH, RS","FM-12","99999","V020","050,1,N,0080,1","09000,1,9,N","020000,1,N,1","+0059,1","-0024,1","09971,1","99,0000,9,1","","","","","","","08,99,1,03,1,05,1,00450,1,00,1,02,1","","","120,M,+0086,1","","3,1,018,1,+999,9","","","SYN076AAXX  12091 31725 32498 80508 10059 21024 49971 53018 83502 333 10086 91010;","Q01  00002PRCP99"
"31725099999","2000-04-12T12:00:00","4","48.6166666","133.8333333","52.0","SMIDOVICH, RS","FM-12","99999","V020","050,1,N,0040,1","00420,1,9,N","020000,1,N,1","+0025,1","-0021,1","09995,1","99,0000,9,1","","","","","","","06,99,1,06,1,05,1,00450,1,00,1,00,1","","","999,M,+0086,1","99999,9,09930,1","2,1,023,1,+999,9","","","SYN076AAXX  12121 31725 32498 60504 10025 21021 39930 49995 52023 86500 333 10086;","Q01  00002PRCP99"
"31725099999","2000-04-12T15:00:00","4","48.6166666","133.8333333","52.0","SMIDOVICH, RS","FM-12","99999","V020","050,1,N,0020,1","22000,1,9,N","020000,1,N,1","+0018,1","-0047,1","10010,1","","","","","","","","03,99,1,03,1,00,1,99999,9,04,1,00,1","","","","","2,1,015,1,+999,9","","","SYN060AAXX  12151 31725 42998 30502 10018 21047 40010 52015 83040;",
"31725099999","2000-04-12T18:00:00","4","48.6166666","133.8333333","52.0","SMIDOVICH, RS","FM-12","99999","V020","050,1,N,0010,1","22000,1,9,N","020000,1,N,1","+0000,1","-0044,1","10019,1","","","","","","","","03,99,1,03,1,00,1,99999,9,04,1,00,1","","","","","2,1,007,1,+999,9","","","SYN060AAXX  12181 31725 42998 30501 10000 21044 40019 52007 83040;",
"31725099999","2000-04-12T21:00:00","4","48.6166666","133.8333333","52.0","SMIDOVICH, RS","FM-12","99999","V020","050,1,N,0030,1","22000,1,9,N","050000,1,N,1","-0005,1","-0043,1","10033,1","99,0000,9,1","","","","","","","02,99,1,02,1,00,1,99999,9,04,1,00,1","","","","","2,1,014,1,+999,9","","","SYN060AAXX  12211 31725 32999 20503 11005 21043 40033 52014 82040;","Q01  00002PRCP99"
"31725099999","2000-04-13T00:00:00","4","48.6166666","133.8333333","52.0","SMIDOVICH, RS","FM-12","99999","V020","050,1,N,0050,1","22000,1,9,N","020000,1,N,1","+0036,1","-0045,1","10038,1","99,0000,9,1","","","","","","","02,99,1,02,1,00,1,99999,9,04,1,00,1","","","999,N,-0007,1","99999,9,09971,1","2,1,005,1,+999,9","","","SYN076AAXX  13001 31725 32998 20505 10036 21045 39971 40038 52005 82040 333 21007;","Q01  00002PRCP99"
"31725099999","2000-04-13T03:00:00","4","48.6166666","133.8333333","52.0","SMIDOVICH, RS","FM-12","99999","V020","050,1,N,0050,1","00420,1,9,N","020000,1,N,1","+0060,1","-0061,1","10039,1","","","","","","","","08,99,1,99,9,05,1,00450,1,00,1,00,1","","","","","2,1,003,1,+999,9","","","SYN060AAXX  13031 31725 42498 80505 10060 21061 40039 52003 86500;","Q01+000062SCOTLC"
"31725099999","2000-04-13T06:00:00","4","48.6166666","133.8333333","52.0","SMIDOVICH, RS","FM-12","99999","V020","050,1,N,0050,1","00420,1,9,N","020000,1,N,1","+0075,1","-0057,1","10039,1","","","","","","","","06,99,1,06,1,03,1,00450,1,00,1,00,1","","","","","4,1,000,1,+999,9","","","SYN060AAXX  13061 31725 42498 60505 10075 21057 40039 54000 86300;",
"31725099999","2000-04-13T09:00:00","4","48.6166666","133.8333333","52.0","SMIDOVICH, RS","FM-12","99999","V020","050,1,N,0050,1","22000,1,9,N","020000,1,N,1","+0066,1","-0056,1","10050,1","99,0000,9,1","","","","","","","04,99,1,04,1,03,1,00450,1,00,1,00,1","","","999,M,+0084,1","","3,1,011,1,+999,9","","","SYN070AAXX  13091 31725 32498 40505 10066 21056 40050 53011 84300 333 10084;","Q01  00002PRCP99"
"31725099999","2000-04-13T12:00:00","4","48.6166666","133.8333333","52.0","SMIDOVICH, RS","FM-12","99999","V020","999,9,C,0000,1","22000,1,9,N","020000,1,N,1","+0020,1","-0041,1","10067,1","99,0000,9,1","","","","","","","02,99,1,02,1,00,1,99999,9,04,1,00,1","","","999,M,+0084,1","99999,9,10001,1","2,1,016,1,+999,9","","","SYN076AAXX  13121 31725 32998 20000 10020 21041 30001 40067 52016 82040 333 10084;","Q01  00002PRCP99"
"31725099999","2000-04-13T15:00:00","4","48.6166666","133.8333333","52.0","SMIDOVICH, RS","FM-12","99999","V020","999,9,C,0000,1","03600,1,9,N","020000,1,N,1","+0009,1","-0033,1","10076,1","","","","","","","","06,99,1,04,1,03,1,00450,1,04,1,00,1","","","","","2,1,008,1,+999,9","","","SYN060AAXX  13151 31725 42498 60000 10009 21033 40076 52008 84340;",
"31725099999","2000-04-13T21:00:00","4","48.6166666","133.8333333","52.0","SMIDOVICH, RS","FM-12","99999","V020","999,9,C,0000,1","00420,1,9,N","050000,1,N,1","-0006,1","-0024,1","10082,1","99,0000,9,1","","","","","","","08,99,1,07,1,03,1,00450,1,04,1,99,9","","","","","3,1,006,1,+999,9","","","SYN060AAXX  13211 31725 32499 80000 11006 21024 40082 53006 8734/;","Q01  00002PRCP99"
"31725099999","2000-04-14T00:00:00","4","48.6166666","133.8333333","52.0","SMIDOVICH, RS","FM-12","99999","V020","140,1,N,0020,1","22000,1,9,N","050000,1,N,1","+0034,1","-0016,1","10100,1","99,0000,9,1","","","","","","","02,99,1,02,1,05,1,00450,1,00,1,00,1","","","999,N,-0014,1","99999,9,10034,1","2,1,019,1,+999,9","","","SYN076AAXX  14001 31725 32499 21402 10034 21016 30034 40100 52019 82500 333 21014;","Q01  00002PRCP99"
"31725099999","2000-04-14T03:00:00","4","48.6166666","133.8333333","52.0","SMIDOVICH, RS","FM-12","99999","V020","140,1,N,0020,1","00420,1,9,N","020000,1,N,1","+0075,1","-0025,1","10098,1","","","","","","","","07,99,1,07,1,05,1,00450,1,99,9,99,9","","","","","8,1,001,1,+999,9","","","SYN060AAXX  14031 31725 42498 71402 10075 21025 40098 58001 875//;",
"31725099999","2000-04-14T06:00:00","4","48.6166666","133.8333333","52.0","SMIDOVICH, RS","FM-12","99999","V020","140,1,N,0020,1","22000,1,9,N","050000,1,N,1","+0073,1","-0027,1","10097,1","","","","","","","","03,99,1,03,1,05,1,00450,1,00,1,00,1","","","","","6,1,001,1,+999,9","","","SYN060AAXX  14061 31725 42499 31402 10073 21027 40097 56001 83500;",
"31725099999","2000-04-14T09:00:00","4","48.6166666","133.8333333","52.0","SMIDOVICH, RS","FM-12","99999","V020","180,1,N,0010,1","03600,1,9,N","050000,1,N,1","+0075,1","+0002,1","10103,1","99,0000,9,1","","","","","","","05,99,1,03,1,05,1,00450,1,04,1,00,1","","","999,M,+0090,1","","3,1,006,1,+999,9","","","SYN070AAXX  14091 31725 32499 51801 10075 20002 40103 53006 83540 333 10090;","Q01  00002PRCP99"
"31725099999","2000-04-14T15:00:00","4","48.6166666","133.8333333","52.0","SMIDOVICH, RS","FM-12","99999","V020","180,1,N,0010,1","22000,1,9,N","020000,1,N,1","+0013,1","-0025,1","10136,1","","","","","","","","02,99,1,02,1,00,1,99999,9,04,1,00,1","","","","","2,1,005,1,+999,9","","","SYN060AAXX  14151 31725 42998 21801 10013 21025 40136 52005 82040;",
"31725099999","2000-04-14T18:00:00","4","48.6166666","133.8333333","52.0","SMIDOVICH, RS","FM-12","99999","V020","999,9,C,0000,1","22000,1,9,N","020000,1,N,1","-0016,1","-0022,1","10139,1","","","","","","","","02,99,1,02,1,00,1,99999,9,04,1,00,1","","","","","2,1,003,1,+999,9","","","SYN060AAXX  14181 31725 42998 20000 11016 21022 40139 52003 82040;",
"31725099999","2000-04-14T21:00:00","4","48.6166666","133.8333333","52.0","SMIDOVICH, RS","FM-12","99999","V020","999,9,C,0000,1","22000,1,9,N","020000,1,N,1","-0025,1","-0031,1","10142,1","99,0000,9,1","","","","","","","02,99,1,02,1,00,1,99999,9,04,1,00,1","","","","","2,1,003,1,+999,9","","","SYN060AAXX  14211 31725 32998 20000 11025 21031 40142 52003 82040;","Q01  00002PRCP99"
"31725099999","2000-04-15T00:00:00","4","48.6166666","133.8333333","52.0","SMIDOVICH, RS","FM-12","99999","V020","050,1,N,0010,1","03600,1,9,N","020000,1,N,1","+0048,1","-0012,1","10153,1","99,0000,9,1","","","","","","","08,99,1,01,1,05,1,00800,1,04,1,02,1","","","999,N,-0031,1","99999,9,10087,1","2,1,012,1,+999,9","","","SYN076AAXX  15001 31725 32598 80501 10048 21012 30087 40153 52012 81542 333 21031;","Q01  00002PRCP99"
"31725099999","2000-04-15T03:00:00","4","48.6166666","133.8333333","52.0","SMIDOVICH, RS","FM-12","99999","V020","070,1,N,0010,1","22000,1,9,N","020000,1,N,1","+0092,1","-0030,1","10146,1","","","","","","","","03,99,1,02,1,03,1,00450,1,04,1,00,1","","","","","8,1,005,1,+999,9","","","SYN060AAXX  15031 31725 42498 30701 10092 21030 40146 58005 82340;",
"31725099999","2000-04-15T06:00:00","4","48.6166666","133.8333333","52.0","SMIDOVICH, RS","FM-12","99999","V020","230,1,N,0010,1","03600,1,9,N","020000,1,N,1","+0090,1","-0074,1","10130,1","","","","","","","","05,99,1,04,1,03,1,00450,1,04,1,00,1","","","","","7,1,016,1,+999,9","","","SYN060AAXX  15061 31725 42498 52301 10090 21074 40130 57016 84340;",
"31725099999","2000-04-15T09:00:00","4","48.6166666","133.8333333","52.0","SMIDOVICH, RS","FM-12","99999","V020","290,1,N,0010,1","03600,1,9,N","020000,1,N,1","+0080,1","-0057,1","10127,1","99,0000,9,1","","","","","","","08,99,1,02,1,03,1,00450,1,04,1,02,1","","","999,M,+0105,1","","7,1,004,1,+999,9","","","SYN070AAXX  15091 31725 32498 82901 10080 21057 40127 57004 82342 333 10105;","Q01  00002PRCP99"
"31725099999","2000-04-15T12:00:00","4","48.6166666","133.8333333","52.0","SMIDOVICH, RS","FM-12","99999","V020","320,1,N,0010,1","03600,1,9,N","020000,1,N,1","+0034,1","-0023,1","10133,1","99,0000,9,1","","","","","","","05,99,1,04,1,03,1,00450,1,04,1,00,1","","","999,M,+0105,1","99999,9,10066,1","3,1,004,1,+999,9","","","SYN076AAXX  15121 31725 32498 53201 10034 21023 30066 40133 53004 84340 333 10105;","Q01  00002PRCP99"
"31725099999","2000-04-15T15:00:00","4","48.6166666","133.8333333","52.0","SMIDOVICH, RS","FM-12","99999","V020","340,1,N,0010,1","00420,1,9,N","020000,1,N,1","+0018,1","-0033,1","10131,1","","","","","","","","06,99,1,06,1,03,1,00450,1,04,1,00,1","","","","","8,1,002,1,+999,9","","","SYN060AAXX  15151 31725 42498 63401 10018 21033 40131 58002 86340;",
"31725099999","2000-04-15T18:00:00","4","48.6166666","133.8333333","52.0","SMIDOVICH, RS","FM-12","99999","V020","360,1,N,0010,1","99999,9,9,N","020000,1,N,1","+0011,1","-0045,1","10125,1","","","","","","","","06,99,1,06,1,00,1,99999,9,04,1,00,1","","","","","7,1,007,1,+999,9","","","SYN060AAXX  15181 31725 42998 63601 10011 21045 40125 57007 86040;",
"31725099999","2000-04-15T21:00:00","4","48.6166666","133.8333333","52.0","SMIDOVICH, RS","FM-12","99999","V020","320,1,N,0010,1","03600,1,9,N","020000,1,N,1","+0006,1","-0051,1","10128,1","99,0000,9,1","","","","","","","08,99,1,01,1,05,1,00800,1,04,1,02,1","","","","","3,1,003,1,+999,9","","","SYN060AAXX  15211 31725 32598 83201 10006 21051 40128 53003 81542;","Q01  00002PRCP99"
"31725099999","2000-04-16T00:00:00","4","48.6166666","133.8333333","52.0","SMIDOVICH, RS","FM-12","99999","V020","360,1,N,0030,1","03600,1,9,N","020000,1,N,1","+0066,1","-0028,1","10125,1","99,0000,9,1","","","","","","","08,99,1,02,1,05,1,00800,1,04,1,02,1","","","999,N,-0001,1","99999,9,10060,1","4,1,000,1,+999,9","","","SYN076AAXX  16001 31725 32598 83603 10066 21028 30060 40125 54000 82542 333 21001;","Q01  00002PRCP99"
"31725099999","2000-04-16T03:00:00","4","48.6166666","133.8333333","52.0","SMIDOVICH, RS","FM-12","99999","V020","270,1,N,0020,1","00420,1,9,N","020000,1,N,1","+0089,1","-0033,1","10109,1","","","","","","","","06,99,1,06,1,03,1,00450,1,00,1,00,1","","","","","8,1,015,1,+999,9","","","SYN060AAXX  16031 31725 42498 62702 10089 21033 40109 58015 86300;",
"31725099999","2000-04-16T06:00:00","4","48.6166666","133.8333333","52.0","SMIDOVICH, RS","FM-12","99999","V020","250,1,N,0020,1","00420,1,9,N","020000,1,N,1","+0077,1","-0027,1","10099,1","","","","","","","","07,99,1,07,1,03,1,00450,1,00,1,00,1","","","","","7,1,011,1,+999,9","","","SYN060AAXX  16061 31725 42498 72502 10077 21027 40099 57011 87300;",
"31725099999","2000-04-16T09:00:00","4","48.6166666","133.8333333","52.0","SMIDOVICH, RS","FM-12","99999","V020","230,1,N,0010,1","03600,1,9,N","020000,1,N,1","+0084,1","-0038,1","10095,1","99,0000,9,1","","","","","","","05,99,1,02,1,03,1,00450,1,04,1,00,1","","","999,M,+0104,1","","7,1,004,1,+999,9","","","SYN070AAXX  16091 31725 32498 52301 10084 21038 40095 57004 82340 333 10104;","Q01  00002PRCP99"
"31725099999","2000-04-16T12:00:00","4","48.6166666","133.8333333","52.0","SMIDOVICH, RS","FM-12","99999","V020","999,9,C,0000,1","22000,1,9,N","020000,1,N,1","+0031,1","-0030,1","10099,1","99,0000,9,1","","","","","","","02,99,1,01,1,05,1,00800,1,04,1,00,1","","","999,M,+0104,1","99999,9,10033,1","3,1,003,1,+999,9","","","SYN076AAXX  16121 31725 32598 20000 10031 21030 30033 40099 53003 81540 333 10104;","Q01  00002PRCP99"
"31725099999","2000-04-16T15:00:00","4","48.6166666","133.8333333","52.0","SMIDOVICH, RS","FM-12","99999","V020","999,9,C,0000,1","22000,1,9,N","020000,1,N,1","+0007,1","-0016,1","10103,1","","","","","","","","02,99,1,01,1,05,1,00800,1,04,1,00,1","","","","","2,1,003,1,+999,9","","","SYN060AAXX  16151 31725 42598 20000 10007 21016 40103 52003 81540;",
"31725099999","2000-04-16T18:00:00","4","48.6166666","133.8333333","52.0","SMIDOVICH, RS","FM-12","99999","V020","999,9,C,0000,1","99999,9,9,N","020000,1,N,1","-0008,1","-0029,1","10103,1","","","","","","","","06,99,1,06,1,00,1,99999,9,04,1,00,1","","","","","4,1,000,1,+999,9","","","SYN060AAXX  16181 31725 42998 60000 11008 21029 40103 54000 86040;",
"31725099999","2000-04-16T21:00:00","4","48.6166666","133.8333333","52.0","SMIDOVICH, RS","FM-12","99999","V020","999,9,C,0000,1","22000,1,9,N","020000,1,N,1","-0020,1","-0043,1","10104,1","99,0000,9,1","","","","","","","03,99,1,02,1,03,1,00450,1,04,1,00,1","","","","","3,1,001,1,+999,9","","","SYN060AAXX  16211 31725 32498 30000 11020 21043 40104 53001 82340;","Q01  00002PRCP99"
"31725099999","2000-04-17T00:00:00","4","48.6166666","133.8333333","52.0","SMIDOVICH, RS","FM-12","99999","V020","180,1,N,0010,1","22000,1,9,N","020000,1,N,1","+0051,1","-0008,1","10107,1","99,0000,9,1","","","","","","","03,99,1,03,1,05,1,99999,9,04,1,00,1","","","999,N,-0020,1","99999,9,10041,1","2,1,004,1,+999,9","","","SYN076AAXX  17001 31725 32998 31801 10051 21008 30041 40107 52004 83540 333 21020;","Q01  00002PRCP99"
"31725099999","2000-04-17T03:00:00","4","48.6166666","133.8333333","52.0","SMIDOVICH, RS","FM-12","99999","V020","180,1,N,0010,1","00420,1,9,N","020000,1,N,1","+0097,1","-0009,1","10095,1","","","","","","","","06,99,1,06,1,05,1,00450,1,00,1,00,1","","","","","8,1,010,1,+999,9","","","SYN060AAXX  17031 31725 42498 61801 10097 21009 40095 58010 86500;",
"31725099999","2000-04-17T06:00:00","4","48.6166666","133.8333333","52.0","SMIDOVICH, RS","FM-12","99999","V020","180,1,N,0010,1","22000,1,9,N","020000,1,N,1","+0082,1","-0022,1","10093,1","","","","","","","","03,99,1,03,1,05,1,00450,1,00,1,00,1","","","","","7,1,003,1,+999,9","","","SYN060AAXX  17061 31725 42498 31801 10082 21022 40093 57003 83500;",
"31725099999","2000-04-17T09:00:00","4","48.6166666","133.8333333","52.0","SMIDOVICH, RS","FM-12","99999","V020","230,1,N,0010,1","22000,1,9,N","020000,1,N,1","+0092,1","-0025,1","10092,1","99,0000,9,1","","","","","","","02,99,1,02,1,05,1,00450,1,00,1,00,1","","","999,M,+0109,1","","4,1,000,1,+999,9","","","SYN070AAXX  17091 31725 32498 22301 10092 21025 40092 54000 82500 333 10109;","Q01  00002PRCP99"
"31725099999","2000-04-17T12:00:00","4","48.6166666","133.8333333","52.0","SMIDOVICH, RS","FM-12","99999","V020","999,9,C,0000,1","22000,1,9,N","020000,1,N,1","+0035,1","-0015,1","10107,1","99,0000,9,1","","","","","","","02,99,1,02,1,00,1,00450,1,04,1,00,1","","","999,M,+0109,1","99999,9,10041,1","2,1,013,1,+999,9","","","SYN076AAXX  17121 31725 32498 20000 10035 21015 30041 40107 52013 82040 333 10109;","Q01  00002PRCP99"
"31725099999","2000-04-17T15:00:00","4","48.6166666","133.8333333","52.0","SMIDOVICH, RS","FM-12","99999","V020","999,9,C,0000,1","22000,1,9,N","020000,1,N,1","-0001,1","-0029,1","10111,1","","","","","","","","02,99,1,02,1,00,1,99999,9,04,1,00,1","","","","","2,1,003,1,+999,9","","","SYN060AAXX  17151 31725 42998 20000 11001 21029 40111 52003 82040;",
"31725099999","2000-04-17T18:00:00","4","48.6166666","133.8333333","52.0","SMIDOVICH, RS","FM-12","99999","V020","999,9,C,0000,1","22000,1,9,N","020000,1,N,1","-0001,1","-0025,1","10113,1","","","","","","","00,1,+99999,9,99,9","00,99,1,00,1,00,1,99999,9,00,1,00,1","","","","","1,1,002,1,+999,9","","","SYN054AAXX  17181 31725 42998 00000 11001 21025 40113 51002;",
"31725099999","2000-04-17T21:00:00","4","48.6166666","133.8333333","52.0","SMIDOVICH, RS","FM-12","99999","V020","999,9,C,0000,1","22000,1,9,N","020000,1,N,1","-0015,1","-0024,1","10125,1","99,0000,9,1","","","","","","","02,99,1,02,1,00,1,99999,9,04,1,00,1","","","","","3,1,011,1,+999,9","","","SYN060AAXX  17211 31725 32998 20000 11015 21024 40125 53011 82040;","Q01  00002PRCP99"
"31725099999","2000-04-18T00:00:00","4","48.6166666","133.8333333","52.0","SMIDOVICH, RS","FM-12","99999","V020","140,1,N,0020,1","22000,1,9,N","020000,1,N,1","+0046,1","+0004,1","10129,1","99,0000,9,1","","","","","","","02,99,1,02,1,00,1,99999,9,04,1,00,1","","","999,N,-0015,1","99999,9,10063,1","2,1,006,1,+999,9","","","SYN076AAXX  18001 31725 32998 21402 10046 20004 30063 40129 52006 82040 333 21015;","Q01  00002PRCP99"
"31725099999","2000-04-18T03:00:00","4","48.6166666","133.8333333","52.0","SMIDOVICH, RS","FM-12","99999","V020","140,1,N,0020,1","00420,1,9,N","020000,1,N,1","+0102,1","+0000,1","10118,1","","","","","","","","06,99,1,99,9,05,1,00450,1,00,1,00,1","","","","","8,1,009,1,+999,9","","","SYN060AAXX  18031 31725 42498 61402 10102 20000 40118 58009 85500;","Q01+000052SCOTLC"
"31725099999","2000-04-18T09:00:00","4","48.6166666","133.8333333","52.0","SMIDOVICH, RS","FM-12","99999","V020","999,9,C,0000,1","22000,1,9,N","020000,1,N,1","+0079,1","-0009,1","10117,1","","","","8,1,03,1","1,1,03,1","","","02,99,1,02,1,00,1,99999,9,04,1,00,1","","","999,M,+0114,1","","4,1,000,1,+999,9","01,1","","SYN076AAXX  18091 31725 /1998 20000 10079 21009 40117 54000 70181 82040 333 10114;",
"31725099999","2000-04-18T12:00:00","4","48.6166666","133.8333333","52.0","SMIDOVICH, RS","FM-12","99999","V020","999,9,C,0000,1","22000,1,9,N","020000,1,N,1","+0030,1","+0001,1","10138,1","00,0007,9,1","","","8,1,06,1","1,1,06,1","","","02,99,1,02,1,00,1,99999,9,04,1,00,1","","","999,M,+0114,1","99999,9,10071,1","3,1,019,1,+999,9","02,1","","SYN088AAXX  18121 31725 11998 20000 10030 20001 30071 40138 53019 69900 70281 82040 333 10114;",
"31725099999","2000-04-18T15:00:00","4","48.6166666","133.8333333","52.0","SMIDOVICH, RS","FM-12","99999","V020","999,9,C,0000,1","22000,1,9,N","020000,1,N,1","+0013,1","-0007,1","10149,1","","","","","","","","02,99,1,02,1,00,1,99999,9,04,1,00,1","","","","","2,1,010,1,+999,9","","","SYN060AAXX  18151 31725 42998 20000 10013 21007 40149 52010 82040;",
"31725099999","2000-04-18T18:00:00","4","48.6166666","133.8333333","52.0","SMIDOVICH, RS","FM-12","99999","V020","999,9,C,0000,1","22000,1,9,N","020000,1,N,1","+0030,1","+0001,1","10138,1","00,0007,9,1","","","8,1,06,1","1,1,06,1","","","02,99,1,02,1,00,1,99999,9,04,1,00,1","","","999,M,+0114,1","99999,9,10071,1","3,1,019,1,+999,9","02,1","","SYN088AAXX  18181 31725 11998 20000 10030 20001 30071 40138 53019 69900 70281 82040 333 10114;",
"31725099999","2000-04-18T21:00:00","4","48.6166666","133.8333333","52.0","SMIDOVICH, RS","FM-12","99999","V020","999,9,C,0000,1","22000,1,9,N","020000,1,N,1","+0013,1","-0007,1","10149,1","","","","","","","","02,99,1,02,1,00,1,99999,9,04,1,00,1","","","","","2,1,010,1,+999,9","","","SYN060AAXX  18211 31725 42998 20000 10013 21007 40149 52010 82040;",
"31725099999","2000-04-19T00:00:00","4","48.6166666","133.8333333","52.0","SMIDOVICH, RS","FM-12","99999","V020","230,1,N,0010,1","03600,1,9,N","020000,1,N,1","+0058,1","+0018,1","10148,1","99,0000,9,1","","","","","","","08,99,1,02,1,05,1,00800,1,04,1,06,1","","","999,N,-0035,1","99999,9,10083,1","3,1,002,1,+999,9","","","SYN076AAXX  19001 31725 32598 82301 10058 20018 30083 40148 53002 82546 333 21035;","Q01  00002PRCP99"
"31725099999","2000-04-19T03:00:00","4","48.6166666","133.8333333","52.0","SMIDOVICH, RS","FM-12","99999","V020","230,1,N,0030,1","22000,1,9,N","020000,1,N,1","+0114,1","-0012,1","10144,1","","","","","","","","02,99,1,01,1,05,1,00800,1,04,1,00,1","","","","","8,1,003,1,+999,9","","","SYN060AAXX  19031 31725 42598 22303 10114 21012 40144 58003 81540;",
"31725099999","2000-04-19T06:00:00","4","48.6166666","133.8333333","52.0","SMIDOVICH, RS","FM-12","99999","V020","230,1,N,0030,1","00420,1,9,N","020000,1,N,1","+0124,1","-0044,1","10127,1","","","","","","","","06,99,1,06,1,03,1,00450,1,04,1,00,1","","","","","7,1,016,1,+999,9","","","SYN060AAXX  19061 31725 42498 62303 10124 21044 40127 57016 86340;",
"31725099999","2000-04-20T03:00:00","4","48.6166666","133.8333333","52.0","SMIDOVICH, RS","FM-12","99999","V020","180,1,N,0030,1","00420,1,9,N","020000,1,N,1","+0112,1","+0000,1","10113,1","","","","","","","","08,99,1,06,1,03,1,00450,1,04,1,99,9","","","","","4,1,000,1,+999,9","","","SYN060AAXX  20031 31725 42498 81803 10112 20000 40113 54000 8634/;",
"31725099999","2000-04-20T06:00:00","4","48.6166666","133.8333333","52.0","SMIDOVICH, RS","FM-12","99999","V020","200,1,N,0020,1","03600,1,9,N","020000,1,N,1","+0148,1","+0009,1","10094,1","","","","","","","","06,99,1,03,1,03,1,00450,1,04,1,00,1","","","","","8,1,017,1,+999,9","","","SYN060AAXX  20061 31725 42498 62002 10148 20009 40094 58017 83340;",
"31725099999","2000-04-20T09:00:00","4","48.6166666","133.8333333","52.0","SMIDOVICH, RS","FM-12","99999","V020","140,1,N,0010,1","00420,1,9,N","020000,1,N,1","+0132,1","+0025,1","10087,1","99,0000,9,1","","","","","","","07,99,1,07,1,03,1,00450,1,00,1,00,1","","","999,M,+0157,1","","7,1,008,1,+999,9","","","SYN070AAXX  20091 31725 32498 71401 10132 20025 40087 57008 87300 333 10157;","Q01  00002PRCP99"
"31725099999","2000-04-20T12:00:00","4","48.6166666","133.8333333","52.0","SMIDOVICH, RS","FM-12","99999","V020","140,1,N,0010,1","00420,1,9,N","020000,1,N,1","+0072,1","+0034,1","10098,1","99,0000,9,1","","","","","","","06,99,1,06,1,03,1,00450,1,00,1,00,1","","","999,M,+0157,1","99999,9,10033,1","3,1,009,1,+999,9","","","SYN076AAXX  20121 31725 32498 61401 10072 20034 30033 40098 53009 86300 333 10157;","Q01  00002PRCP99"
"31725099999","2000-04-20T15:00:00","4","48.6166666","133.8333333","52.0","SMIDOVICH, RS","FM-12","99999","V020","090,1,N,0010,1","00420,1,9,N","020000,1,N,1","+0065,1","+0034,1","10104,1","","","","","","","","08,99,1,08,1,03,1,00450,1,99,9,99,9","","","","","2,1,006,1,+999,9","","","SYN060AAXX  20151 31725 42498 80901 10065 20034 40104 52006 883//;",
"31725099999","2000-04-20T21:00:00","4","48.6166666","133.8333333","52.0","SMIDOVICH, RS","FM-12","99999","V020","999,9,C,0000,1","00420,1,9,N","010000,1,N,1","+0043,1","+0028,1","10113,1","","","","8,1,03,1","2,1,03,1","","","08,99,1,99,9,03,1,00450,1,06,1,06,1","","","","","1,1,002,1,+999,9","80,1","","SYN083AAXX  20211 31725 /1497 80000 10043 20028 40113 51002 78082 88366 555 200436 9952-;","Q01+000082SCOTLC"
"31725099999","2000-04-21T03:00:00","4","48.6166666","133.8333333","52.0","SMIDOVICH, RS","FM-12","99999","V020","110,1,N,0030,1","00420,1,9,N","020000,1,N,1","+0059,1","+0035,1","10104,1","","","","8,1,03,1","2,1,03,1","","","08,99,1,08,1,03,1,00450,1,99,9,99,9","","","","","8,1,011,1,+999,9","02,1","","SYN066AAXX  21031 31725 42498 81103 10059 20035 40104 58011 70282 883//;",
"31725099999","2000-04-21T06:00:00","4","48.6166666","133.8333333","52.0","SMIDOVICH, RS","FM-12","99999","V020","110,1,N,0030,1","00420,1,9,N","020000,1,N,1","+0070,1","+0046,1","10094,1","","","","8,1,06,1","2,1,06,1","","","08,99,1,08,1,03,1,00450,1,99,9,99,9","","","","","7,1,010,1,+999,9","25,1","","SYN066AAXX  21061 31725 41498 81103 10070 20046 40094 57010 72582 883//;",
"31725099999","2000-04-21T09:00:00","4","48.6166666","133.8333333","52.0","SMIDOVICH, RS","FM-12","99999","V020","090,1,N,0020,1","00420,1,9,N","010000,1,N,1","+0072,1","+0055,1","10079,1","","","","8,1,03,1","2,1,03,1","","","08,99,1,08,1,03,1,00450,1,99,9,99,9","","","999,M,+0076,1","","7,1,015,1,+999,9","80,1","","SYN076AAXX  21091 31725 /1497 80902 10072 20055 40079 57015 78082 883// 333 10076;",
"31725099999","2000-04-21T12:00:00","4","48.6166666","133.8333333","52.0","SMIDOVICH, RS","FM-12","99999","V020","050,1,N,0020,1","00420,1,9,N","010000,1,N,1","+0064,1","+0048,1","10064,1","00,0030,9,1","","","8,1,06,1","2,1,06,1","","","08,99,1,08,1,03,1,00450,1,99,9,99,9","","","999,M,+0076,1","99999,9,09999,1","7,1,015,1,+999,9","80,1","","SYN087AAXX  21121 31725 11497 80502 10064 20048 39999 40064 57015 6003078082 883// 333 10076;",
"31725099999","2000-04-21T15:00:00","4","48.6166666","133.8333333","52.0","SMIDOVICH, RS","FM-12","99999","V020","050,1,N,0010,1","00420,1,9,N","020000,1,N,1","+0059,1","+0038,1","10051,1","","","","8,1,03,1","2,1,03,1","","","08,99,1,08,1,03,1,00450,1,99,9,99,9","","","","","7,1,013,1,+999,9","02,1","","SYN066AAXX  21151 31725 41498 80501 10059 20038 40051 57013 70282 883//;",
"31725099999","2000-04-21T18:00:00","4","48.6166666","133.8333333","52.0","SMIDOVICH, RS","FM-12","99999","V020","050,1,N,0020,1","00420,1,9,N","010000,1,N,1","+0051,1","+0024,1","10044,1","","","","8,1,06,1","2,1,06,1","","","08,99,1,08,1,03,1,00450,1,99,9,99,9","","","","","7,1,008,1,+999,9","80,1","","SYN066AAXX  21181 31725 41497 80502 10051 20024 40044 57008 78082 883//;",
"31725099999","2000-04-21T21:00:00","4","48.6166666","133.8333333","52.0","SMIDOVICH, RS","FM-12","99999","V020","050,1,N,0050,1","00420,1,9,N","010000,1,N,1","+0041,1","+0031,1","10038,1","","","","8,1,03,1","2,1,03,1","","","08,99,1,08,1,03,1,00450,1,99,9,99,9","","","","","7,1,006,1,+999,9","81,1","","SYN066AAXX  21211 31725 /1497 80505 10041 20031 40038 57006 78182 883//;",
"31725099999","2000-04-22T00:00:00","4","48.6166666","133.8333333","52.0","SMIDOVICH, RS","FM-12","99999","V020","050,1,N,0040,1","00420,1,9,N","004000,1,N,1","+0041,1","+0026,1","10031,1","00,0041,9,1","","","6,1,06,1","2,1,06,1","","","08,99,1,05,1,07,1,00450,1,02,1,99,9","","","999,N,+0041,1","99999,9,09965,1","7,1,007,1,+999,9","61,1","","SYN088AAXX  22001 31725 11496 80504 10041 20026 39965 40031 57007 60040 76162 8572/ 333 20041;",
"31725099999","2000-04-22T03:00:00","4","48.6166666","133.8333333","52.0","SMIDOVICH, RS","FM-12","99999","V020","050,1,N,0050,1","00420,1,9,N","004000,1,N,1","+0046,1","+0029,1","10011,1","","","","6,1,03,1","2,1,03,1","","","08,99,1,07,1,07,1,00450,1,02,1,99,9","","","","","7,1,019,1,+999,9","61,1","","SYN066AAXX  22031 31725 41496 80505 10046 20029 40011 57019 76162 8772/;",
"31725099999","2000-04-22T06:00:00","4","48.6166666","133.8333333","52.0","SMIDOVICH, RS","FM-12","99999","V020","050,1,N,0040,1","00420,1,9,N","004000,1,N,1","+0054,1","+0035,1","09992,1","","","","6,1,06,1","2,1,06,1","","","08,99,1,07,1,07,1,00450,1,02,1,99,9","","","","","7,1,019,1,+999,9","61,1","","SYN066AAXX  22061 31725 41496 80504 10054 20035 49992 57019 76162 8772/;",
"31725099999","2000-04-22T09:00:00","4","48.6166666","133.8333333","52.0","SMIDOVICH, RS","FM-12","99999","V020","050,1,N,0040,1","00420,1,9,N","004000,1,N,1","+0057,1","+0043,1","09980,1","99,0000,2,1","","","6,1,03,1","6,1,03,1","","","08,99,1,07,1,07,1,00450,1,02,1,99,9","","","999,M,+0057,1","","7,1,011,1,+999,9","61,1","","SYN076AAXX  22091 31725 31496 80504 10057 20043 49980 57011 76166 8772/ 333 10057;",
"31725099999","2000-04-22T15:00:00","4","48.6166666","133.8333333","52.0","SMIDOVICH, RS","FM-12","99999","V020","050,1,N,0060,1","00420,1,9,N","004000,1,N,1","+0042,1","+0032,1","09981,1","","","","6,1,03,1","6,1,03,1","","","08,99,1,07,1,07,1,00450,1,02,1,99,9","","","","","8,1,012,1,+999,9","61,1","","SYN066AAXX  22151 31725 41496 80506 10042 20032 49981 58012 76166 8772/;",
"31725099999","2000-04-22T18:00:00","4","48.6166666","133.8333333","52.0","SMIDOVICH, RS","FM-12","99999","V020","050,1,N,0060,1","00420,1,9,N","004000,1,N,1","+0053,1","+0051,1","09974,1","","","","6,1,06,1","6,1,06,1","","","08,99,1,07,1,07,1,00450,1,02,1,99,9","","","","","7,1,007,1,+999,9","61,1","","SYN076AAXX  22181 31725 41496 80506 10053 20051 49974 57007 76166 8772/ 333 91010;",
"31725099999","2000-04-22T21:00:00","4","48.6166666","133.8333333","52.0","SMIDOVICH, RS","FM-12","99999","V020","050,1,N,0060,1","00420,1,9,N","050000,1,N,1","+0050,1","+0015,1","09974,1","","","","6,1,03,1","2,1,03,1","","","08,99,1,07,1,05,1,00450,1,99,9,99,9","","","","","4,1,000,1,+999,9","21,1","","SYN076AAXX  22211 31725 /1499 80506 10050 20015 49974 54000 72162 875// 333 91010;",
"31725099999","2000-04-23T00:00:00","4","48.6166666","133.8333333","52.0","SMIDOVICH, RS","FM-12","99999","V020","050,1,N,0060,1","00420,1,9,N","020000,1,N,1","+0073,1","+0013,1","09978,1","00,0061,9,1","","","6,1,06,1","2,1,06,1","","","08,99,1,06,1,03,1,00450,1,04,1,99,9","","","120,N,+0042,1","99999,9,09914,1","3,1,005,1,+999,9","02,1","","SYN094AAXX  23001 31725 11498 80506 10073 20013 39914 49978 53005 60060 70262 8634/ 333 20042 91110;",
"31725099999","2000-04-23T03:00:00","4","48.6166666","133.8333333","52.0","SMIDOVICH, RS","FM-12","99999","V020","050,1,N,0100,1","00420,1,9,N","050000,1,N,1","+0076,1","+0011,1","09989,1","","","","","","","","08,99,1,06,1,03,1,00450,1,04,1,99,9","","","","","2,1,011,1,+999,9","","","SYN070AAXX  23031 31725 42499 80510 10076 20011 49989 52011 8634/ 333 91017;",
"31725099999","2000-04-23T06:00:00","4","48.6166666","133.8333333","52.0","SMIDOVICH, RS","FM-12","99999","V020","050,1,N,0100,1","00420,1,9,N","004000,1,N,1","+0069,1","+0031,1","09992,1","","","","8,1,06,1","2,1,06,1","","","08,99,1,07,1,03,1,00450,1,04,1,99,9","","","","","2,1,003,1,+999,9","80,1","","SYN076AAXX  23061 31725 41496 80510 10069 20031 49992 52003 78082 8734/ 333 91017;",
"31725099999","2000-04-23T09:00:00","4","48.6166666","133.8333333","52.0","SMIDOVICH, RS","FM-12","99999","V020","050,1,N,0060,1","00420,1,9,N","050000,1,N,1","+0070,1","+0015,1","09994,1","","","","8,1,03,1","2,1,03,1","","","08,99,1,07,1,03,1,00450,1,04,1,99,9","","","120,M,+0081,1","","1,1,002,1,+999,9","02,1","","SYN082AAXX  23091 31725 /1499 80506 10070 20015 49994 51002 70282 8734/ 333 10081 91110;",
"31725099999","2000-04-23T12:00:00","4","48.6166666","133.8333333","52.0","SMIDOVICH, RS","FM-12","99999","V020","050,1,N,0050,1","03600,1,9,N","050000,1,N,1","+0055,1","+0006,1","10001,1","00,0001,9,1","","","8,1,06,1","2,1,06,1","","","08,99,1,03,1,03,1,00450,1,04,1,99,9","","","999,M,+0081,1","99999,9,09937,1","3,1,007,1,+999,9","01,1","","SYN088AAXX  23121 31725 11499 80505 10055 20006 39937 40001 53007 69910 70182 8334/ 333 10081;",
"31725099999","2000-04-23T15:00:00","4","48.6166666","133.8333333","52.0","SMIDOVICH, RS","FM-12","99999","V020","050,1,N,0040,1","03600,1,9,N","020000,1,N,1","+0041,1","+0007,1","10007,1","","","","","","","","08,99,1,03,1,04,1,00800,1,04,1,99,9","","","","","2,1,005,1,+999,9","","","SYN060AAXX  23151 31725 42598 80504 10041 20007 40007 52005 8344/;",
"31725099999","2000-04-23T18:00:00","4","48.6166666","133.8333333","52.0","SMIDOVICH, RS","FM-12","99999","V020","050,1,N,0010,1","00420,1,9,N","004000,1,N,1","+0036,1","+0007,1","10004,1","","","","8,1,06,1","2,1,06,1","","","08,99,1,07,1,03,1,00450,1,04,1,99,9","","","","","8,1,003,1,+999,9","80,1","","SYN066AAXX  23181 31725 41496 80501 10036 20007 40004 58003 78082 8734/;",
"31725099999","2000-04-23T21:00:00","4","48.6166666","133.8333333","52.0","SMIDOVICH, RS","FM-12","99999","V020","050,1,N,0040,1","00420,1,9,N","050000,1,N,1","+0033,1","-0002,1","10003,1","","","","8,1,03,1","2,1,03,1","","","08,99,1,07,1,03,1,00450,1,04,1,99,9","","","","","6,1,001,1,+999,9","02,1","","SYN066AAXX  23211 31725 /1499 80504 10033 21002 40003 56001 70282 8734/;",
"31725099999","2000-04-24T00:00:00","4","48.6166666","133.8333333","52.0","SMIDOVICH, RS","FM-12","99999","V020","020,1,N,0040,1","00420,1,9,N","050000,1,N,1","+0046,1","-0008,1","10008,1","00,0007,9,1","","","8,1,06,1","2,1,06,1","","","08,99,1,08,1,03,1,00450,1,99,9,99,9","","","999,N,+0032,1","99999,9,09943,1","3,1,005,1,+999,9","03,1","","SYN088AAXX  24001 31725 11499 80204 10046 21008 39943 40008 53005 69900 70382 883// 333 20032;",
"31725099999","2000-04-24T03:00:00","4","48.6166666","133.8333333","52.0","SMIDOVICH, RS","FM-12","99999","V020","020,1,N,0040,1","00420,1,9,N","004000,1,N,1","+0051,1","+0004,1","10010,1","","","","8,1,03,1","2,1,03,1","","","08,99,1,08,1,03,1,00450,1,99,9,99,9","","","","","1,1,002,1,+999,9","80,1","","SYN066AAXX  24031 31725 41496 80204 10051 20004 40010 51002 78082 883//;",
"31725099999","2000-04-24T06:00:00","4","48.6166666","133.8333333","52.0","SMIDOVICH, RS","FM-12","99999","V020","050,1,N,0030,1","00420,1,9,N","004000,1,N,1","+0036,1","+0004,1","10020,1","","","","6,1,06,1","2,1,06,1","","","08,99,1,07,1,07,1,00450,1,02,1,99,9","","","","","3,1,009,1,+999,9","61,1","","SYN066AAXX  24061 31725 41496 80503 10036 20004 40020 53009 76162 8772/;",
"31725099999","2000-04-24T09:00:00","4","48.6166666","133.8333333","52.0","SMIDOVICH, RS","FM-12","99999","V020","050,1,N,0020,1","00420,1,9,N","004000,1,N,1","+0036,1","+0015,1","10025,1","","","","6,1,03,1","2,1,03,1","","","08,99,1,07,1,07,1,00450,1,02,1,99,9","","","999,M,+0058,1","","2,1,005,1,+999,9","61,1","","SYN076AAXX  24091 31725 /1496 80502 10036 20015 40025 52005 76162 8772/ 333 10058;",
"31725099999","2000-04-24T15:00:00","4","48.6166666","133.8333333","52.0","SMIDOVICH, RS","FM-12","99999","V020","050,1,N,0010,1","03600,1,9,N","020000,1,N,1","+0031,1","-0004,1","10049,1","","","","","","","","08,99,1,03,1,03,1,00450,1,04,1,99,9","","","","","2,1,008,1,+999,9","","","SYN060AAXX  24151 31725 42498 80501 10031 21004 40049 52008 8334/;",
"31725099999","2000-04-24T18:00:00","4","48.6166666","133.8333333","52.0","SMIDOVICH, RS","FM-12","99999","V020","050,1,N,0010,1","03600,1,9,N","020000,1,N,1","+0025,1","-0014,1","10059,1","","","","","","","","08,99,1,03,1,03,1,00450,1,04,1,99,9","","","","","2,1,010,1,+999,9","","","SYN060AAXX  24181 31725 42498 80501 10025 21014 40059 52010 8334/;",
"31725099999","2000-04-24T21:00:00","4","48.6166666","133.8333333","52.0","SMIDOVICH, RS","FM-12","99999","V020","360,1,N,0010,1","03600,1,9,N","020000,1,N,1","+0025,1","-0014,1","10113,1","","","","","","","","07,99,1,02,1,04,1,00450,1,04,1,00,1","","","","","2,1,008,1,+999,9","","","SYN060AAXX  24211 31725 /2498 73601 10025 21014 40113 52008 82440;",
"31725099999","2000-04-25T00:00:00","4","48.6166666","133.8333333","52.0","SMIDOVICH, RS","FM-12","99999","V020","360,1,N,0040,1","03600,1,9,N","020000,1,N,1","+0059,1","-0001,1","10079,1","00,0007,9,1","","","","","","","07,99,1,03,1,04,1,00450,1,04,1,00,1","","","999,N,+0022,1","99999,9,10014,1","2,1,013,1,+999,9","","","SYN082AAXX  25001 31725 12498 73604 10059 21001 30014 40079 52013 69900 83440 333 20022;",
"31725099999","2000-04-25T03:00:00","4","48.6166666","133.8333333","52.0","SMIDOVICH, RS","FM-12","99999","V020","999,9,9,9999,9","00420,1,9,N","050000,1,N,1","+0088,1","+0000,1","10083,1","","","","","","","","07,99,1,06,1,05,1,00450,1,04,1,00,1","","","","","2,1,005,1,+999,9","","","SYN060AAXX  25031 31725 42499 74504 10088 20000 40083 52005 86540;",
"31725099999","2000-04-25T06:00:00","4","48.6166666","133.8333333","52.0","SMIDOVICH, RS","FM-12","99999","V020","360,1,N,0030,1","00420,1,9,N","050000,1,N,1","+0093,1","-0009,1","10093,1","","","","","","","","06,99,1,06,1,03,1,00450,1,00,1,00,1","","","","","2,1,010,1,+999,9","","","SYN060AAXX  25061 31725 42499 63603 10093 21009 40093 52010 86300;",
"31725099999","2000-04-25T09:00:00","4","48.6166666","133.8333333","52.0","SMIDOVICH, RS","FM-12","99999","V020","020,1,N,0050,1","00420,1,9,N","020000,1,N,1","+0087,1","+0002,1","10096,1","99,0000,9,1","","","","","","","08,99,1,07,1,05,1,00450,1,04,1,99,9","","","999,M,+0103,1","","2,1,003,1,+999,9","","","SYN070AAXX  25091 31725 32498 80205 10087 20002 40096 52003 8754/ 333 10103;","Q01  00002PRCP99"
"31725099999","2000-04-25T12:00:00","4","48.6166666","133.8333333","52.0","SMIDOVICH, RS","FM-12","99999","V020","050,1,N,0020,1","00420,1,9,N","020000,1,N,1","+0056,1","+0013,1","10118,1","99,0000,9,1","","","","","","","08,99,1,06,1,05,1,00450,1,04,1,99,9","","","999,M,+0103,1","99999,9,10053,1","2,1,021,1,+999,9","","","SYN076AAXX  25121 31725 32498 80502 10056 20013 30053 40118 52021 8654/ 333 10103;","Q01  00002PRCP99"
"31725099999","2000-04-25T15:00:00","4","48.6166666","133.8333333","52.0","SMIDOVICH, RS","FM-12","99999","V020","050,1,N,0010,1","00420,1,9,N","020000,1,N,1","+0048,1","+0012,1","10129,1","","","","","","","","08,99,1,06,1,05,1,00450,1,04,1,99,9","","","","","2,1,010,1,+999,9","","","SYN060AAXX  25151 31725 42498 80501 10048 20012 40129 52010 8654/;",
"31725099999","2000-04-25T18:00:00","4","48.6166666","133.8333333","52.0","SMIDOVICH, RS","FM-12","99999","V020","050,1,N,0020,1","00420,1,9,N","020000,1,N,1","+0048,1","+0007,1","10135,1","","","","6,1,06,1","2,1,06,1","","","08,99,1,06,1,05,1,00450,1,02,1,99,9","","","","","2,1,006,1,+999,9","02,1","","SYN066AAXX  25181 31725 41498 80502 10048 20007 40135 52006 70262 8652/;",
"31725099999","2000-04-25T21:00:00","4","48.6166666","133.8333333","52.0","SMIDOVICH, RS","FM-12","99999","V020","999,9,C,0000,1","03600,1,9,N","050000,1,N,1","+0030,1","+0001,1","10141,1","","","","6,1,03,1","2,1,03,1","","","06,99,1,02,1,05,1,00450,1,02,1,00,1","","","","","2,1,005,1,+999,9","01,1","","SYN066AAXX  25211 31725 /2499 60000 10030 20001 40141 52005 70162 82520;",
"31725099999","2000-04-26T00:00:00","4","48.6166666","133.8333333","52.0","SMIDOVICH, RS","FM-12","99999","V020","050,1,N,0060,1","03600,1,9,N","020000,1,N,1","+0067,1","-0016,1","10143,1","00,0007,9,1","","","8,1,06,1","2,1,06,1","","","06,99,1,02,1,05,1,00450,1,04,1,02,1","","","999,N,+0020,1","99999,9,10078,1","2,1,004,1,+999,9","02,1","","SYN088AAXX  26001 31725 11498 60506 10067 21016 30078 40143 52004 69900 70282 82542 333 20020;",
"31725099999","2000-04-26T03:00:00","4","48.6166666","133.8333333","52.0","SMIDOVICH, RS","FM-12","99999","V020","070,1,N,0060,1","09000,1,9,N","020000,1,N,1","+0100,1","-0002,1","10135,1","","","","","","","","08,99,1,04,1,05,1,00450,1,00,1,06,1","","","","","8,1,007,1,+999,9","","","SYN070AAXX  26031 31725 42498 80706 10100 21002 40135 58007 84506 333 91010;",
"31725099999","2000-04-26T06:00:00","4","48.6166666","133.8333333","52.0","SMIDOVICH, RS","FM-12","99999","V020","070,1,N,0040,1","00420,1,9,N","020000,1,N,1","+0113,1","+0004,1","10124,1","","","","","","","","08,99,1,05,1,05,1,00450,1,04,1,99,9","","","","","7,1,011,1,+999,9","","","SYN060AAXX  26061 31725 42498 80704 10113 20004 40124 57011 8554/;",
"31725099999","2000-04-26T09:00:00","4","48.6166666","133.8333333","52.0","SMIDOVICH, RS","FM-12","99999","V020","180,1,N,0010,1","99999,9,9,N","020000,1,N,1","+0110,1","-0012,1","10119,1","99,0000,9,1","","","","","","","08,99,1,00,1,00,1,99999,9,00,1,02,1","","","999,M,+0118,1","","7,1,005,1,+999,9","","","SYN070AAXX  26091 31725 32998 81801 10110 21012 40119 57005 80002 333 10118;","Q01  00002PRCP99"
"31725099999","2000-04-26T12:00:00","4","48.6166666","133.8333333","52.0","SMIDOVICH, RS","FM-12","99999","V020","999,9,C,0000,1","99999,9,9,N","020000,1,N,1","+0076,1","+0017,1","10125,1","99,0000,9,1","","","","","","","08,99,1,03,1,00,1,99999,9,04,1,02,1","","","999,M,+0118,1","99999,9,10060,1","3,1,005,1,+999,9","","","SYN076AAXX  26121 31725 32998 80000 10076 20017 30060 40125 53005 83042 333 10118;","Q01  00002PRCP99"
"31725099999","2000-04-26T15:00:00","4","48.6166666","133.8333333","52.0","SMIDOVICH, RS","FM-12","99999","V020","999,9,C,0000,1","99999,9,9,N","020000,1,N,1","+0072,1","+0027,1","10125,1","","","","","","","","07,99,1,07,1,00,1,99999,9,04,1,99,9","","","","","4,1,000,1,+999,9","","","SYN060AAXX  26151 31725 42998 70000 10072 20027 40125 54000 8704/;",
"31725099999","2000-04-26T18:00:00","4","48.6166666","133.8333333","52.0","SMIDOVICH, RS","FM-12","99999","V020","999,9,C,0000,1","99999,9,9,N","020000,1,N,1","+0054,1","-0001,1","10126,1","","","","","","","","07,99,1,07,1,00,1,99999,9,04,1,99,9","","","","","4,1,000,1,+999,9","","","SYN060AAXX  26181 31725 42998 70000 10054 21001 40126 54000 8704/;",
"31725099999","2000-04-26T21:00:00","4","48.6166666","133.8333333","52.0","SMIDOVICH, RS","FM-12","99999","V020","999,9,C,0000,1","99999,9,9,N","050000,1,N,1","+0042,1","-0010,1","10118,1","99,0000,9,1","","","","","","","08,99,1,05,1,00,1,99999,9,04,1,02,1","","","","","8,1,008,1,+999,9","","","SYN060AAXX  26211 31725 32999 80000 10042 21010 40118 58008 85042;","Q01  00002PRCP99"
"31725099999","2000-04-27T00:00:00","4","48.6166666","133.8333333","52.0","SMIDOVICH, RS","FM-12","99999","V020","340,1,N,0010,1","99999,9,9,N","020000,1,N,1","+0121,1","-0012,1","10108,1","99,0000,9,1","","","","","","","05,99,1,02,1,00,1,99999,9,04,1,02,1","","","999,N,+0040,1","99999,9,10045,1","7,1,007,1,+999,9","","","SYN076AAXX  27001 31725 32998 53401 10121 21012 30045 40108 57007 82042 333 20040;","Q01  00002PRCP99"
"31725099999","2000-04-27T03:00:00","4","48.6166666","133.8333333","52.0","SMIDOVICH, RS","FM-12","99999","V020","050,1,N,0010,1","99999,9,9,N","020000,1,N,1","+0156,1","-0005,1","10089,1","","","","","","","","06,99,1,01,1,00,1,99999,9,04,1,01,1","","","","","7,1,018,1,+999,9","","","SYN060AAXX  27031 31725 42998 60501 10156 21005 40089 57018 81041;",
"31725099999","2000-04-27T06:00:00","4","48.6166666","133.8333333","52.0","SMIDOVICH, RS","FM-12","99999","V020","110,1,N,0020,1","99999,9,9,N","020000,1,N,1","+0175,1","-0017,1","10066,1","","","","","","","","08,99,1,01,1,00,1,99999,9,04,1,04,1","","","","","7,1,022,1,+999,9","","","SYN060AAXX  27061 31725 42998 81102 10175 21017 40066 57022 81044;",
"31725099999","2000-04-27T09:00:00","4","48.6166666","133.8333333","52.0","SMIDOVICH, RS","FM-12","99999","V020","999,9,C,0000,1","99999,9,9,N","020000,1,N,1","+0172,1","-0027,1","10056,1","99,0000,9,1","","","","","","","08,99,1,02,1,00,1,99999,9,04,1,04,1","","","999,M,+0186,1","","7,1,011,1,+999,9","","","SYN070AAXX  27091 31725 32998 80000 10172 21027 40056 57011 82044 333 10186;","Q01  00002PRCP99"
"31725099999","2000-04-27T12:00:00","4","48.6166666","133.8333333","52.0","SMIDOVICH, RS","FM-12","99999","V020","999,9,C,0000,1","22000,1,9,N","020000,1,N,1","+0108,1","+0006,1","10063,1","99,0000,9,1","","","","","","","01,99,1,01,1,00,1,99999,9,04,1,00,1","","","999,M,+0186,1","99999,9,09999,1","3,1,005,1,+999,9","","","SYN076AAXX  27121 31725 32998 10000 10108 20006 39999 40063 53005 81040 333 10186;","Q01  00002PRCP99"
"31725099999","2000-04-27T15:00:00","4","48.6166666","133.8333333","52.0","SMIDOVICH, RS","FM-12","99999","V020","999,9,C,0000,1","22000,1,9,N","050000,1,N,1","+0087,1","-0007,1","10062,1","","","","","","","00,1,+99999,9,99,9","00,99,1,00,1,00,1,99999,9,00,1,00,1","","","","","8,1,001,1,+999,9","","","SYN054AAXX  27151 31725 42999 00000 10087 21007 40062 58001;",
"31725099999","2000-04-27T18:00:00","4","48.6166666","133.8333333","52.0","SMIDOVICH, RS","FM-12","99999","V020","999,9,C,0000,1","22000,1,9,N","050000,1,N,1","+0047,1","-0013,1","10063,1","","","","","","","","01,99,1,01,1,00,1,99999,9,04,1,00,1","","","","","6,1,001,1,+999,9","","","SYN060AAXX  27181 31725 42999 10000 10047 21013 40063 56001 81040;",
"31725099999","2000-04-27T21:00:00","4","48.6166666","133.8333333","52.0","SMIDOVICH, RS","FM-12","99999","V020","360,1,N,0010,1","22000,1,9,N","020000,1,N,1","+0042,1","-0013,1","10063,1","99,0000,9,1","","","","","","","02,99,1,02,1,00,1,99999,9,04,1,00,1","","","","","4,1,000,1,+999,9","","","SYN060AAXX  27211 31725 32998 23601 10042 21013 40063 54000 82040;","Q01  00002PRCP99"
"31725099999","2000-04-28T00:00:00","4","48.6166666","133.8333333","52.0","SMIDOVICH, RS","FM-12","99999","V020","180,1,N,0010,1","22000,1,9,N","020000,1,N,1","+0162,1","+0002,1","10058,1","99,0000,9,1","","","","","","","03,99,1,02,1,00,1,99999,9,04,1,02,1","","","999,N,+0030,1","99999,9,09996,1","8,1,001,1,+999,9","","","SYN076AAXX  28001 31725 32998 31801 10162 20002 39996 40058 58001 82042 333 20030;","Q01  00002PRCP99"
"31725099999","2000-04-28T03:00:00","4","48.6166666","133.8333333","52.0","SMIDOVICH, RS","FM-12","99999","V020","999,9,9,9999,9","22000,1,9,N","020000,1,N,1","+0192,1","-0025,1","10053,1","","","","","","","","03,99,1,01,1,05,1,00450,1,04,1,02,1","","","","","7,1,004,1,+999,9","","","SYN060AAXX  28031 31725 42498 34501 10192 21025 40053 57004 81542;",
"31725099999","2000-04-28T06:00:00","4","48.6166666","133.8333333","52.0","SMIDOVICH, RS","FM-12","99999","V020","999,9,9,9999,9","09000,1,9,N","050000,1,N,1","+0212,1","-0025,1","10036,1","","","","","","","","05,99,1,02,1,05,1,00450,1,04,1,02,1","","","","","7,1,017,1,+999,9","","","SYN060AAXX  28061 31725 42499 54505 10212 21025 40036 57017 82542;",
"31725099999","2000-04-28T09:00:00","4","48.6166666","133.8333333","52.0","SMIDOVICH, RS","FM-12","99999","V020","140,1,N,0010,1","22000,1,9,N","050000,1,N,1","+0208,1","-0017,1","10033,1","99,0000,9,1","","","","","","","03,99,1,02,1,00,1,99999,9,04,1,02,1","","","999,M,+0216,1","","7,1,003,1,+999,9","","","SYN070AAXX  28091 31725 32999 31401 10208 21017 40033 57003 82042 333 10216;","Q01  00002PRCP99"
"31725099999","2000-04-28T12:00:00","4","48.6166666","133.8333333","52.0","SMIDOVICH, RS","FM-12","99999","V020","999,9,C,0000,1","22000,1,9,N","050000,1,N,1","+0134,1","+0029,1","10045,1","99,0000,9,1","","","","","","00,1,+99999,9,99,9","00,99,1,00,1,00,1,99999,9,00,1,00,1","","","999,M,+0216,1","99999,9,09982,1","3,1,010,1,+999,9","","","SYN070AAXX  28121 31725 32999 00000 10134 20029 39982 40045 53010 333 10216;","Q01  00002PRCP99"
"31725099999","2000-04-28T15:00:00","4","48.6166666","133.8333333","52.0","SMIDOVICH, RS","FM-12","99999","V020","999,9,C,0000,1","22000,1,9,N","050000,1,N,1","+0078,1","+0051,1","10053,1","","","","","","","","02,99,1,02,1,00,1,99999,9,04,1,00,1","","","","","2,1,006,1,+999,9","","","SYN060AAXX  28151 31725 42999 20000 10078 20051 40053 52006 82040;",
"31725099999","2000-04-28T18:00:00","4","48.6166666","133.8333333","52.0","SMIDOVICH, RS","FM-12","99999","V020","999,9,C,0000,1","22000,1,9,N","020000,1,N,1","+0054,1","+0025,1","10059,1","","","","","","","","02,99,1,02,1,00,1,99999,9,04,1,00,1","","","","","2,1,005,1,+999,9","","","SYN060AAXX  28181 31725 42998 20000 10054 20025 40059 52005 82040;",
"31725099999","2000-04-28T21:00:00","4","48.6166666","133.8333333","52.0","SMIDOVICH, RS","FM-12","99999","V020","999,9,C,0000,1","22000,1,9,N","020000,1,N,1","+0053,1","+0044,1","10070,1","99,0000,9,1","","","","","","","01,99,1,00,1,00,1,99999,9,00,1,02,1","","","","","2,1,011,1,+999,9","","","SYN060AAXX  28211 31725 32998 10000 10053 20044 40070 52011 80002;","Q01  00002PRCP99"
"31725099999","2000-04-29T00:00:00","4","48.6166666","133.8333333","52.0","SMIDOVICH, RS","FM-12","99999","V020","999,9,C,0000,1","22000,1,9,N","020000,1,N,1","+0153,1","+0034,1","10082,1","99,0000,9,1","","","","","","00,1,+99999,9,99,9","00,99,1,00,1,00,1,99999,9,00,1,00,1","","","999,N,+0045,1","99999,9,10020,1","2,1,016,1,+999,9","","","SYN070AAXX  29001 31725 32998 00000 10153 20034 30020 40082 52016 333 20045;","Q01  00002PRCP99"
"31725099999","2000-04-29T03:00:00","4","48.6166666","133.8333333","52.0","SMIDOVICH, RS","FM-12","99999","V020","180,1,N,0020,1","22000,1,9,N","020000,1,N,1","+0217,1","+0030,1","10073,1","","","","","","","00,1,+99999,9,99,9","00,99,1,00,1,00,1,99999,9,00,1,00,1","","","","","8,1,008,1,+999,9","","","SYN054AAXX  29031 31725 42998 01802 10217 20030 40073 58008;",
"31725099999","2000-04-29T06:00:00","4","48.6166666","133.8333333","52.0","SMIDOVICH, RS","FM-12","99999","V020","180,1,N,0020,1","22000,1,9,N","020000,1,N,1","+0237,1","-0007,1","10061,1","","","","","","","00,1,+99999,9,99,9","00,99,1,00,1,00,1,99999,9,00,1,00,1","","","","","7,1,012,1,+999,9","","","SYN054AAXX  29061 31725 42998 01802 10237 21007 40061 57012;",
"31725099999","2000-04-29T09:00:00","4","48.6166666","133.8333333","52.0","SMIDOVICH, RS","FM-12","99999","V020","999,9,C,0000,1","22000,1,9,N","020000,1,N,1","+0217,1","+0009,1","10058,1","99,0000,9,1","","","","","","00,1,+99999,9,99,9","00,99,1,00,1,00,1,99999,9,00,1,00,1","","","999,M,+0237,1","","7,1,003,1,+999,9","","","SYN064AAXX  29091 31725 32998 00000 10217 20009 40058 57003 333 10237;","Q01  00002PRCP99"
"31725099999","2000-04-29T12:00:00","4","48.6166666","133.8333333","52.0","SMIDOVICH, RS","FM-12","99999","V020","999,9,C,0000,1","22000,1,9,N","020000,1,N,1","+0131,1","+0051,1","10076,1","99,0000,9,1","","","","","","00,1,+99999,9,99,9","00,99,1,00,1,00,1,99999,9,00,1,00,1","","","999,M,+0237,1","99999,9,10013,1","3,1,016,1,+999,9","","","SYN070AAXX  29121 31725 32998 00000 10131 20051 30013 40076 53016 333 10237;","Q01  00002PRCP99"
"31725099999","2000-04-29T15:00:00","4","48.6166666","133.8333333","52.0","SMIDOVICH, RS","FM-12","99999","V020","999,9,C,0000,1","22000,1,9,N","020000,1,N,1","+0092,1","+0038,1","10083,1","","","","","","","00,1,+99999,9,99,9","00,99,1,00,1,00,1,99999,9,00,1,00,1","","","","","2,1,006,1,+999,9","","","SYN054AAXX  29151 31725 42998 00000 10092 20038 40083 52006;",
"31725099999","2000-04-29T18:00:00","4","48.6166666","133.8333333","52.0","SMIDOVICH, RS","FM-12","99999","V020","999,9,C,0000,1","22000,1,9,N","020000,1,N,1","+0073,1","+0041,1","10093,1","99,0000,9,1","","","","","","00,1,+99999,9,99,9","00,99,1,00,1,00,1,99999,9,00,1,00,1","","","","","2,1,009,1,+999,9","","","SYN054AAXX  29181 31725 32998 00000 10073 20041 40093 52009;","Q01  00002PRCP99"
"31725099999","2000-04-29T21:00:00","4","48.6166666","133.8333333","52.0","SMIDOVICH, RS","FM-12","99999","V020","999,9,C,0000,1","99999,9,9,N","020000,1,N,1","+0070,1","+0034,1","10087,1","99,0000,9,1","","","","","","","05,99,1,00,1,00,1,99999,9,00,1,02,1","","","","","8,1,006,1,+999,9","","","SYN060AAXX  29211 31725 32998 50000 10070 20034 40087 58006 80002;","Q01  00002PRCP99"
"31725099999","2000-04-30T00:00:00","4","48.6166666","133.8333333","52.0","SMIDOVICH, RS","FM-12","99999","V020","180,1,N,0020,1","99999,9,9,N","020000,1,N,1","+0167,1","+0050,1","10085,1","99,0000,9,1","","","","","","","08,99,1,00,1,00,1,99999,9,00,1,06,1","","","999,N,+0069,1","99999,9,10023,1","3,1,001,1,+999,9","","","SYN076AAXX  30001 31725 32998 81802 10167 20050 30023 40085 53001 80006 333 20069;","Q01  00002PRCP99"
"31725099999","2000-04-30T03:00:00","4","48.6166666","133.8333333","52.0","SMIDOVICH, RS","FM-12","99999","V020","180,1,N,0030,1","99999,9,9,N","020000,1,N,1","+0225,1","+0015,1","10075,1","","","","","","","","08,99,1,00,1,00,1,99999,9,00,1,06,1","","","","","8,1,009,1,+999,9","","","SYN060AAXX  30031 31725 42998 81803 10225 20015 40075 58009 80006;",
"31725099999","2000-04-30T06:00:00","4","48.6166666","133.8333333","52.0","SMIDOVICH, RS","FM-12","99999","V020","180,1,N,0030,1","99999,9,9,N","020000,1,N,1","+0243,1","+0025,1","10060,1","","","","","","","","08,99,1,00,1,00,1,99999,9,00,1,02,1","","","","","7,1,015,1,+999,9","","","SYN060AAXX  30061 31725 42998 81803 10243 20025 40060 57015 80002;",
"31725099999","2000-04-30T09:00:00","4","48.6166666","133.8333333","52.0","SMIDOVICH, RS","FM-12","99999","V020","180,1,N,0010,1","99999,9,9,N","020000,1,N,1","+0213,1","+0030,1","10059,1","99,0000,9,1","","","","","","","08,99,1,00,1,00,1,99999,9,00,1,02,1","","","999,M,+0243,1","","6,1,001,1,+999,9","","","SYN070AAXX  30091 31725 32998 81801 10213 20030 40059 56001 80002 333 10243;","Q01  00002PRCP99"
"31725099999","2000-04-30T12:00:00","4","48.6166666","133.8333333","52.0","SMIDOVICH, RS","FM-12","99999","V020","999,9,C,0000,1","99999,9,9,N","020000,1,N,1","+0166,1","+0070,1","10072,1","99,0000,9,1","","","","","","","08,99,1,00,1,00,1,99999,9,00,1,02,1","","","999,M,+0243,1","99999,9,10010,1","3,1,012,1,+999,9","","","SYN076AAXX  30121 31725 32998 80000 10166 20070 30010 40072 53012 80002 333 10243;","Q01  00002PRCP99"
"31725099999","2000-04-30T15:00:00","4","48.6166666","133.8333333","52.0","SMIDOVICH, RS","FM-12","99999","V020","999,9,C,0000,1","99999,9,9,N","020000,1,N,1","+0142,1","+0068,1","10084,1","","","","","","","","08,99,1,00,1,00,1,99999,9,00,1,02,1","","","","","2,1,011,1,+999,9","","","SYN060AAXX  30151 31725 42998 80000 10142 20068 40084 52011 80002;",
"31725099999","2000-04-30T18:00:00","4","48.6166666","133.8333333","52.0","SMIDOVICH, RS","FM-12","99999","V020","999,9,C,0000,1","99999,9,9,N","020000,1,N,1","+0106,1","+0059,1","10084,1","","","","","","","","05,99,1,00,1,00,1,99999,9,00,1,02,1","","","","","8,1,001,1,+999,9","","","SYN060AAXX  30181 31725 42998 50000 10106 20059 40084 58001 80002;",
"31725099999","2000-04-30T21:00:00","4","48.6166666","133.8333333","52.0","SMIDOVICH, RS","FM-12","99999","V020","320,1,N,0020,1","22000,1,9,N","004000,1,N,1","+0081,1","+0029,1","10094,1","99,0000,9,1","","","2,1,03,1","2,1,03,1","","00,1,+99999,9,99,9","00,99,1,00,1,00,1,99999,9,00,1,00,1","","","","","3,1,009,1,+999,9","05,1","","SYN060AAXX  30211 31725 31996 03202 10081 20029 40094 53009 70522;","Q01  00002PRCP99"
"31725099999","2000-05-01T00:00:00","4","48.6166666","133.8333333","52.0","SMIDOVICH, RS","FM-12","99999","V020","320,1,N,0010,1","99999,9,9,N","004000,1,N,1","+0177,1","+0050,1","10093,1","99,0000,9,1","","","1,1,06,1","1,1,06,1","","","08,99,1,00,1,00,1,99999,9,00,1,04,1","","","999,N,+0074,1","99999,9,10032,1","2,1,003,1,+999,9","05,1","","SYN082AAXX  01001 31725 32996 83201 10177 20050 30032 40093 52003 70511 80004 333 20074;","Q01  00002PRCP99"
"31725099999","2000-05-01T03:00:00","4","48.6166666","133.8333333","52.0","SMIDOVICH, RS","FM-12","99999","V020","230,1,N,0010,1","99999,9,9,N","020000,1,N,1","+0250,1","+0029,1","10091,1","","","","2,1,03,1","2,1,03,1","","","08,99,1,02,1,00,1,99999,9,04,1,04,1","","","","","8,1,002,1,+999,9","05,1","","SYN066AAXX  01031 31725 41998 82301 10250 20029 40091 58002 70522 82044;",
"31725099999","2000-05-01T06:00:00","4","48.6166666","133.8333333","52.0","SMIDOVICH, RS","FM-12","99999","V020","230,1,N,0010,1","03600,1,9,N","020000,1,N,1","+0254,1","+0011,1","10074,1","","","","","","","","08,99,1,01,1,03,1,00450,1,04,1,02,1","","","","","7,1,017,1,+999,9","","","SYN060AAXX  01061 31725 42498 82301 10254 20011 40074 57017 81342;",
"31725099999","2000-05-01T09:00:00","4","48.6166666","133.8333333","52.0","SMIDOVICH, RS","FM-12","99999","V020","230,1,N,0010,1","99999,9,9,N","020000,1,N,1","+0240,1","+0023,1","10069,1","99,0000,9,1","","","","","","","08,99,1,01,1,00,1,99999,9,04,1,01,1","","","999,M,+0263,1","","7,1,005,1,+999,9","","","SYN070AAXX  01091 31725 32998 82301 10240 20023 40069 57005 81041 333 10263;","Q01  00002PRCP99"
"31725099999","2000-05-01T12:00:00","4","48.6166666","133.8333333","52.0","SMIDOVICH, RS","FM-12","99999","V020","230,1,N,0010,1","99999,9,9,N","020000,1,N,1","+0151,1","+0084,1","10083,1","99,0000,9,1","","","","","","","08,99,1,02,1,00,1,99999,9,04,1,02,1","","","999,M,+0263,1","99999,9,10021,1","3,1,013,1,+999,9","","","SYN076AAXX  01121 31725 32998 82301 10151 20084 30021 40083 53013 82042 333 10263;","Q01  00002PRCP99"
"31725099999","2000-05-01T15:00:00","4","48.6166666","133.8333333","52.0","SMIDOVICH, RS","FM-12","99999","V020","320,1,N,0010,1","22000,1,9,N","020000,1,N,1","+0134,1","+0090,1","10087,1","","","","","","","","03,99,1,02,1,00,1,99999,9,04,1,01,1","","","","","2,1,003,1,+999,9","","","SYN060AAXX  01151 31725 42998 33201 10134 20090 40087 52003 82041;",
"31725099999","2000-05-01T18:00:00","4","48.6166666","133.8333333","52.0","SMIDOVICH, RS","FM-12","99999","V020","340,1,N,0010,1","99999,9,9,N","020000,1,N,1","+0093,1","+0084,1","10092,1","","","","","","","","05,99,1,02,1,00,1,99999,9,04,1,01,1","","","","","2,1,004,1,+999,9","","","SYN060AAXX  01181 31725 42998 53401 10093 20084 40092 52004 82041;",
"31725099999","2000-05-01T21:00:00","4","48.6166666","133.8333333","52.0","SMIDOVICH, RS","FM-12","99999","V020","999,9,C,0000,1","99999,9,9,N","004000,1,N,1","+0075,1","+0025,1","10104,1","99,0000,9,1","","","2,1,03,1","2,1,03,1","","","08,99,1,02,1,00,1,99999,9,04,1,04,1","","","","","2,1,011,1,+999,9","05,1","","SYN066AAXX  01211 31725 31996 80000 10075 20025 40104 52011 70522 82044;","Q01  00002PRCP99"
"31725099999","2000-05-02T00:00:00","4","48.6166666","133.8333333","52.0","SMIDOVICH, RS","FM-12","99999","V020","050,1,N,0020,1","99999,9,9,N","004000,1,N,1","+0164,1","+0045,1","10101,1","99,0000,9,1","","","2,1,06,1","2,1,06,1","","","08,99,1,05,1,00,1,99999,9,04,1,01,1","","","999,N,+0071,1","99999,9,10039,1","4,1,000,1,+999,9","05,1","","SYN082AAXX  02001 31725 31996 80502 10164 20045 30039 40101 54000 70522 85041 333 20071;","Q01  00002PRCP99"
"31725099999","2000-05-02T03:00:00","4","48.6166666","133.8333333","52.0","SMIDOVICH, RS","FM-12","99999","V020","180,1,N,0010,1","99999,9,9,N","004000,1,N,1","+0228,1","+0073,1","10097,1","","","","2,1,03,1","2,1,03,1","","","08,99,1,03,1,00,1,99999,9,04,1,01,1","","","","","8,1,003,1,+999,9","05,1","","SYN066AAXX  02031 31725 41996 81801 10228 20073 40097 58003 70522 83041;",
"31725099999","2000-05-02T06:00:00","4","48.6166666","133.8333333","52.0","SMIDOVICH, RS","FM-12","99999","V020","180,1,N,0020,1","99999,9,9,N","020000,1,N,1","+0250,1","+0013,1","10081,1","","","","","","","","05,99,1,00,1,00,1,99999,9,00,1,01,1","","","","","7,1,016,1,+999,9","","","SYN060AAXX  02061 31725 42998 51802 10250 20013 40081 57016 80001;",
"31725099999","2000-05-02T09:00:00","4","48.6166666","133.8333333","52.0","SMIDOVICH, RS","FM-12","99999","V020","180,1,N,0010,1","22000,1,9,N","020000,1,N,1","+0233,1","+0036,1","10072,1","99,0000,9,1","","","","","","00,1,+99999,9,99,9","00,99,1,00,1,00,1,99999,9,00,1,00,1","","","999,M,+0252,1","","7,1,009,1,+999,9","","","SYN064AAXX  02091 31725 32998 01801 10233 20036 40072 57009 333 10252;","Q01  00002PRCP99"
"31725099999","2000-05-02T12:00:00","4","48.6166666","133.8333333","52.0","SMIDOVICH, RS","FM-12","99999","V020","180,1,N,0010,1","22000,1,9,N","020000,1,N,1","+0146,1","+0048,1","10074,1","99,0000,9,1","","","","","","00,1,+99999,9,99,9","00,99,1,00,1,00,1,99999,9,00,1,00,1","","","999,M,+0252,1","99999,9,10012,1","3,1,001,1,+999,9","","","SYN070AAXX  02121 31725 32998 01801 10146 20048 30012 40074 53001 333 10252;","Q01  00002PRCP99"
"31725099999","2000-05-02T15:00:00","4","48.6166666","133.8333333","52.0","SMIDOVICH, RS","FM-12","99999","V020","999,9,C,0000,1","22000,1,9,N","020000,1,N,1","+0106,1","+0068,1","10077,1","","","","","","","00,1,+99999,9,99,9","00,99,1,00,1,00,1,99999,9,00,1,00,1","","","","","1,1,001,1,+999,9","","","SYN054AAXX  02151 31725 42998 00000 10106 20068 40077 51001;",
"31725099999","2000-05-02T18:00:00","4","48.6166666","133.8333333","52.0","SMIDOVICH, RS","FM-12","99999","V020","999,9,C,0000,1","22000,1,9,N","020000,1,N,1","+0082,1","+0056,1","10083,1","","","","","","","00,1,+99999,9,99,9","00,99,1,00,1,00,1,99999,9,00,1,00,1","","","","","3,1,005,1,+999,9","","","SYN054AAXX  02181 31725 42998 00000 10082 20056 40083 53005;",
"31725099999","2000-05-02T21:00:00","4","48.6166666","133.8333333","52.0","SMIDOVICH, RS","FM-12","99999","V020","200,1,N,0040,1","22000,1,9,N","020000,1,N,1","+0087,1","+0040,1","10091,1","99,0000,9,1","","","","","","","02,99,1,02,1,00,1,99999,9,04,1,00,1","","","","","2,1,009,1,+999,9","","","SYN060AAXX  02211 31725 32998 22004 10087 20040 40091 52009 82040;","Q01  00002PRCP99"
"31725099999","2000-05-03T00:00:00","4","48.6166666","133.8333333","52.0","SMIDOVICH, RS","FM-12","99999","V020","180,1,N,0080,1","22000,1,9,N","020000,1,N,1","+0142,1","+0034,1","10092,1","99,0000,9,1","","","","","","","02,99,1,02,1,00,1,99999,9,04,1,00,1","","","999,N,+0080,1","99999,9,10029,1","1,1,002,1,+999,9","","","SYN076AAXX  03001 31725 32998 21808 10142 20034 30029 40092 51002 82040 333 20080;","Q01  00002PRCP99"
"31725099999","2000-05-03T03:00:00","4","48.6166666","133.8333333","52.0","SMIDOVICH, RS","FM-12","99999","V020","180,1,N,0060,1","22000,1,9,N","020000,1,N,1","+0194,1","+0048,1","10083,1","","","","","","","","03,99,1,00,1,00,1,99999,9,00,1,02,1","","","","","8,1,007,1,+999,9","","","SYN060AAXX  03031 31725 42998 31806 10194 20048 40083 58007 80002;",
"31725099999","2000-05-03T06:00:00","4","48.6166666","133.8333333","52.0","SMIDOVICH, RS","FM-12","99999","V020","180,1,N,0060,1","99999,9,9,N","020000,1,N,1","+0212,1","+0029,1","10066,1","","","","","","","","05,99,1,00,1,00,1,99999,9,00,1,02,1","","","","","7,1,017,1,+999,9","","","SYN060AAXX  03061 31725 42998 51806 10212 20029 40066 57017 80002;",
"31725099999","2000-05-03T09:00:00","4","48.6166666","133.8333333","52.0","SMIDOVICH, RS","FM-12","99999","V020","180,1,N,0020,1","99999,9,9,N","020000,1,N,1","+0185,1","+0064,1","10061,1","99,0000,9,1","","","","","","","06,99,1,03,1,00,1,99999,9,04,1,02,1","","","999,M,+0219,1","","7,1,005,1,+999,9","","","SYN070AAXX  03091 31725 32998 61802 10185 20064 40061 57005 83042 333 10219;","Q01  00002PRCP99"
"31725099999","2000-05-03T12:00:00","4","48.6166666","133.8333333","52.0","SMIDOVICH, RS","FM-12","99999","V020","999,9,C,0000,1","99999,9,9,N","020000,1,N,1","+0150,1","+0068,1","10080,1","99,0000,9,1","","","","","","","06,99,1,03,1,00,1,99999,9,04,1,02,1","","","999,M,+0219,1","99999,9,10018,1","3,1,018,1,+999,9","","","SYN076AAXX  03121 31725 32998 60000 10150 20068 30018 40080 53018 83042 333 10219;","Q01  00002PRCP99"
"31725099999","2000-05-03T15:00:00","4","48.6166666","133.8333333","52.0","SMIDOVICH, RS","FM-12","99999","V020","999,9,C,0000,1","99999,9,9,N","020000,1,N,1","+0122,1","+0090,1","10083,1","","","","","","","","07,99,1,07,1,00,1,99999,9,04,1,00,1","","","","","1,1,002,1,+999,9","","","SYN060AAXX  03151 31725 42998 70000 10122 20090 40083 51002 87040;",
"31725099999","2000-05-03T18:00:00","4","48.6166666","133.8333333","52.0","SMIDOVICH, RS","FM-12","99999","V020","360,1,N,0010,1","99999,9,9,N","020000,1,N,1","+0120,1","+0088,1","10083,1","","","","8,1,06,1","2,1,06,1","","","08,99,1,08,1,00,1,99999,9,04,1,99,9","","","","","0,1,000,1,+999,9","02,1","","SYN066AAXX  03181 31725 41998 83601 10120 20088 40083 50000 70282 8804/;",
"31725099999","2000-05-03T21:00:00","4","48.6166666","133.8333333","52.0","SMIDOVICH, RS","FM-12","99999","V020","360,1,N,0020,1","00420,1,9,N","020000,1,N,1","+0115,1","+0074,1","10095,1","","","","8,1,03,1","2,1,03,1","","","08,99,1,06,1,03,1,00450,1,04,1,99,9","","","","","3,1,011,1,+999,9","03,1","","SYN066AAXX  03211 31725 /2498 83602 10115 20074 40095 53011 70382 8634/;",
"31725099999","2000-05-04T00:00:00","4","48.6166666","133.8333333","52.0","SMIDOVICH, RS","FM-12","99999","V020","020,1,N,0030,1","00420,1,9,N","010000,1,N,1","+0091,1","+0032,1","10110,1","00,0007,9,1","","","8,1,06,1","2,1,06,1","","","08,99,1,08,1,03,1,00450,1,99,9,99,9","","","999,N,+0089,1","99999,9,10046,1","2,1,015,1,+999,9","80,1","","SYN088AAXX  04001 31725 11497 80203 10091 20032 30046 40110 52015 69900 78082 883// 333 20089;",
"31725099999","2000-05-04T03:00:00","4","48.6166666","133.8333333","52.0","SMIDOVICH, RS","FM-12","99999","V020","050,1,N,0010,1","00420,1,9,N","010000,1,N,1","+0091,1","+0058,1","10116,1","99,0000,2,1","","","8,1,03,1","2,1,03,1","","","08,99,1,08,1,03,1,00450,1,99,9,99,9","","","","","2,1,006,1,+999,9","80,1","","SYN066AAXX  04031 31725 31497 80501 10091 20058 40116 52006 78082 883//;",
"31725099999","2000-05-04T06:00:00","4","48.6166666","133.8333333","52.0","SMIDOVICH, RS","FM-12","99999","V020","050,1,N,0020,1","00420,1,9,N","020000,1,N,1","+0102,1","+0077,1","10119,1","","","","8,1,06,1","2,1,06,1","","","08,99,1,06,1,03,1,00450,1,04,1,99,9","","","","","2,1,003,1,+999,9","25,1","","SYN066AAXX  04061 31725 41498 80502 10102 20077 40119 52003 72582 8634/;",
"31725099999","2000-05-04T09:00:00","4","48.6166666","133.8333333","52.0","SMIDOVICH, RS","FM-12","99999","V020","050,1,N,0010,1","03600,1,9,N","020000,1,N,1","+0107,1","+0074,1","10116,1","","","","","","","","08,99,1,02,1,05,1,00450,1,04,1,02,1","","","999,M,+0116,1","","8,1,003,1,+999,9","","","SYN070AAXX  04091 31725 /2498 80501 10107 20074 40116 58003 82542 333 10116;",
"31725099999","2000-05-04T12:00:00","4","48.6166666","133.8333333","52.0","SMIDOVICH, RS","FM-12","99999","V020","999,9,C,0000,1","00420,1,9,N","020000,1,N,1","+0091,1","+0070,1","10145,1","00,0020,9,1","","","","","","","08,99,1,06,1,05,1,00450,1,04,1,99,9","","","999,M,+0166,1","99999,9,10081,1","3,1,029,1,+999,9","","","SYN082AAXX  04121 31725 12498 80000 10091 20070 30081 40145 53029 60020 8654/ 333 10166;",
"31725099999","2000-05-04T15:00:00","4","48.6166666","133.8333333","52.0","SMIDOVICH, RS","FM-12","99999","V020","050,1,N,0040,1","00420,1,9,N","020000,1,N,1","+0073,1","+0041,1","10151,1","99,0000,2,1","","","","","","","08,99,1,06,1,03,1,00450,1,04,1,99,9","","","","","2,1,006,1,+999,9","","","SYN060AAXX  04151 31725 32498 80504 10073 20041 40151 52006 8634/;",
"31725099999","2000-05-04T18:00:00","4","48.6166666","133.8333333","52.0","SMIDOVICH, RS","FM-12","99999","V020","050,1,N,0020,1","00420,1,9,N","020000,1,N,1","+0076,1","+0036,1","10162,1","","","","","","","","08,99,1,08,1,03,1,00450,1,99,9,99,9","","","","","2,1,011,1,+999,9","","","SYN060AAXX  04181 31725 42498 80502 10076 20036 40162 52011 883//;",
"31725099999","2000-05-04T21:00:00","4","48.6166666","133.8333333","52.0","SMIDOVICH, RS","FM-12","99999","V020","050,1,N,0020,1","00420,1,9,N","010000,1,N,1","+0066,1","+0040,1","10155,1","","","","8,1,03,1","2,1,03,1","","","08,99,1,08,1,03,1,00450,1,99,9,99,9","","","","","8,1,007,1,+999,9","80,1","","SYN066AAXX  04211 31725 /1497 80502 10066 20040 40155 58007 78082 883//;",
"31725099999","2000-05-05T00:00:00","4","48.6166666","133.8333333","52.0","SMIDOVICH, RS","FM-12","99999","V020","050,1,N,0040,1","00420,1,9,N","010000,1,N,1","+0060,1","+0046,1","10157,1","00,0008,9,1","","","8,1,06,1","2,1,06,1","","","08,99,1,08,1,03,1,00450,1,99,9,99,9","","","999,N,+0060,1","99999,9,10092,1","3,1,002,1,+999,9","80,1","","SYN088AAXX  05001 31725 11497 80504 10060 20046 30092 40157 53002 69980 78082 883// 333 20060;",
"31725099999","2000-05-05T03:00:00","4","48.6166666","133.8333333","52.0","SMIDOVICH, RS","FM-12","99999","V020","050,1,N,0040,1","00420,1,9,N","004000,1,N,1","+0068,1","+0057,1","10165,1","","","","8,1,03,1","2,1,03,1","","","08,99,1,08,1,03,1,00450,1,99,9,99,9","","","","","2,1,008,1,+999,9","80,1","","SYN066AAXX  05031 31725 41496 80504 10068 20057 40165 52008 78082 883//;",
"31725099999","2000-05-05T06:00:00","4","48.6166666","133.8333333","52.0","SMIDOVICH, RS","FM-12","99999","V020","020,1,N,0030,1","00420,1,9,N","020000,1,N,1","+0076,1","+0053,1","10163,1","","","","8,1,06,1","2,1,06,1","","","08,99,1,07,1,03,1,00450,1,04,1,99,9","","","","","8,1,002,1,+999,9","02,1","","SYN066AAXX  05061 31725 41498 80203 10076 20053 40163 58002 70282 8734/;",
"31725099999","2000-05-05T09:00:00","4","48.6166666","133.8333333","52.0","SMIDOVICH, RS","FM-12","99999","V020","050,1,N,0020,1","00420,1,9,N","020000,1,N,1","+0083,1","+0045,1","10155,1","","","","","","","","07,99,1,06,1,03,1,00450,1,04,1,00,1","","","999,M,+0084,1","","7,1,008,1,+999,9","","","SYN070AAXX  05091 31725 /2498 70502 10083 20045 40155 57008 86340 333 10084;",
"31725099999","2000-05-05T12:00:00","4","48.6166666","133.8333333","52.0","SMIDOVICH, RS","FM-12","99999","V020","999,9,C,0000,1","03600,1,9,N","020000,1,N,1","+0058,1","+0026,1","10159,1","00,0119,9,1","","","","","","","06,99,1,02,1,04,1,00800,1,04,1,02,1","","","999,M,+0084,1","99999,9,10094,1","3,1,004,1,+999,9","","","SYN082AAXX  05121 31725 12598 60000 10058 20026 30094 40159 53004 60120 82442 333 10084;",
"31725099999","2000-05-05T15:00:00","4","48.6166666","133.8333333","52.0","SMIDOVICH, RS","FM-12","99999","V020","999,9,C,0000,1","22000,1,9,N","020000,1,N,1","+0051,1","+0034,1","10162,1","","","","","","","","01,99,1,01,1,04,1,00450,1,00,1,00,1","","","","","1,1,002,1,+999,9","","","SYN060AAXX  05151 31725 42498 10000 10051 20034 40162 51002 81400;",
"31725099999","2000-05-05T18:00:00","4","48.6166666","133.8333333","52.0","SMIDOVICH, RS","FM-12","99999","V020","320,1,N,0010,1","22000,1,9,N","020000,1,N,1","+0038,1","+0026,1","10156,1","","","","","","","","01,99,1,01,1,04,1,00800,1,00,1,00,1","","","","","8,1,006,1,+999,9","","","SYN060AAXX  05181 31725 42598 13201 10038 20026 40156 58006 81400;",
"31725099999","2000-05-05T21:00:00","4","48.6166666","133.8333333","52.0","SMIDOVICH, RS","FM-12","99999","V020","230,1,N,0010,1","22000,1,9,N","020000,1,N,1","+0020,1","+0007,1","10163,1","99,0000,9,1","","","","","","","02,99,1,02,1,00,1,99999,9,04,1,00,1","","","","","3,1,006,1,+999,9","","","SYN060AAXX  05211 31725 32998 22301 10020 20007 40163 53006 82040;","Q01  00002PRCP99"
"31725099999","2000-05-06T00:00:00","4","48.6166666","133.8333333","52.0","SMIDOVICH, RS","FM-12","99999","V020","230,1,N,0030,1","00750,1,9,N","020000,1,N,1","+0090,1","+0043,1","10155,1","99,0000,9,1","","","","","","","06,99,1,05,1,04,1,00800,1,04,1,00,1","","","999,N,+0008,1","99999,9,10091,1","8,1,005,1,+999,9","","","SYN076AAXX  06001 31725 32598 62303 10090 20043 30091 40155 58005 85440 333 20008;","Q01  00002PRCP99"
"31725099999","2000-05-06T03:00:00","4","48.6166666","133.8333333","52.0","SMIDOVICH, RS","FM-12","99999","V020","200,1,N,0040,1","00750,1,9,N","020000,1,N,1","+0138,1","+0040,1","10127,1","","","","","","","","07,99,1,06,1,04,1,00800,1,04,1,00,1","","","","","7,1,027,1,+999,9","","","SYN060AAXX  06031 31725 42598 72004 10138 20040 40127 57027 86440;",
"31725099999","2000-05-06T06:00:00","4","48.6166666","133.8333333","52.0","SMIDOVICH, RS","FM-12","99999","V020","230,1,N,0040,1","03600,1,9,N","020000,1,N,1","+0166,1","+0062,1","10114,1","","","","","","","","08,99,1,01,1,04,1,00800,1,04,1,02,1","","","","","7,1,012,1,+999,9","","","SYN060AAXX  06061 31725 42598 82304 10166 20062 40114 57012 81442;",
"31725099999","2000-05-06T09:00:00","4","48.6166666","133.8333333","52.0","SMIDOVICH, RS","FM-12","99999","V020","230,1,N,0030,1","00420,1,9,N","020000,1,N,1","+0157,1","+0050,1","10103,1","99,0000,9,1","","","","","","","08,99,1,05,1,04,1,00450,1,03,1,01,1","","","999,M,+0170,1","","7,1,011,1,+999,9","","","SYN070AAXX  06091 31725 32498 82303 10157 20050 40103 57011 85431 333 10170;","Q01  00002PRCP99"
"31725099999","2000-05-06T12:00:00","4","48.6166666","133.8333333","52.0","SMIDOVICH, RS","FM-12","99999","V020","230,1,N,0020,1","03600,1,9,N","020000,1,N,1","+0105,1","+0071,1","10113,1","99,0000,9,1","","","","","","","08,99,1,02,1,04,1,00800,1,03,1,01,1","","","999,M,+0170,1","99999,9,10049,1","3,1,008,1,+999,9","","","SYN076AAXX  06121 31725 32598 82302 10105 20071 30049 40113 53008 82431 333 10170;","Q01  00002PRCP99"
"31725099999","2000-05-06T15:00:00","4","48.6166666","133.8333333","52.0","SMIDOVICH, RS","FM-12","99999","V020","999,9,C,0000,1","22000,1,9,N","020000,1,N,1","+0081,1","+0068,1","10118,1","","","","","","","","03,99,1,02,1,00,1,99999,9,04,1,01,1","","","","","2,1,004,1,+999,9","","","SYN060AAXX  06151 31725 42998 30000 10081 20068 40118 52004 82041;",
"31725099999","2000-05-06T18:00:00","4","48.6166666","133.8333333","52.0","SMIDOVICH, RS","FM-12","99999","V020","200,1,N,0010,1","22000,1,9,N","020000,1,N,1","+0066,1","+0057,1","10121,1","","","","","","","00,1,+99999,9,99,9","00,99,1,00,1,00,1,99999,9,00,1,00,1","","","","","2,1,003,1,+999,9","","","SYN054AAXX  06181 31725 42998 02001 10066 20057 40121 52003;",
"31725099999","2000-05-06T21:00:00","4","48.6166666","133.8333333","52.0","SMIDOVICH, RS","FM-12","99999","V020","180,1,N,0010,1","22000,1,9,N","004000,1,N,1","+0075,1","+0067,1","10125,1","99,0000,9,1","","","0,1,03,1","0,1,03,1","","","03,99,1,00,1,00,1,99999,9,00,1,02,1","","","","","2,1,004,1,+999,9","10,1","","SYN070AAXX  06211 31725 31996 31801 10075 20067 40125 52004 71000 80002 555;","Q01  00002PRCP99"
"31725099999","2000-05-07T00:00:00","4","48.6166666","133.8333333","52.0","SMIDOVICH, RS","FM-12","99999","V020","180,1,N,0020,1","22000,1,9,N","020000,1,N,1","+0138,1","+0082,1","10128,1","99,0000,9,1","","","","","","00,1,+99999,9,99,9","00,99,1,00,1,00,1,99999,9,00,1,00,1","","","999,N,+0050,1","99999,9,10065,1","2,1,005,1,+999,9","","","SYN070AAXX  07001 31725 32998 01802 10138 20082 30065 40128 52005 333 20050;","Q01  00002PRCP99"
"31725099999","2000-05-07T03:00:00","4","48.6166666","133.8333333","52.0","SMIDOVICH, RS","FM-12","99999","V020","180,1,N,0020,1","22000,1,9,N","020000,1,N,1","+0196,1","+0067,1","10124,1","","","","","","","00,1,+99999,9,99,9","00,99,1,00,1,00,1,99999,9,00,1,00,1","","","","","8,1,002,1,+999,9","","","SYN054AAXX  07031 31725 42998 01802 10196 20067 40124 58002;",
"31725099999","2000-05-07T06:00:00","4","48.6166666","133.8333333","52.0","SMIDOVICH, RS","FM-12","99999","V020","180,1,N,0040,1","22000,1,9,N","020000,1,N,1","+0211,1","+0078,1","10103,1","","","","","","","00,1,+99999,9,99,9","00,99,1,00,1,00,1,99999,9,00,1,00,1","","","","","7,1,021,1,+999,9","","","SYN054AAXX  07061 31725 42998 01804 10211 20078 40103 57021;",
"31725099999","2000-05-07T09:00:00","4","48.6166666","133.8333333","52.0","SMIDOVICH, RS","FM-12","99999","V020","180,1,N,0020,1","99999,9,9,N","020000,1,N,1","+0208,1","+0086,1","10090,1","99,0000,9,1","","","","","","","07,99,1,03,1,00,1,99999,9,04,1,02,1","","","999,M,+0217,1","","7,1,013,1,+999,9","","","SYN070AAXX  07091 31725 32998 71802 10208 20086 40090 57013 83042 333 10217;","Q01  00002PRCP99"
"31725099999","2000-05-07T12:00:00","4","48.6166666","133.8333333","52.0","SMIDOVICH, RS","FM-12","99999","V020","999,9,C,0000,1","22000,1,9,N","020000,1,N,1","+0147,1","+0110,1","10091,1","99,0000,9,1","","","","","","","02,99,1,99,9,00,1,99999,9,04,1,00,1","","","999,M,+0217,1","99999,9,10029,1","4,1,000,1,+999,9","","","SYN076AAXX  07121 31725 32998 20000 10147 20110 30029 40091 54000 83040 333 10217;","Q01+000032SCOTLCQ02  00002PRCP99"
"31725099999","2000-05-07T15:00:00","4","48.6166666","133.8333333","52.0","SMIDOVICH, RS","FM-12","99999","V020","999,9,C,0000,1","22000,1,9,N","020000,1,N,1","+0111,1","+0095,1","10088,1","","","","","","","","01,99,1,01,1,00,1,99999,9,04,1,00,1","","","","","8,1,005,1,+999,9","","","SYN060AAXX  07151 31725 42998 10000 10111 20095 40088 58005 81040;",
"31725099999","2000-05-07T18:00:00","4","48.6166666","133.8333333","52.0","SMIDOVICH, RS","FM-12","99999","V020","180,1,N,0020,1","22000,1,9,N","020000,1,N,1","+0121,1","+0064,1","10079,1","","","","","","","00,1,+99999,9,99,9","00,99,1,00,1,00,1,99999,9,00,1,00,1","","","","","7,1,008,1,+999,9","","","SYN054AAXX  07181 31725 42998 01802 10121 20064 40079 57008;",
"31725099999","2000-05-07T21:00:00","4","48.6166666","133.8333333","52.0","SMIDOVICH, RS","FM-12","99999","V020","230,1,N,0020,1","22000,1,9,N","020000,1,N,1","+0098,1","+0055,1","10086,1","99,0000,9,1","","","","","","","02,99,1,02,1,00,1,99999,9,04,1,00,1","","","","","3,1,006,1,+999,9","","","SYN060AAXX  07211 31725 32998 22302 10098 20055 40086 53006 82040;","Q01  00002PRCP99"
"31725099999","2000-05-08T00:00:00","4","48.6166666","133.8333333","52.0","SMIDOVICH, RS","FM-12","99999","V020","230,1,N,0080,1","22000,1,9,N","020000,1,N,1","+0168,1","+0051,1","10082,1","99,0000,9,1","","","","","","","02,99,1,99,9,00,1,99999,9,04,1,00,1","","","120,N,+0099,1","99999,9,10020,1","8,1,002,1,+999,9","","","SYN082AAXX  08001 31725 32998 22308 10168 20051 30020 40082 58002 83040 333 20099 91010;","Q01+000032SCOTLCQ02  00002PRCP99"
"31725099999","2000-05-08T03:00:00","4","48.6166666","133.8333333","52.0","SMIDOVICH, RS","FM-12","99999","V020","200,1,N,0060,1","09000,1,9,N","020000,1,N,1","+0186,1","+0055,1","10076,1","","","","","","","","08,99,1,03,1,05,1,00450,1,00,1,02,1","","","","","7,1,005,1,+999,9","","","SYN070AAXX  08031 31725 42498 82006 10186 20055 40076 57005 83502 333 91010;",
"31725099999","2000-05-08T06:00:00","4","48.6166666","133.8333333","52.0","SMIDOVICH, RS","FM-12","99999","V020","230,1,N,0060,1","00420,1,9,N","020000,1,N,1","+0155,1","+0043,1","10070,1","","","","","","","","08,99,1,06,1,03,1,00450,1,04,1,99,9","","","","","7,1,007,1,+999,9","","","SYN070AAXX  08061 31725 42498 82306 10155 20043 40070 57007 8634/ 333 91010;",
"31725099999","2000-05-08T09:00:00","4","48.6166666","133.8333333","52.0","SMIDOVICH, RS","FM-12","99999","V020","320,1,N,0040,1","03600,1,9,N","020000,1,N,1","+0090,1","+0023,1","10107,1","","","","8,1,03,1","2,1,03,1","","","08,99,1,03,1,03,1,00450,1,04,1,02,1","","","999,M,+0192,1","","3,1,035,1,+999,9","01,1","","SYN076AAXX  08091 31725 /1498 83204 10090 20023 40107 53035 70182 83342 333 10192;",
"31725099999","2000-05-08T12:00:00","4","48.6166666","133.8333333","52.0","SMIDOVICH, RS","FM-12","99999","V020","320,1,N,0010,1","22000,1,9,N","020000,1,N,1","+0068,1","+0035,1","10131,1","00,0005,9,1","","","8,1,06,1","1,1,06,1","","","03,99,1,03,1,00,1,99999,9,04,1,00,1","","","999,M,+0192,1","99999,9,10066,1","2,1,023,1,+999,9","01,1","","SYN088AAXX  08121 31725 11998 33201 10068 20035 30066 40131 52023 69960 70181 83040 333 10192;",
"31725099999","2000-05-08T15:00:00","4","48.6166666","133.8333333","52.0","SMIDOVICH, RS","FM-12","99999","V020","320,1,N,0010,1","22000,1,9,N","020000,1,N,1","+0034,1","+0013,1","10154,1","","","","","","","","02,99,1,02,1,00,1,99999,9,04,1,00,1","","","","","2,1,021,1,+999,9","","","SYN060AAXX  08151 31725 42998 23201 10034 20013 40154 52021 82040;",
"31725099999","2000-05-08T18:00:00","4","48.6166666","133.8333333","52.0","SMIDOVICH, RS","FM-12","99999","V020","999,9,C,0000,1","22000,1,9,N","020000,1,N,1","+0046,1","+0001,1","10163,1","","","","","","","","02,99,1,02,1,00,1,99999,9,04,1,00,1","","","","","2,1,010,1,+999,9","","","SYN060AAXX  08181 31725 42998 20000 10046 20001 40163 52010 82040;",
"31725099999","2000-05-08T21:00:00","4","48.6166666","133.8333333","52.0","SMIDOVICH, RS","FM-12","99999","V020","320,1,N,0020,1","22000,1,9,N","050000,1,N,1","+0055,1","-0029,1","10173,1","99,0000,9,1","","","","","","00,1,+99999,9,99,9","00,99,1,00,1,00,1,99999,9,00,1,00,1","","","","","2,1,011,1,+999,9","","","SYN054AAXX  08211 31725 32999 03202 10055 21029 40173 52011;","Q01  00002PRCP99"
"31725099999","2000-05-09T00:00:00","4","48.6166666","133.8333333","52.0","SMIDOVICH, RS","FM-12","99999","V020","290,1,N,0020,1","22000,1,9,N","050000,1,N,1","+0140,1","-0047,1","10184,1","99,0000,9,1","","","","","","00,1,+99999,9,99,9","00,99,1,00,1,00,1,99999,9,00,1,00,1","","","999,N,+0034,1","99999,9,10121,1","2,1,013,1,+999,9","","","SYN070AAXX  09001 31725 32999 02902 10140 21047 30121 40184 52013 333 20034;","Q01  00002PRCP99"
"31725099999","2000-05-09T03:00:00","4","48.6166666","133.8333333","52.0","SMIDOVICH, RS","FM-12","99999","V020","320,1,N,0020,1","22000,1,9,N","020000,1,N,1","+0172,1","-0086,1","10175,1","","","","","","","00,1,+99999,9,99,9","00,99,1,00,1,00,1,99999,9,00,1,00,1","","","","","8,1,008,1,+999,9","","","SYN054AAXX  09031 31725 42998 03202 10172 21086 40175 58008;",
"31725099999","2000-05-09T06:00:00","4","48.6166666","133.8333333","52.0","SMIDOVICH, RS","FM-12","99999","V020","250,1,N,0030,1","22000,1,9,N","020000,1,N,1","+0194,1","-0071,1","10159,1","","","","","","","","01,99,1,01,1,00,1,99999,9,04,1,00,1","","","","","7,1,015,1,+999,9","","","SYN060AAXX  09061 31725 42998 12503 10194 21071 40159 57015 81040;",
"31725099999","2000-05-09T09:00:00","4","48.6166666","133.8333333","52.0","SMIDOVICH, RS","FM-12","99999","V020","230,1,N,0020,1","22000,1,9,N","020000,1,N,1","+0185,1","-0050,1","10154,1","99,0000,9,1","","","","","","","02,99,1,02,1,00,1,99999,9,04,1,00,1","","","999,M,+0196,1","","7,1,005,1,+999,9","","","SYN070AAXX  09091 31725 32998 22302 10185 21050 40154 57005 82040 333 10196;","Q01  00002PRCP99"
"31725099999","2000-05-09T12:00:00","4","48.6166666","133.8333333","52.0","SMIDOVICH, RS","FM-12","99999","V020","999,9,C,0000,1","22000,1,9,N","020000,1,N,1","+0106,1","-0002,1","10171,1","99,0000,9,1","","","","","","","02,99,1,02,1,00,1,99999,9,04,1,00,1","","","999,M,+0196,1","99999,9,10107,1","3,1,014,1,+999,9","","","SYN076AAXX  09121 31725 32998 20000 10106 21002 30107 40171 53014 82040 333 10196;","Q01  00002PRCP99"
"31725099999","2000-05-09T15:00:00","4","48.6166666","133.8333333","52.0","SMIDOVICH, RS","FM-12","99999","V020","999,9,C,0000,1","22000,1,9,N","020000,1,N,1","+0068,1","+0045,1","10176,1","","","","","","","00,1,+99999,9,99,9","00,99,1,00,1,00,1,99999,9,00,1,00,1","","","","","2,1,004,1,+999,9","","","SYN054AAXX  09151 31725 42998 00000 10068 20045 40176 52004;",
"31725099999","2000-05-09T18:00:00","4","48.6166666","133.8333333","52.0","SMIDOVICH, RS","FM-12","99999","V020","999,9,C,0000,1","22000,1,9,N","020000,1,N,1","+0051,1","+0024,1","10185,1","","","","","","","","02,99,1,02,1,00,1,99999,9,04,1,00,1","","","","","2,1,008,1,+999,9","","","SYN060AAXX  09181 31725 42998 20000 10051 20024 40185 52008 82040;",
"31725099999","2000-05-09T21:00:00","4","48.6166666","133.8333333","52.0","SMIDOVICH, RS","FM-12","99999","V020","020,1,N,0020,1","99999,9,9,N","020000,1,N,1","+0052,1","+0017,1","10186,1","99,0000,9,1","","","","","","","08,99,1,02,1,00,1,99999,9,04,1,06,1","","","","","1,1,001,1,+999,9","","","SYN060AAXX  09211 31725 32998 80202 10052 20017 40186 51001 82046;","Q01  00002PRCP99"
"31725099999","2000-05-10T00:00:00","4","48.6166666","133.8333333","52.0","SMIDOVICH, RS","FM-12","99999","V020","050,1,N,0030,1","99999,9,9,N","020000,1,N,1","+0128,1","+0017,1","10184,1","99,0000,9,1","","","","","","","08,99,1,00,1,00,1,99999,9,00,1,06,1","","","999,N,+0043,1","99999,9,10121,1","1,1,001,1,+999,9","","","SYN076AAXX  10001 31725 32998 80503 10128 20017 30121 40184 51001 80006 333 20043;","Q01  00002PRCP99"
"31725099999","2000-05-10T03:00:00","4","48.6166666","133.8333333","52.0","SMIDOVICH, RS","FM-12","99999","V020","050,1,N,0030,1","99999,9,9,N","020000,1,N,1","+0181,1","-0017,1","10170,1","","","","","","","","08,99,1,00,1,00,1,99999,9,00,1,06,1","","","","","8,1,012,1,+999,9","","","SYN060AAXX  10031 31725 42998 80503 10181 21017 40170 58012 80006;",
"31725099999","2000-05-10T06:00:00","4","48.6166666","133.8333333","52.0","SMIDOVICH, RS","FM-12","99999","V020","050,1,N,0040,1","09000,1,9,N","020000,1,N,1","+0193,1","-0005,1","10144,1","","","","","","","","08,99,1,03,1,03,1,00450,1,00,1,07,1","","","","","7,1,026,1,+999,9","","","SYN060AAXX  10061 31725 42498 80504 10193 21005 40144 57026 83307;",
"31725099999","2000-05-10T09:00:00","4","48.6166666","133.8333333","52.0","SMIDOVICH, RS","FM-12","99999","V020","140,1,N,0020,1","00420,1,9,N","020000,1,N,1","+0178,1","+0015,1","10136,1","99,0000,9,1","","","","","","","08,99,1,06,1,03,1,00450,1,04,1,99,9","","","999,M,+0195,1","","7,1,008,1,+999,9","","","SYN070AAXX  10091 31725 32498 81402 10178 20015 40136 57008 8634/ 333 10195;","Q01  00002PRCP99"
"31725099999","2000-05-10T12:00:00","4","48.6166666","133.8333333","52.0","SMIDOVICH, RS","FM-12","99999","V020","230,1,N,0020,1","00420,1,9,N","020000,1,N,1","+0138,1","+0045,1","10155,1","99,0000,9,1","","","","","","","08,99,1,06,1,03,1,00450,1,04,1,99,9","","","999,M,+0195,1","99999,9,10092,1","3,1,017,1,+999,9","","","SYN076AAXX  10121 31725 32498 82302 10138 20045 30092 40155 53017 8634/ 333 10195;","Q01  00002PRCP99"
"31725099999","2000-05-10T15:00:00","4","48.6166666","133.8333333","52.0","SMIDOVICH, RS","FM-12","99999","V020","230,1,N,0010,1","00420,1,9,N","020000,1,N,1","+0130,1","+0058,1","10153,1","","","","8,1,03,1","2,1,03,1","","","08,99,1,08,1,05,1,00450,1,99,9,99,9","","","","","8,1,002,1,+999,9","02,1","","SYN066AAXX  10151 31725 41498 82301 10130 20058 40153 58002 70282 885//;",
"31725099999","2000-05-10T18:00:00","4","48.6166666","133.8333333","52.0","SMIDOVICH, RS","FM-12","99999","V020","999,9,C,0000,1","00420,1,9,N","020000,1,N,1","+0096,1","+0076,1","10149,1","","","","8,1,06,1","8,1,06,1","","","08,99,1,08,1,03,1,00450,1,99,9,99,9","","","","","7,1,005,1,+999,9","80,1","","SYN066AAXX  10181 31725 41498 80000 10096 20076 40149 57005 78088 883//;",
"31725099999","2000-05-10T21:00:00","4","48.6166666","133.8333333","52.0","SMIDOVICH, RS","FM-12","99999","V020","090,1,N,0010,1","00420,1,9,N","010000,1,N,1","+0094,1","+0077,1","10133,1","","","","8,1,03,1","2,1,03,1","","","08,99,1,08,1,03,1,00450,1,99,9,99,9","","","","","7,1,016,1,+999,9","80,1","","SYN066AAXX  10211 31725 /1497 80901 10094 20077 40133 57016 78082 883//;",
"31725099999","2000-05-11T00:00:00","4","48.6166666","133.8333333","52.0","SMIDOVICH, RS","FM-12","99999","V020","050,1,N,0020,1","00420,1,9,N","010000,1,N,1","+0100,1","+0076,1","10127,1","00,0020,9,1","","","8,1,06,1","2,1,06,1","","","08,99,1,08,1,03,1,00450,1,99,9,99,9","","","999,N,+0091,1","99999,9,10063,1","7,1,006,1,+999,9","80,1","","SYN088AAXX  11001 31725 11497 80502 10100 20076 30063 40127 57006 60020 78082 883// 333 20091;",
"31725099999","2000-05-11T03:00:00","4","48.6166666","133.8333333","52.0","SMIDOVICH, RS","FM-12","99999","V020","320,1,N,0040,1","00420,1,9,N","010000,1,N,1","+0124,1","+0025,1","10115,1","","","","8,1,03,1","2,1,03,1","","","08,99,1,08,1,03,1,00450,1,99,9,99,9","","","","","7,1,011,1,+999,9","80,1","","SYN066AAXX  11031 31725 41497 83204 10124 20025 40115 57011 78082 883//;",
"31725099999","2000-05-11T06:00:00","4","48.6166666","133.8333333","52.0","SMIDOVICH, RS","FM-12","99999","V020","360,1,N,0020,1","00420,1,9,N","010000,1,N,1","+0124,1","+0061,1","10105,1","","","","8,1,06,1","2,1,06,1","","","08,99,1,08,1,03,1,00450,1,99,9,99,9","","","","","7,1,010,1,+999,9","80,1","","SYN066AAXX  11061 31725 41497 83602 10124 20061 40105 57010 78082 883//;",
"31725099999","2000-05-11T09:00:00","4","48.6166666","133.8333333","52.0","SMIDOVICH, RS","FM-12","99999","V020","320,1,N,0020,1","00420,1,9,N","020000,1,N,1","+0116,1","+0074,1","10099,1","","","","8,1,03,1","2,1,03,1","","","08,99,1,06,1,03,1,00450,1,04,1,99,9","","","999,M,+0141,1","","7,1,006,1,+999,9","02,1","","SYN076AAXX  11091 31725 /1498 83202 10116 20074 40099 57006 70282 8634/ 333 10141;",
"31725099999","2000-05-11T12:00:00","4","48.6166666","133.8333333","52.0","SMIDOVICH, RS","FM-12","99999","V020","999,9,9,9999,9","00420,1,9,N","004000,1,N,1","+0093,1","+0070,1","10109,1","00,0008,9,1","","","8,1,06,1","2,1,06,1","","","08,99,1,08,1,03,1,00450,1,99,9,99,9","","","999,M,+0141,1","99999,9,10045,1","3,1,009,1,+999,9","81,1","","SYN088AAXX  11121 31725 11496 8504/ 10093 20070 30045 40109 53009 69970 78182 883// 333 10141;",
"31725099999","2000-05-11T15:00:00","4","48.6166666","133.8333333","52.0","SMIDOVICH, RS","FM-12","99999","V020","050,1,N,0040,1","00420,1,9,N","010000,1,N,1","+0087,1","+0068,1","10109,1","","","","8,1,03,1","2,1,03,1","","","08,99,1,08,1,03,1,00450,1,99,9,99,9","","","","","4,1,000,1,+999,9","80,1","","SYN066AAXX  11151 31725 41497 80504 10087 20068 40109 54000 78082 883//;",
"31725099999","2000-05-11T18:00:00","4","48.6166666","133.8333333","52.0","SMIDOVICH, RS","FM-12","99999","V020","050,1,N,0040,1","00420,1,9,N","010000,1,N,1","+0079,1","+0064,1","10107,1","","","","8,1,06,1","2,1,06,1","","","08,99,1,08,1,03,1,00450,1,99,9,99,9","","","","","8,1,003,1,+999,9","80,1","","SYN066AAXX  11181 31725 41497 80504 10079 20064 40107 58003 78082 883//;",
"31725099999","2000-05-11T21:00:00","4","48.6166666","133.8333333","52.0","SMIDOVICH, RS","FM-12","99999","V020","070,1,N,0030,1","00420,1,9,N","020000,1,N,1","+0077,1","+0062,1","10110,1","","","","8,1,03,1","2,1,03,1","","","08,99,1,08,1,03,1,00450,1,99,9,99,9","","","","","7,1,003,1,+999,9","02,1","","SYN066AAXX  11211 31725 /1498 80703 10077 20062 40110 57003 70282 883//;",
"31725099999","2000-05-12T00:00:00","4","48.6166666","133.8333333","52.0","SMIDOVICH, RS","FM-12","99999","V020","050,1,N,0040,1","00420,1,9,N","010000,1,N,1","+0080,1","+0062,1","10111,1","00,0071,9,1","","","8,1,06,1","8,1,06,1","","","08,99,1,08,1,03,1,00450,1,99,9,99,9","","","999,N,+0077,1","99999,9,10046,1","3,1,007,1,+999,9","80,1","","SYN088AAXX  12001 31725 11497 80504 10080 20062 30046 40111 53007 60070 78088 883// 333 20077;",
"31725099999","2000-05-12T03:00:00","4","48.6166666","133.8333333","52.0","SMIDOVICH, RS","FM-12","99999","V020","050,1,N,0060,1","00420,1,9,N","020000,1,N,1","+0095,1","+0067,1","10108,1","","","","","","","","08,99,1,07,1,05,1,00450,1,99,9,99,9","","","","","8,1,002,1,+999,9","","","SYN070AAXX  12031 31725 42498 80506 10095 20067 40108 58002 875// 333 91010;",
"31725099999","2000-05-12T06:00:00","4","48.6166666","133.8333333","52.0","SMIDOVICH, RS","FM-12","99999","V020","050,1,N,0060,1","00420,1,9,N","010000,1,N,1","+0103,1","+0071,1","10096,1","","","","8,1,06,1","8,1,06,1","","","08,99,1,08,1,03,1,00450,1,99,9,99,9","","","","","7,1,012,1,+999,9","80,1","","SYN076AAXX  12061 31725 41497 80506 10103 20071 40096 57012 78088 883// 333 01010;",
"31725099999","2000-05-12T09:00:00","4","48.6166666","133.8333333","52.0","SMIDOVICH, RS","FM-12","99999","V020","050,1,N,0030,1","00420,1,9,N","010000,1,N,1","+0091,1","+0078,1","10103,1","","","","8,1,03,1","2,1,03,1","","","08,99,1,08,1,03,1,00450,1,99,9,99,9","","","999,M,+0115,1","","3,1,007,1,+999,9","80,1","","SYN076AAXX  12091 31725 /1497 80503 10091 20078 40103 53007 78082 883// 333 10115;",
"31725099999","2000-05-12T12:00:00","4","48.6166666","133.8333333","52.0","SMIDOVICH, RS","FM-12","99999","V020","050,1,N,0040,1","00420,1,9,N","010000,1,N,1","+0082,1","+0067,1","10104,1","00,0051,9,1","","","8,1,06,1","8,1,06,1","","","08,99,1,08,1,03,1,00450,1,99,9,99,9","","","999,M,+0115,1","99999,9,10039,1","4,1,000,1,+999,9","80,1","","SYN088AAXX  12121 31725 11497 80504 10082 20067 30039 40104 54000 60050 78088 883// 333 10115;",
"31725099999","2000-05-12T15:00:00","4","48.6166666","133.8333333","52.0","SMIDOVICH, RS","FM-12","99999","V020","050,1,N,0030,1","00420,1,9,N","004000,1,N,1","+0080,1","+0067,1","10093,1","","","","6,1,03,1","6,1,03,1","","","08,99,1,99,9,07,1,00450,1,02,1,99,9","","","","","8,1,011,1,+999,9","63,1","","SYN066AAXX  12151 31725 41496 80503 10080 20067 40093 58011 76366 8872/;","Q01+000082SCOTLC"
"31725099999","2000-05-12T18:00:00","4","48.6166666","133.8333333","52.0","SMIDOVICH, RS","FM-12","99999","V020","050,1,N,0010,1","00420,1,9,N","004000,1,N,1","+0076,1","+0062,1","10090,1","","","","6,1,06,1","6,1,06,1","","","08,99,1,99,9,07,1,00450,1,02,1,99,9","","","","","7,1,003,1,+999,9","63,1","","SYN066AAXX  12181 31725 41496 80501 10076 20062 40090 57003 76366 8872/;","Q01+000082SCOTLC"
"31725099999","2000-05-12T21:00:00","4","48.6166666","133.8333333","52.0","SMIDOVICH, RS","FM-12","99999","V020","230,1,N,0010,1","00420,1,9,N","020000,1,N,1","+0070,1","+0056,1","10094,1","","","","8,1,03,1","2,1,03,1","","","08,99,1,07,1,05,1,00450,1,99,9,99,9","","","","","3,1,004,1,+999,9","01,1","","SYN066AAXX  12211 31725 /1498 82301 10070 20056 40094 53004 70182 875//;",
"31725099999","2000-05-13T00:00:00","4","48.6166666","133.8333333","52.0","SMIDOVICH, RS","FM-12","99999","V020","070,1,N,0030,1","00420,1,9,N","002000,1,N,1","+0077,1","+0068,1","10097,1","00,0099,9,1","","","6,1,06,1","5,1,06,1","","","08,99,1,06,1,07,1,00450,1,02,1,99,9","","","999,N,+0069,1","99999,9,10032,1","2,1,003,1,+999,9","53,1","","SYN088AAXX  13001 31725 11495 80703 10077 20068 30032 40097 52003 60100 75365 8672/ 333 20069;",
"31725099999","2000-05-13T03:00:00","4","48.6166666","133.8333333","52.0","SMIDOVICH, RS","FM-12","99999","V020","090,1,N,0020,1","00420,1,9,N","002000,1,N,1","+0092,1","+0080,1","10095,1","","","","6,1,03,1","5,1,03,1","","","08,99,1,06,1,07,1,00450,1,02,1,99,9","","","","","8,1,001,1,+999,9","63,1","","SYN066AAXX  13031 31725 41495 80902 10092 20080 40095 58001 76365 8672/;",
"31725099999","2000-05-13T06:00:00","4","48.6166666","133.8333333","52.0","SMIDOVICH, RS","FM-12","99999","V020","090,1,N,0030,1","00420,1,9,N","002000,1,N,1","+0102,1","+0092,1","10091,1","","","","6,1,06,1","2,1,06,1","","","08,99,1,99,9,07,1,00450,1,02,1,99,9","","","","","7,1,004,1,+999,9","63,1","","SYN066AAXX  13061 31725 41495 80903 10102 20092 40091 57004 76362 8872/;","Q01+000082SCOTLC"
"31725099999","2000-05-13T09:00:00","4","48.6166666","133.8333333","52.0","SMIDOVICH, RS","FM-12","99999","V020","140,1,N,0030,1","00420,1,9,N","004000,1,N,1","+0104,1","+0092,1","10092,1","","","","6,1,03,1","2,1,03,1","","","08,99,1,06,1,07,1,00450,1,02,1,99,9","","","999,M,+0108,1","","3,1,001,1,+999,9","61,1","","SYN076AAXX  13091 31725 /1496 81403 10104 20092 40092 53001 76162 8672/ 333 10108;",
"31725099999","2000-05-13T12:00:00","4","48.6166666","133.8333333","52.0","SMIDOVICH, RS","FM-12","99999","V020","070,1,N,0010,1","00420,1,9,N","004000,1,N,1","+0097,1","+0085,1","10096,1","00,0079,9,1","","","6,1,06,1","2,1,06,1","","","08,99,1,06,1,07,1,00450,1,02,1,99,9","","","999,M,+0108,1","99999,9,10032,1","2,1,004,1,+999,9","61,1","","SYN088AAXX  13121 31725 11496 80701 10097 20085 30032 40096 52004 60080 76162 8672/ 333 10108;",
"31725099999","2000-05-13T15:00:00","4","48.6166666","133.8333333","52.0","SMIDOVICH, RS","FM-12","99999","V020","999,9,C,0000,1","00420,1,9,N","002000,1,N,1","+0092,1","+0084,1","10097,1","","","","6,1,03,1","2,1,03,1","","","08,99,1,99,9,07,1,00450,1,02,1,99,9","","","","","1,1,001,1,+999,9","63,1","","SYN066AAXX  13151 31725 41495 80000 10092 20084 40097 51001 76362 8872/;","Q01+000082SCOTLC"
"31725099999","2000-05-13T18:00:00","4","48.6166666","133.8333333","52.0","SMIDOVICH, RS","FM-12","99999","V020","999,9,C,0000,1","00420,1,9,N","002000,1,N,1","+0086,1","+0082,1","10096,1","","","","6,1,06,1","2,1,06,1","","","08,99,1,07,1,07,1,00450,1,02,1,99,9","","","","","8,1,001,1,+999,9","63,1","","SYN066AAXX  13181 31725 41495 80000 10086 20082 40096 58001 76362 8772/;",
"31725099999","2000-05-13T21:00:00","4","48.6166666","133.8333333","52.0","SMIDOVICH, RS","FM-12","99999","V020","999,9,C,0000,1","00750,1,9,N","000500,1,N,1","+0092,1","+0084,1","10098,1","","","","6,1,03,1","4,1,03,1","","","08,99,1,06,1,05,1,00800,1,02,1,99,9","","","","","3,1,002,1,+999,9","46,1","","SYN066AAXX  13211 31725 /1593 80000 10092 20084 40098 53002 74664 8652/;",
"31725099999","2000-05-14T00:00:00","4","48.6166666","133.8333333","52.0","SMIDOVICH, RS","FM-12","99999","V020","999,9,C,0000,1","00420,1,9,N","020000,1,N,1","+0090,1","+0088,1","10106,1","00,0071,9,1","","","6,1,06,1","2,1,06,1","","","08,99,1,06,1,05,1,00450,1,02,1,99,9","","","999,N,+0085,1","99999,9,10042,1","1,1,008,1,+999,9","02,1","","SYN088AAXX  14001 31725 11498 80000 10090 20088 30042 40106 51008 60070 70262 8652/ 333 20085;",
"31725099999","2000-05-14T03:00:00","4","48.6166666","133.8333333","52.0","SMIDOVICH, RS","FM-12","99999","V020","050,1,N,0020,1","00420,1,9,N","020000,1,N,1","+0112,1","+0098,1","10150,1","","","","5,1,03,1","2,1,03,1","","","08,99,1,08,1,05,1,00450,1,99,9,99,9","","","","","8,1,001,1,+999,9","20,1","","SYN066AAXX  14031 31725 41498 80502 10112 20098 40150 58001 72052 885//;",
"31725099999","2000-05-14T06:00:00","4","48.6166666","133.8333333","52.0","SMIDOVICH, RS","FM-12","99999","V020","050,1,N,0020,1","99999,9,9,N","020000,1,N,1","+0123,1","+0093,1","10101,1","","","","2,1,06,1","2,1,06,1","","","07,99,1,99,9,05,1,00450,1,00,1,00,1","","","","","7,1,003,1,+999,9","20,1","","SYN066AAXX  14061 31725 41498 70502 10123 20093 40101 57003 72022 88500;","Q01+000082SCOTLC"
"31725099999","2000-05-14T09:00:00","4","48.6166666","133.8333333","52.0","SMIDOVICH, RS","FM-12","99999","V020","999,9,C,0000,1","22000,1,9,N","020000,1,N,1","+0138,1","+0090,1","10099,1","","","","","","","","03,99,1,02,1,05,1,00450,1,04,1,00,1","","","999,M,+0142,1","","6,1,002,1,+999,9","","","SYN070AAXX  14091 31725 /2498 30000 10138 20090 40099 56002 82540 333 10142;",
"31725099999","2000-05-14T12:00:00","4","48.6166666","133.8333333","52.0","SMIDOVICH, RS","FM-12","99999","V020","999,9,C,0000,1","99999,9,9,N","020000,1,N,1","+0102,1","+0088,1","10111,1","00,0005,9,1","","","","","","","06,99,1,05,1,00,1,99999,9,04,1,02,1","","","999,M,+0142,1","99999,9,10047,1","3,1,011,1,+999,9","","","SYN082AAXX  14121 31725 12998 60000 10102 20088 30047 40111 53011 69960 85042 333 10142;",
"31725099999","2000-05-14T15:00:00","4","48.6166666","133.8333333","52.0","SMIDOVICH, RS","FM-12","99999","V020","999,9,C,0000,1","99999,9,9,N","020000,1,N,1","+0099,1","+0082,1","10115,1","","","","","","","","08,99,1,07,1,00,1,99999,9,04,1,99,9","","","","","2,1,004,1,+999,9","","","SYN060AAXX  14151 31725 42998 80000 10099 20082 40115 52004 8704/;",
"31725099999","2000-05-14T18:00:00","4","48.6166666","133.8333333","52.0","SMIDOVICH, RS","FM-12","99999","V020","999,9,C,0000,1","03600,1,9,N","020000,1,N,1","+0088,1","+0077,1","10116,1","","","","","","","","08,99,1,03,1,05,1,00450,1,04,1,99,9","","","","","1,1,001,1,+999,9","","","SYN060AAXX  14181 31725 42498 80000 10088 20077 40116 51001 8354/;",
"31725099999","2000-05-14T21:00:00","4","48.6166666","133.8333333","52.0","SMIDOVICH, RS","FM-12","99999","V020","999,9,C,0000,1","00420,1,9,N","050000,1,N,1","+0086,1","+0076,1","10123,1","99,0000,9,1","","","","","","","07,99,1,06,1,05,1,00450,1,04,1,00,1","","","","","3,1,007,1,+999,9","","","SYN060AAXX  14211 31725 32499 70000 10086 20076 40123 53007 86540;","Q01  00002PRCP99"
"31725099999","2000-05-15T00:00:00","4","48.6166666","133.8333333","52.0","SMIDOVICH, RS","FM-12","99999","V020","230,1,N,0010,1","00420,1,9,N","050000,1,N,1","+0128,1","+0086,1","10130,1","99,0000,9,1","","","","","","","08,99,1,06,1,05,1,00450,1,04,1,02,1","","","999,N,+0083,1","99999,9,10067,1","2,1,008,1,+999,9","","","SYN076AAXX  15001 31725 32499 82301 10128 20086 30067 40130 52008 86542 333 20083;","Q01  00002PRCP99"
"31725099999","2000-05-15T03:00:00","4","48.6166666","133.8333333","52.0","SMIDOVICH, RS","FM-12","99999","V020","230,1,N,0010,1","00420,1,9,N","050000,1,N,1","+0171,1","+0064,1","10120,1","","","","","","","","06,99,1,06,1,05,1,00450,1,00,1,00,1","","","","","8,1,009,1,+999,9","","","SYN060AAXX  15031 31725 42499 62301 10171 20064 40120 58009 86500;",
"31725099999","2000-05-15T06:00:00","4","48.6166666","133.8333333","52.0","SMIDOVICH, RS","FM-12","99999","V020","230,1,N,0010,1","00420,1,9,N","050000,1,N,1","+0173,1","+0071,1","10107,1","","","","","","","","06,99,1,06,1,05,1,00450,1,00,1,00,1","","","","","7,1,013,1,+999,9","","","SYN060AAXX  15061 31725 42499 62301 10173 20071 40107 57013 86500;",
"31725099999","2000-05-15T09:00:00","4","48.6166666","133.8333333","52.0","SMIDOVICH, RS","FM-12","99999","V020","230,1,N,0010,1","22000,1,9,N","050000,1,N,1","+0181,1","+0061,1","10099,1","99,0000,9,1","","","","","","","02,99,1,99,9,05,1,00450,1,00,1,00,1","","","999,M,+0195,1","","7,1,007,1,+999,9","","","SYN070AAXX  15091 31725 32499 22301 10181 20061 40099 57007 83500 333 10195;","Q01+000032SCOTLCQ02  00002PRCP99"
"31725099999","2000-05-15T12:00:00","4","48.6166666","133.8333333","52.0","SMIDOVICH, RS","FM-12","99999","V020","999,9,C,0000,1","22000,1,9,N","050000,1,N,1","+0128,1","+0107,1","10102,1","99,0000,9,1","","","","","","00,1,+99999,9,99,9","00,99,1,00,1,00,1,99999,9,00,1,00,1","","","999,M,+0195,1","99999,9,10039,1","3,1,001,1,+999,9","","","SYN070AAXX  15121 31725 32999 00000 10128 20107 30039 40102 53001 333 10195;","Q01  00002PRCP99"
"31725099999","2000-05-15T15:00:00","4","48.6166666","133.8333333","52.0","SMIDOVICH, RS","FM-12","99999","V020","999,9,C,0000,1","22000,1,9,N","050000,1,N,1","+0112,1","+0097,1","10103,1","","","","","","","00,1,+99999,9,99,9","00,99,1,00,1,00,1,99999,9,00,1,00,1","","","","","4,1,000,1,+999,9","","","SYN054AAXX  15151 31725 42999 00000 10112 20097 40103 54000;",
"31725099999","2000-05-15T18:00:00","4","48.6166666","133.8333333","52.0","SMIDOVICH, RS","FM-12","99999","V020","999,9,C,0000,1","99999,9,9,N","010000,1,N,1","+0102,1","+0084,1","10086,1","","","","","","","","","",,,,"8,1,017,1,+999,9","","","SYN060AAXX  15181 31725 42997 /0000 10102 20084 40086 58017 86040;",
"31725099999","2000-05-15T21:00:00","4","48.6166666","133.8333333","52.0","SMIDOVICH, RS","FM-12","99999","V020","999,9,C,0000,1","00420,1,9,N","010000,1,N,1","+0104,1","+0084,1","10090,1","","","","8,1,03,1","2,1,03,1","","","08,99,1,08,1,03,1,00450,1,99,9,99,9","","","","","3,1,004,1,+999,9","80,1","","SYN066AAXX  15211 31725 /1497 80000 10104 20084 40090 53004 78082 883//;",
"31725099999","2000-05-16T00:00:00","4","48.6166666","133.8333333","52.0","SMIDOVICH, RS","FM-12","99999","V020","230,1,N,0010,1","00420,1,9,N","020000,1,N,1","+0125,1","+0102,1","10087,1","00,0008,9,1","","","8,1,06,1","2,1,06,1","","","08,99,1,06,1,05,1,00450,1,04,1,99,9","","","999,N,+0095,1","99999,9,10024,1","8,1,002,1,+999,9","01,1","","SYN088AAXX  16001 31725 11498 82301 10125 20102 30024 40087 58002 69970 70182 8654/ 333 20095;",
"31725099999","2000-05-16T03:00:00","4","48.6166666","133.8333333","52.0","SMIDOVICH, RS","FM-12","99999","V020","230,1,N,0020,1","00420,1,9,N","020000,1,N,1","+0185,1","+0092,1","10073,1","","","","","","","","06,99,1,06,1,05,1,00450,1,00,1,00,1","","","","","7,1,012,1,+999,9","","","SYN060AAXX  16031 31725 42498 62302 10185 20092 40073 57012 86500;",
"31725099999","2000-05-16T06:00:00","4","48.6166666","133.8333333","52.0","SMIDOVICH, RS","FM-12","99999","V020","230,1,N,0020,1","00420,1,9,N","020000,1,N,1","+0190,1","+0095,1","10068,1","","","","","","","","05,99,1,05,1,05,1,00450,1,00,1,00,1","","","","","7,1,005,1,+999,9","","","SYN060AAXX  16061 31725 42498 52302 10190 20095 40068 57005 85500;",
"31725099999","2000-05-16T09:00:00","4","48.6166666","133.8333333","52.0","SMIDOVICH, RS","FM-12","99999","V020","230,1,N,0010,1","00420,1,9,N","010000,1,N,1","+0155,1","+0122,1","10071,1","","","","8,1,03,1","2,1,03,1","","","08,99,1,99,9,03,1,00450,1,00,1,00,1","","","999,M,+0195,1","","3,1,002,1,+999,9","80,1","","SYN076AAXX  16091 31725 /1497 82301 10155 20122 40071 53002 78082 86300 333 10195;","Q01+000062SCOTLC"
"31725099999","2000-05-16T12:00:00","4","48.6166666","133.8333333","52.0","SMIDOVICH, RS","FM-12","99999","V020","999,9,C,0000,1","00420,1,9,N","020000,1,N,1","+0137,1","+0120,1","10075,1","00,0030,9,1","","","8,1,06,1","2,1,06,1","","","08,99,1,07,1,05,1,00450,1,99,9,99,9","","","999,M,+0195,1","99999,9,10012,1","2,1,003,1,+999,9","02,1","","SYN088AAXX  16121 31725 11498 80000 10137 20120 30012 40075 52003 60030 70282 875// 333 10195;",
"31725099999","2000-05-16T15:00:00","4","48.6166666","133.8333333","52.0","SMIDOVICH, RS","FM-12","99999","V020","999,9,C,0000,1","22000,1,9,N","020000,1,N,1","+0122,1","+0105,1","10075,1","","","","","","","","02,99,1,02,1,00,1,99999,9,04,1,00,1","","","","","4,1,000,1,+999,9","","","SYN060AAXX  16151 31725 42998 20000 10122 20105 40075 54000 82040;",
"31725099999","2000-05-16T18:00:00","4","48.6166666","133.8333333","52.0","SMIDOVICH, RS","FM-12","99999","V020","999,9,C,0000,1","00420,1,9,N","020000,1,N,1","+0109,1","+0099,1","10076,1","","","","","","","","06,99,1,06,1,03,1,00450,1,00,1,00,1","","","","","4,1,000,1,+999,9","","","SYN060AAXX  16181 31725 42498 60000 10109 20099 40076 54000 86300;",
"31725099999","2000-05-16T21:00:00","4","48.6166666","133.8333333","52.0","SMIDOVICH, RS","FM-12","99999","V020","999,9,C,0000,1","03600,1,9,N","050000,1,N,1","+0117,1","+0104,1","10070,1","","","","2,1,03,1","2,1,03,1","","","08,99,1,02,1,03,1,00450,1,04,1,02,1","","","","","8,1,005,1,+999,9","25,1","","SYN066AAXX  16211 31725 /1499 80000 10117 20104 40070 58005 72522 82342;",
"31725099999","2000-05-17T00:00:00","4","48.6166666","133.8333333","52.0","SMIDOVICH, RS","FM-12","99999","V020","230,1,N,0020,1","03600,1,9,N","020000,1,N,1","+0162,1","+0119,1","10068,1","00,0005,9,1","","","8,1,06,1","2,1,06,1","","","08,99,1,01,1,03,1,00450,1,04,1,02,1","","","999,N,+0103,1","99999,9,10006,1","6,1,001,1,+999,9","01,1","","SYN088AAXX  17001 31725 11498 82302 10162 20119 30006 40068 56001 69940 70182 81342 333 20103;",
"31725099999","2000-05-17T03:00:00","4","48.6166666","133.8333333","52.0","SMIDOVICH, RS","FM-12","99999","V020","200,1,N,0030,1","03600,1,9,N","020000,1,N,1","+0196,1","+0094,1","10056,1","","","","","","","","06,99,1,04,1,03,1,00450,1,04,1,00,1","","","","","8,1,011,1,+999,9","","","SYN060AAXX  17031 31725 42498 62003 10196 20094 40056 58011 84340;",
"31725099999","2000-05-17T06:00:00","4","48.6166666","133.8333333","52.0","SMIDOVICH, RS","FM-12","99999","V020","200,1,N,0030,1","22000,1,9,N","020000,1,N,1","+0218,1","+0090,1","10040,1","","","","","","","","03,99,1,02,1,03,1,00450,1,04,1,00,1","","","","","7,1,016,1,+999,9","","","SYN060AAXX  17061 31725 42498 32003 10218 20090 40040 57016 82340;",
"31725099999","2000-05-17T09:00:00","4","48.6166666","133.8333333","52.0","SMIDOVICH, RS","FM-12","99999","V020","230,1,N,0030,1","22000,1,9,N","020000,1,N,1","+0216,1","+0090,1","10040,1","99,0000,2,1","","","","","","","02,99,1,02,1,03,1,00450,1,00,1,00,1","","","999,M,+0223,1","","4,1,000,1,+999,9","","","SYN070AAXX  17091 31725 32498 22303 10216 20090 40040 54333 82300 333 10223;",
"31725099999","2000-05-17T12:00:00","4","48.6166666","133.8333333","52.0","SMIDOVICH, RS","FM-12","99999","V020","999,9,C,0000,1","22000,1,9,N","020000,1,N,1","+0147,1","+0107,1","10046,1","99,0000,9,1","","","","","","","01,99,1,01,1,04,1,00800,1,00,1,00,1","","","120,M,+0223,1","99999,9,09984,1","3,1,005,1,+999,9","","","SYN086AAXX  17121 31725 32598 10000 10147 20107 39984 40046 53005 81400 333 10223 555 12013;","Q01  00002PRCP99"
"31725099999","2000-05-17T15:00:00","4","48.6166666","133.8333333","52.0","SMIDOVICH, RS","FM-12","99999","V020","230,1,N,0010,1","00420,1,9,N","020000,1,N,1","+0140,1","+0114,1","10056,1","","","","","","","","08,99,1,06,1,03,1,00450,1,04,1,99,9","","","","","2,1,009,1,+999,9","","","SYN060AAXX  17151 31725 42498 82301 10140 20114 40056 52009 8634/;",
"31725099999","2000-05-17T18:00:00","4","48.6166666","133.8333333","52.0","SMIDOVICH, RS","FM-12","99999","V020","360,1,N,0020,1","00420,1,9,N","020000,1,N,1","+0136,1","+0121,1","10056,1","","","","8,1,06,1","2,1,06,1","","","08,99,1,06,1,03,1,00450,1,04,1,99,9","","","","","4,1,000,1,+999,9","25,1","","SYN066AAXX  17181 31725 41498 83602 10136 20121 40056 54000 72582 8634/;",
"31725099999","2000-05-17T21:00:00","4","48.6166666","133.8333333","52.0","SMIDOVICH, RS","FM-12","99999","V020","070,1,N,0020,1","03600,1,9,N","020000,1,N,1","+0132,1","+0113,1","10051,1","","","","","","","","08,99,1,01,1,04,1,00800,1,04,1,02,1","","","","","8,1,005,1,+999,9","","","SYN060AAXX  17211 31725 /1598 80702 10132 20113 40051 58005 81442;",
"31725099999","2000-05-18T00:00:00","4","48.6166666","133.8333333","52.0","SMIDOVICH, RS","FM-12","99999","V020","050,1,N,0030,1","22000,1,9,N","020000,1,N,1","+0169,1","+0120,1","10058,1","00,0041,9,1","","","","","","00,1,+99999,9,99,9","00,99,1,00,1,00,1,99999,9,00,1,00,1","","","999,N,+0121,1","99999,9,09996,1","3,1,008,1,+999,9","","","SYN076AAXX  18001 31725 12998 00503 10169 20120 39996 40058 53008 60040 333 20121;",
"31725099999","2000-05-18T03:00:00","4","48.6166666","133.8333333","52.0","SMIDOVICH, RS","FM-12","99999","V020","230,1,N,0030,1","09000,1,9,N","020000,1,N,1","+0207,1","+0118,1","10056,1","","","","","","","","08,99,1,03,1,05,1,00450,1,00,1,02,1","","","","","8,1,001,1,+999,9","","","SYN060AAXX  18031 31725 42498 82303 10207 20118 40056 58001 83502;",
"31725099999","2000-05-18T06:00:00","4","48.6166666","133.8333333","52.0","SMIDOVICH, RS","FM-12","99999","V020","270,1,N,0020,1","09000,1,9,N","020000,1,N,1","+0220,1","+0112,1","10061,1","","","","","","","","08,99,1,02,1,05,1,00450,1,00,1,02,1","","","","","3,1,005,1,+999,9","","","SYN060AAXX  18061 31725 42498 82702 10220 20112 40061 53005 82502;",
"31725099999","2000-05-18T09:00:00","4","48.6166666","133.8333333","52.0","SMIDOVICH, RS","FM-12","99999","V020","999,9,C,0000,1","22000,1,9,N","020000,1,N,1","+0217,1","+0099,1","10062,1","99,0000,9,1","","","","","","00,1,+99999,9,99,9","00,99,1,00,1,00,1,99999,9,00,1,00,1","","","999,M,+0220,1","","1,1,001,1,+999,9","","","SYN064AAXX  18091 31725 32998 00000 10217 20099 40062 51001 333 10220;","Q01  00002PRCP99"
"31725099999","2000-05-18T12:00:00","4","48.6166666","133.8333333","52.0","SMIDOVICH, RS","FM-12","99999","V020","999,9,C,0000,1","00420,1,9,N","020000,1,N,1","+0180,1","+0110,1","10082,1","99,0000,9,1","","","","","","","08,99,1,06,1,03,1,00450,1,04,1,01,1","","","999,M,+0220,1","99999,9,10021,1","3,1,020,1,+999,9","","","SYN076AAXX  18121 31725 32498 80000 10180 20110 30021 40082 53020 86341 333 10220;","Q01  00002PRCP99"
"31725099999","2000-05-18T15:00:00","4","48.6166666","133.8333333","52.0","SMIDOVICH, RS","FM-12","99999","V020","999,9,C,0000,1","00420,1,9,N","010000,1,N,1","+0172,1","+0125,1","10099,1","","","","8,1,03,1","8,1,03,1","","","08,99,1,05,1,03,1,00450,1,04,1,99,9","","","","","2,1,004,1,+999,9","80,1","","SYN066AAXX  18151 31725 41497 80000 10172 20125 40099 52004 78088 8534/;",
"31725099999","2000-05-18T18:00:00","4","48.6166666","133.8333333","52.0","SMIDOVICH, RS","FM-12","99999","V020","320,1,N,0010,1","03600,1,9,N","020000,1,N,1","+0142,1","+0136,1","10084,1","","","","8,1,06,1","2,1,06,1","","","08,99,1,03,1,03,1,00450,1,04,1,99,9","","","","","8,1,016,1,+999,9","01,1","","SYN066AAXX  18181 31725 41498 83201 10142 20136 40084 58016 70182 8334/;",
"31725099999","2000-05-18T21:00:00","4","48.6166666","133.8333333","52.0","SMIDOVICH, RS","FM-12","99999","V020","360,1,N,0010,1","03600,1,9,N","020000,1,N,1","+0133,1","+0106,1","10098,1","","","","","","","","08,99,1,02,1,03,1,00450,1,04,1,02,1","","","","","3,1,014,1,+999,9","","","SYN060AAXX  18211 31725 /2498 83601 10133 20106 40098 53014 82342;",
"31725099999","2000-05-19T00:00:00","4","48.6166666","133.8333333","52.0","SMIDOVICH, RS","FM-12","99999","V020","050,1,N,0040,1","03600,1,9,N","020000,1,N,1","+0161,1","+0113,1","10093,1","00,0005,9,1","","","","","","","07,99,1,03,1,05,1,00450,1,04,1,02,1","","","999,N,+0130,1","99999,9,10031,1","8,1,004,1,+999,9","","","SYN082AAXX  19001 31725 12498 70504 10161 20113 30031 40093 58004 69960 83542 333 20130;",
"31725099999","2000-05-19T03:00:00","4","48.6166666","133.8333333","52.0","SMIDOVICH, RS","FM-12","99999","V020","090,1,N,0040,1","99999,9,9,N","020000,1,N,1","+0196,1","+0119,1","10083,1","","","","","","","","07,99,1,00,1,00,1,99999,9,00,1,02,1","","","","","7,1,009,1,+999,9","","","SYN060AAXX  19031 31725 42998 70904 10196 20119 40083 57009 80002;",
"31725099999","2000-05-19T06:00:00","4","48.6166666","133.8333333","52.0","SMIDOVICH, RS","FM-12","99999","V020","090,1,N,0040,1","99999,9,9,N","020000,1,N,1","+0223,1","+0145,1","10064,1","","","","","","","","06,99,1,03,1,00,1,99999,9,04,1,02,1","","","","","7,1,019,1,+999,9","","","SYN060AAXX  19061 31725 42998 60904 10223 20145 40064 57019 83042;",
"31725099999","2000-05-19T09:00:00","4","48.6166666","133.8333333","52.0","SMIDOVICH, RS","FM-12","99999","V020","999,9,C,0000,1","99999,9,9,N","020000,1,N,1","+0217,1","+0099,1","10055,1","99,0000,9,1","","","","","","","05,99,1,00,1,00,1,99999,9,00,1,02,1","","","999,M,+0235,1","","7,1,009,1,+999,9","","","SYN070AAXX  19091 31725 32998 50000 10217 20099 40055 57009 80002 333 10235;","Q01  00002PRCP99"
"31725099999","2000-05-19T12:00:00","4","48.6166666","133.8333333","52.0","SMIDOVICH, RS","FM-12","99999","V020","999,9,C,0000,1","99999,9,9,N","020000,1,N,1","+0173,1","+0102,1","10066,1","99,0000,9,1","","","","","","","06,99,1,00,1,00,1,99999,9,00,1,02,1","","","999,M,+0235,1","99999,9,10004,1","3,1,010,1,+999,9","","","SYN076AAXX  19121 31725 32998 60000 10173 20102 30004 40066 53010 80002 333 10235;","Q01  00002PRCP99"
"31725099999","2000-05-19T18:00:00","4","48.6166666","133.8333333","52.0","SMIDOVICH, RS","FM-12","99999","V020","050,1,N,0020,1","99999,9,9,N","020000,1,N,1","+0116,1","+0097,1","10071,1","","","","","","","","06,99,1,03,1,00,1,99999,9,04,1,02,1","","","","","3,1,003,1,+999,9","","","SYN060AAXX  19181 31725 42998 60502 10116 20097 40071 53003 83042;",
"31725099999","2000-05-19T21:00:00","4","48.6166666","133.8333333","52.0","SMIDOVICH, RS","FM-12","99999","V020","020,1,N,0020,1","00420,1,9,N","020000,1,N,1","+0103,1","+0086,1","10082,1","99,0000,9,1","","","","","","","07,99,1,07,1,03,1,00450,1,00,1,00,1","","","","","2,1,011,1,+999,9","","","SYN060AAXX  19211 31725 32498 70202 10103 20086 40082 52011 87300;","Q01  00002PRCP99"
"31725099999","2000-05-20T00:00:00","4","48.6166666","133.8333333","52.0","SMIDOVICH, RS","FM-12","99999","V020","360,1,N,0030,1","00420,1,9,N","020000,1,N,1","+0126,1","+0103,1","10095,1","99,0000,9,1","","","8,1,06,1","2,1,06,1","","","08,99,1,08,1,03,1,00450,1,99,9,99,9","","","999,N,-0101,1","99999,9,10032,1","2,1,013,1,+999,9","02,1","","SYN082AAXX  20001 31725 31498 83603 10126 20103 30032 40095 52013 70282 883// 333 21101;","Q01  00002PRCP99"
"31725099999","2000-05-20T03:00:00","4","48.6166666","133.8333333","52.0","SMIDOVICH, RS","FM-12","99999","V020","230,1,N,0010,1","00420,1,9,N","020000,1,N,1","+0186,1","+0113,1","10090,1","","","","","","","","08,99,1,05,1,03,1,00450,1,04,1,02,1","","","","","8,1,003,1,+999,9","","","SYN060AAXX  20031 31725 42498 82301 10186 20113 40090 58003 85342;",
"31725099999","2000-05-20T06:00:00","4","48.6166666","133.8333333","52.0","SMIDOVICH, RS","FM-12","99999","V020","230,1,N,0010,1","03600,1,9,N","020000,1,N,1","+0209,1","+0095,1","10073,1","","","","","","","","08,99,1,02,1,05,1,00450,1,04,1,02,1","","","","","7,1,017,1,+999,9","","","SYN060AAXX  20061 31725 42498 82301 10209 20095 40073 57017 82542;",
"31725099999","2000-05-20T09:00:00","4","48.6166666","133.8333333","52.0","SMIDOVICH, RS","FM-12","99999","V020","360,1,N,0030,1","00420,1,9,N","004000,1,N,1","+0199,1","+0100,1","10058,1","99,0000,2,1","","","9,1,03,1","8,1,03,1","","","08,99,1,08,1,03,1,00450,1,99,9,99,9","","","999,M,+0210,1","","7,1,015,1,+999,9","95,1","","SYN076AAXX  20091 31725 31496 83603 10199 20100 40058 57015 79598 883// 333 10210;",
"31725099999","2000-05-20T12:00:00","4","48.6166666","133.8333333","52.0","SMIDOVICH, RS","FM-12","99999","V020","050,1,N,0040,1","00420,1,9,N","020000,1,N,1","+0144,1","+0110,1","10081,1","00,0010,9,1","","","9,1,06,1","8,1,06,1","","","08,99,1,08,1,03,1,00450,1,99,9,99,9","","","999,M,+0210,1","99999,9,10018,1","3,1,021,1,+999,9","02,1","","SYN088AAXX  20121 31725 11498 80504 10144 20110 30018 40081 53021 60010 70298 883// 333 10210;",
"31725099999","2000-05-20T15:00:00","4","48.6166666","133.8333333","52.0","SMIDOVICH, RS","FM-12","99999","V020","050,1,N,0040,1","03600,1,9,N","020000,1,N,1","+0122,1","+0103,1","10091,1","","","","","","","","08,99,1,04,1,05,1,00450,1,04,1,99,9","","","","","2,1,010,1,+999,9","","","SYN060AAXX  20151 31725 42498 80504 10122 20103 40091 52010 8454/;",
"31725099999","2000-05-20T18:00:00","4","48.6166666","133.8333333","52.0","SMIDOVICH, RS","FM-12","99999","V020","050,1,N,0030,1","00420,1,9,N","020000,1,N,1","+0094,1","+0068,1","10095,1","","","","","","","","08,99,1,06,1,05,1,00450,1,04,1,99,9","","","","","2,1,003,1,+999,9","","","SYN060AAXX  20181 31725 42498 80503 10094 20068 40095 52003 8654/;",
"31725099999","2000-05-20T21:00:00","4","48.6166666","133.8333333","52.0","SMIDOVICH, RS","FM-12","99999","V020","050,1,N,0030,1","00420,1,9,N","004000,1,N,1","+0093,1","+0071,1","10087,1","","","","8,1,03,1","8,1,03,1","","","08,99,1,08,1,03,1,00450,1,99,9,99,9","","","","","8,1,008,1,+999,9","80,1","","SYN066AAXX  20211 31725 /1496 80503 10093 20071 40087 58008 78088 883//;",
"31725099999","2000-05-21T00:00:00","4","48.6166666","133.8333333","52.0","SMIDOVICH, RS","FM-12","99999","V020","050,1,N,0020,1","00420,1,9,N","004000,1,N,1","+0100,1","+0088,1","10088,1","00,0061,9,1","","","8,1,06,1","2,1,06,1","","","08,99,1,08,1,03,1,00450,1,99,9,99,9","","","999,N,+0091,1","99999,9,10024,1","3,1,001,1,+999,9","80,1","","SYN088AAXX  21001 31725 11496 80502 10100 20088 30024 40088 53001 60060 78082 883// 333 20091;",
"31725099999","2000-05-21T03:00:00","4","48.6166666","133.8333333","52.0","SMIDOVICH, RS","FM-12","99999","V020","020,1,N,0020,1","00420,1,9,N","010000,1,N,1","+0109,1","+0097,1","10087,1","","","","8,1,03,1","2,1,03,1","","","08,99,1,08,1,03,1,00450,1,99,9,99,9","","","","","8,1,001,1,+999,9","80,1","","SYN066AAXX  21031 31725 41497 80202 10109 20097 40087 58001 78082 883//;",
"31725099999","2000-05-21T06:00:00","4","48.6166666","133.8333333","52.0","SMIDOVICH, RS","FM-12","99999","V020","360,1,N,0030,1","00420,1,9,N","020000,1,N,1","+0130,1","+0111,1","10075,1","","","","8,1,06,1","2,1,06,1","","","08,99,1,08,1,03,1,00450,1,99,9,99,9","","","","","7,1,011,1,+999,9","02,1","","SYN066AAXX  21061 31725 41498 83603 10130 20111 40075 57011 70282 883//;",
"31725099999","2000-05-21T09:00:00","4","48.6166666","133.8333333","52.0","SMIDOVICH, RS","FM-12","99999","V020","360,1,N,0020,1","00420,1,9,N","020000,1,N,1","+0131,1","+0109,1","10069,1","","","","","","","","08,99,1,08,1,03,1,00450,1,99,9,99,9","","","999,M,+0148,1","","7,1,006,1,+999,9","","","SYN070AAXX  21091 31725 /2498 83602 10131 20109 40069 57006 883// 333 10148;",
"31725099999","2000-05-21T12:00:00","4","48.6166666","133.8333333","52.0","SMIDOVICH, RS","FM-12","99999","V020","360,1,N,0010,1","00420,1,9,N","010000,1,N,1","+0118,1","+0100,1","10072,1","00,0099,9,1","","","9,1,06,1","8,1,06,1","","","08,99,1,08,1,03,1,00450,1,99,9,99,9","","","999,M,+0148,1","99999,9,10009,1","3,1,003,1,+999,9","95,1","","SYN088AAXX  21121 31725 11497 83601 10118 20100 30009 40072 53003 60100 79598 883// 333 10148;",
"31725099999","2000-05-21T15:00:00","4","48.6166666","133.8333333","52.0","SMIDOVICH, RS","FM-12","99999","V020","050,1,N,0010,1","99999,9,9,N","010000,1,N,1","+0112,1","+0104,1","10065,1","","","","8,1,03,1","2,1,03,1","","","08,99,1,08,1,03,1,99999,9,99,9,99,9","","","","","8,1,008,1,+999,9","80,1","","SYN066AAXX  21151 31725 41997 80501 10112 20104 40065 58008 78082 883//;",
"31725099999","2000-05-21T18:00:00","4","48.6166666","133.8333333","52.0","SMIDOVICH, RS","FM-12","99999","V020","050,1,N,0010,1","00420,1,9,N","010000,1,N,1","+0116,1","+0104,1","10064,1","","","","8,1,06,1","2,1,06,1","","","08,99,1,08,1,03,1,00450,1,99,9,99,9","","","","","6,1,001,1,+999,9","80,1","","SYN066AAXX  21181 31725 41497 80501 10116 20104 40064 56001 78082 883//;",
"31725099999","2000-05-21T21:00:00","4","48.6166666","133.8333333","52.0","SMIDOVICH, RS","FM-12","99999","V020","050,1,N,0020,1","00420,1,9,N","010000,1,N,1","+0104,1","+0094,1","10059,1","","","","8,1,03,1","2,1,03,1","","","08,99,1,08,1,03,1,00450,1,99,9,99,9","","","","","8,1,006,1,+999,9","80,1","","SYN066AAXX  21211 31725 /1497 80502 10104 20094 40059 58006 78082 883//;",
"31725099999","2000-05-22T00:00:00","4","48.6166666","133.8333333","52.0","SMIDOVICH, RS","FM-12","99999","V020","050,1,N,0020,1","00420,1,9,N","010000,1,N,1","+0099,1","+0086,1","10067,1","00,0030,9,1","","","8,1,06,1","8,1,06,1","","","08,99,1,08,1,03,1,00450,1,99,9,99,9","","","999,N,+9999,9","99999,9,10003,1","3,1,008,1,+999,9","81,1","","SYN088AAXX  22001 31725 11497 80502 10099 20086 30003 40067 53008 60030 78188 883// 333 20105;","Q01 +01052ATMN  "
"31725099999","2000-05-22T03:00:00","4","48.6166666","133.8333333","52.0","SMIDOVICH, RS","FM-12","99999","V020","050,1,N,0030,1","00420,1,9,N","010000,1,N,1","+0107,1","+0093,1","10065,1","","","","8,1,03,1","2,1,03,1","","","08,99,1,08,1,03,1,00450,1,99,9,99,9","","","","","8,1,002,1,+999,9","80,1","","SYN066AAXX  22031 31725 41497 80503 10107 20093 40065 58002 78082 883//;",
"31725099999","2000-05-22T06:00:00","4","48.6166666","133.8333333","52.0","SMIDOVICH, RS","FM-12","99999","V020","050,1,N,0020,1","00420,1,9,N","020000,1,N,1","+0122,1","+0103,1","10058,1","","","","8,1,06,1","2,1,06,1","","","08,99,1,07,1,05,1,00450,1,99,9,99,9","","","","","7,1,006,1,+999,9","01,1","","SYN066AAXX  22061 31725 41498 80502 10122 20103 40058 57006 70182 875//;",
"31725099999","2000-05-22T09:00:00","4","48.6166666","133.8333333","52.0","SMIDOVICH, RS","FM-12","99999","V020","050,1,N,0020,1","00420,1,9,N","020000,1,N,1","+0127,1","+0104,1","10064,1","","","","","","","","08,99,1,07,1,05,1,00450,1,99,9,99,9","","","999,M,+0133,1","","3,1,006,1,+999,9","","","SYN070AAXX  22091 31725 /2498 80502 10127 20104 40064 53006 875// 333 10133;",
"31725099999","2000-05-22T12:00:00","4","48.6166666","133.8333333","52.0","SMIDOVICH, RS","FM-12","99999","V020","999,9,C,0000,1","00420,1,9,N","020000,1,N,1","+0116,1","+0094,1","10070,1","00,0160,9,1","","","","","","","07,99,1,07,1,05,1,00450,1,99,9,99,9","","","999,M,+0133,1","99999,9,10007,1","2,1,006,1,+999,9","","","SYN082AAXX  22121 31725 12498 70000 10116 20094 30007 40070 52006 60160 875// 333 10133;",
"31725099999","2000-05-22T15:00:00","4","48.6166666","133.8333333","52.0","SMIDOVICH, RS","FM-12","99999","V020","999,9,C,0000,1","00420,1,9,N","004000,1,N,1","+0103,1","+0090,1","10075,1","","","","0,1,03,1","0,1,03,1","","","07,99,1,07,1,05,1,00450,1,99,9,99,9","","","","","2,1,004,1,+999,9","10,1","","SYN066AAXX  22151 31725 41496 70000 10103 20090 40075 52004 71000 875//;",
"31725099999","2000-05-22T18:00:00","4","48.6166666","133.8333333","52.0","SMIDOVICH, RS","FM-12","99999","V020","320,1,N,0010,1","00420,1,9,N","004000,1,N,1","+0102,1","+0088,1","10070,1","","","","2,1,06,1","2,1,06,1","","","08,99,1,07,1,05,1,00450,1,99,9,99,9","","","","","8,1,005,1,+999,9","10,1","","SYN066AAXX  22181 31725 41496 83201 10102 20088 40070 58005 71022 875//;",
"31725099999","2000-05-22T21:00:00","4","48.6166666","133.8333333","52.0","SMIDOVICH, RS","FM-12","99999","V020","050,1,N,0040,1","00420,1,9,N","020000,1,N,1","+0098,1","+0080,1","10071,1","99,0000,9,1","","","","","","","08,99,1,06,1,07,1,00450,1,02,1,99,9","","","","","3,1,001,1,+999,9","","","SYN060AAXX  22211 31725 32498 80504 10098 20080 40071 53001 8672/;","Q01  00002PRCP99"
"31725099999","2000-05-23T00:00:00","4","48.6166666","133.8333333","52.0","SMIDOVICH, RS","FM-12","99999","V020","070,1,N,0040,1","00420,1,9,N","020000,1,N,1","+0103,1","+0078,1","10074,1","99,0000,9,1","","","","","","","08,99,1,06,1,07,1,00450,1,02,1,99,9","","","999,N,+0097,1","99999,9,10010,1","2,1,003,1,+999,9","","","SYN076AAXX  23001 31725 32498 80704 10103 20078 30010 40074 52003 8672/ 333 20097;","Q01  00002PRCP99"
"31725099999","2000-05-23T03:00:00","4","48.6166666","133.8333333","52.0","SMIDOVICH, RS","FM-12","99999","V020","070,1,N,0050,1","00420,1,9,N","020000,1,N,1","+0118,1","+0092,1","10074,1","","","","","","","","08,99,1,06,1,05,1,00450,1,02,1,99,9","","","","","4,1,000,1,+999,9","","","SYN060AAXX  23031 31725 42498 80705 10118 20092 40074 54000 8652/;",
"31725099999","2000-05-23T06:00:00","4","48.6166666","133.8333333","52.0","SMIDOVICH, RS","FM-12","99999","V020","050,1,N,0040,1","00420,1,9,N","050000,1,N,1","+0157,1","+0102,1","09999,2","","","","","","","","07,99,1,07,1,05,1,00450,1,00,1,00,1","","","","","8,1,011,1,+999,9","","","SYN060AAXX  23061 31725 42499 70504 10157 20102 49999 58011 87500;","Q01+099993APOSLP"
"31725099999","2000-05-23T09:00:00","4","48.6166666","133.8333333","52.0","SMIDOVICH, RS","FM-12","99999","V020","360,1,N,0030,1","03600,1,9,N","050000,1,N,1","+0168,1","+0098,1","10001,1","99,0000,9,1","","","","","","","06,99,1,03,1,05,1,00450,1,04,1,02,1","","","999,M,+0168,1","","3,1,002,1,+999,9","","","SYN070AAXX  23091 31725 32499 63603 10168 20098 40001 53002 83542 333 10168;","Q01  00002PRCP99"
"31725099999","2000-05-23T12:00:00","4","48.6166666","133.8333333","52.0","SMIDOVICH, RS","FM-12","99999","V020","999,9,C,0000,1","22000,1,9,N","050000,1,N,1","+0128,1","+0095,1","10077,2","99,0000,9,1","","","","","","","02,99,1,01,1,00,1,00450,1,04,1,02,1","","","999,M,+0168,1","99999,9,10014,1","2,1,013,1,+999,9","","","SYN076AAXX  23121 31725 32499 20000 10128 20095 30014 40077 52013 81042 333 10168;","Q01+100773APOSLPQ02  00002PRCP99"
"31725099999","2000-05-23T15:00:00","4","48.6166666","133.8333333","52.0","SMIDOVICH, RS","FM-12","99999","V020","360,1,N,0010,1","22000,1,9,N","050000,1,N,1","+0104,1","+0081,1","10094,1","","","","","","","","02,99,1,00,1,00,1,99999,9,00,1,02,1","","","","","2,1,016,1,+999,9","","","SYN060AAXX  23151 31725 42999 23601 10104 20081 40094 52016 80002;",
"31725099999","2000-05-23T18:00:00","4","48.6166666","133.8333333","52.0","SMIDOVICH, RS","FM-12","99999","V020","999,9,C,0000,1","22000,1,9,N","050000,1,N,1","+0084,1","+0064,1","10100,1","","","","","","","00,1,+99999,9,99,9","00,99,1,00,1,00,1,99999,9,00,1,00,1","","","","","2,1,005,1,+999,9","","","SYN054AAXX  23181 31725 42999 00000 10084 20064 40100 52005;",
"31725099999","2000-05-23T21:00:00","4","48.6166666","133.8333333","52.0","SMIDOVICH, RS","FM-12","99999","V020","999,9,C,0000,1","22000,1,9,N","050000,1,N,1","+0082,1","+0062,1","10113,1","99,0000,9,1","","","","","","00,1,+99999,9,99,9","00,99,1,00,1,00,1,99999,9,00,1,00,1","","","","","2,1,013,1,+999,9","","","SYN054AAXX  23211 31725 32999 00000 10082 20062 40113 52013;","Q01  00002PRCP99"
"31725099999","2000-05-24T00:00:00","4","48.6166666","133.8333333","52.0","SMIDOVICH, RS","FM-12","99999","V020","140,1,N,0020,1","99999,9,9,N","050000,1,N,1","+0149,1","+0070,1","10114,1","99,0000,9,1","","","","","","","06,99,1,03,1,00,1,99999,9,04,1,02,1","","","999,N,+0069,1","99999,9,10052,1","2,1,004,1,+999,9","","","SYN076AAXX  24001 31725 32999 61402 10149 20070 30052 40114 52004 83042 333 20069;","Q01  00002PRCP99"
"31725099999","2000-05-24T03:00:00","4","48.6166666","133.8333333","52.0","SMIDOVICH, RS","FM-12","99999","V020","230,1,N,0010,1","99999,9,9,N","050000,1,N,1","+0179,1","+0084,1","10104,1","","","","","","","","08,99,1,05,1,00,1,99999,9,04,1,02,1","","","","","8,1,009,1,+999,9","","","SYN060AAXX  24031 31725 42999 82301 10179 20084 40104 58009 85042;",
"31725099999","2000-05-24T06:00:00","4","48.6166666","133.8333333","52.0","SMIDOVICH, RS","FM-12","99999","V020","230,1,N,0010,1","99999,9,9,N","050000,1,N,1","+0174,1","+0085,1","10081,1","","","","","","","","08,99,1,06,1,03,1,99999,9,04,1,02,1","","","","","7,1,024,1,+999,9","","","SYN060AAXX  24061 31725 42999 82301 10174 20085 40081 57024 86342;",
"31725099999","2000-05-24T09:00:00","4","48.6166666","133.8333333","52.0","SMIDOVICH, RS","FM-12","99999","V020","230,1,N,0010,1","00420,1,9,N","050000,1,N,1","+0176,1","+0077,1","10063,1","99,0000,9,1","","","","","","","08,99,1,06,1,03,1,00450,1,04,1,99,9","","","999,M,+0191,1","","7,1,017,1,+999,9","","","SYN070AAXX  24091 31725 32499 82301 10176 20077 40063 57017 8634/ 333 10191;","Q01  00002PRCP99"
"31725099999","2000-05-24T12:00:00","4","48.6166666","133.8333333","52.0","SMIDOVICH, RS","FM-12","99999","V020","230,1,N,0010,1","00420,1,9,N","020000,1,N,1","+0153,1","+0102,1","10060,1","99,0000,9,1","","","","","","","08,99,1,06,1,03,1,00450,1,04,1,99,9","","","999,M,+0191,1","99999,9,09998,1","7,1,004,1,+999,9","","","SYN076AAXX  24121 31725 32498 82301 10153 20102 39998 40060 57004 8634/ 333 10191;","Q01  00002PRCP99"
"31725099999","2000-05-24T15:00:00","4","48.6166666","133.8333333","52.0","SMIDOVICH, RS","FM-12","99999","V020","230,1,N,0010,1","00420,1,9,N","020000,1,N,1","+0134,1","+0102,1","10040,1","","","","","","","","08,99,1,06,1,03,1,00450,1,04,1,99,9","","","","","7,1,021,1,+999,9","","","SYN060AAXX  24151 31725 42498 82301 10134 20102 40040 57021 8634/;",
"31725099999","2000-05-24T18:00:00","4","48.6166666","133.8333333","52.0","SMIDOVICH, RS","FM-12","99999","V020","999,9,C,0000,1","03600,1,9,N","020000,1,N,1","+0126,1","+0106,1","10020,1","","","","","","","","08,99,1,02,1,03,1,00450,1,04,1,99,9","","","","","7,1,020,1,+999,9","","","SYN060AAXX  24181 31725 42498 80000 10126 20106 40020 57020 8234/;",
"31725099999","2000-05-24T21:00:00","4","48.6166666","133.8333333","52.0","SMIDOVICH, RS","FM-12","99999","V020","140,1,N,0030,1","03600,1,9,N","020000,1,N,1","+0143,1","+0115,1","10007,1","99,0000,9,1","","","","","","","08,99,1,02,1,03,1,00450,1,04,1,02,1","","","","","7,1,012,1,+999,9","","","SYN060AAXX  24211 31725 32498 81403 10143 20115 40007 57012 82342;","Q01  00002PRCP99"
"31725099999","2000-05-25T00:00:00","4","48.6166666","133.8333333","52.0","SMIDOVICH, RS","FM-12","99999","V020","230,1,N,0030,1","00420,1,9,N","020000,1,N,1","+0166,1","+0124,1","10013,1","99,0000,9,1","","","","","","","08,99,1,07,1,03,1,00450,1,04,1,99,9","","","999,N,+0117,1","99999,9,09951,1","3,1,006,1,+999,9","","","SYN076AAXX  25001 31725 32498 82303 10166 20124 39951 40013 53006 8734/ 333 20117;","Q01  00002PRCP99"
"31725099999","2000-05-25T03:00:00","4","48.6166666","133.8333333","52.0","SMIDOVICH, RS","FM-12","99999","V020","230,1,N,0030,1","00420,1,9,N","020000,1,N,1","+0172,1","+0133,1","10005,1","","","","","","","","08,99,1,07,1,03,1,00450,1,04,1,99,9","","","","","8,1,008,1,+999,9","","","SYN060AAXX  25031 31725 42498 82303 10172 20133 40005 58008 8734/;",
"31725099999","2000-05-25T06:00:00","4","48.6166666","133.8333333","52.0","SMIDOVICH, RS","FM-12","99999","V020","200,1,N,0030,1","00420,1,9,N","020000,1,N,1","+0180,1","+9999,9","10001,1","","","","8,1,06,1","2,1,06,1","","","08,99,1,07,1,03,1,00450,1,04,1,99,9","","","","","7,1,004,1,+999,9","02,1","","SYN066AAXX  25061 31725 41498 82003 10180 20251 40001 57004 70282 8734/;",
"31725099999","2000-05-25T09:00:00","4","48.6166666","133.8333333","52.0","SMIDOVICH, RS","FM-12","99999","V020","230,1,N,0050,1","03600,1,9,N","020000,1,N,1","+0188,1","+0124,1","09984,1","","","","","","","","08,99,1,01,1,04,1,00800,1,04,1,02,1","","","120,M,+0188,1","","7,1,016,1,+999,9","","","SYN076AAXX  25091 31725 /2598 82305 10188 20124 49984 57016 81442 333 10188 91110;",
"31725099999","2000-05-25T12:00:00","4","48.6166666","133.8333333","52.0","SMIDOVICH, RS","FM-12","99999","V020","230,1,N,0040,1","03600,1,9,N","020000,1,N,1","+0166,1","+0102,1","09995,1","00,0005,9,1","","","","","","","08,99,1,01,1,04,1,00800,1,04,1,02,1","","","999,M,+0188,1","99999,9,09933,1","3,1,010,1,+999,9","","","SYN082AAXX  25121 31725 12598 82304 10166 20102 39933 49995 53010 69950 81442 333 10188;",
"31725099999","2000-05-25T15:00:00","4","48.6166666","133.8333333","52.0","SMIDOVICH, RS","FM-12","99999","V020","230,1,N,0030,1","09000,1,9,N","020000,1,N,1","+0150,1","+0064,1","10026,1","","","","","","","","08,99,1,01,1,05,1,00800,1,00,1,02,1","","","","","2,1,031,1,+999,9","","","SYN060AAXX  25151 31725 42598 82303 10150 20064 40026 52031 81502;",
"31725099999","2000-05-25T18:00:00","4","48.6166666","133.8333333","52.0","SMIDOVICH, RS","FM-12","99999","V020","230,1,N,0030,1","03600,1,9,N","020000,1,N,1","+0126,1","+0004,1","10043,1","","","","","","","","07,99,1,01,1,05,1,00800,1,04,1,02,1","","","","","2,1,016,1,+999,9","","","SYN060AAXX  25181 31725 42598 72303 10126 20004 40043 52016 81542;",
"31725099999","2000-05-25T21:00:00","4","48.6166666","133.8333333","52.0","SMIDOVICH, RS","FM-12","99999","V020","230,1,N,0020,1","03600,1,9,N","020000,1,N,1","+0114,1","+0029,1","10069,1","","","","","","","","07,99,1,02,1,03,1,00450,1,04,1,02,1","","","","","2,1,025,1,+999,9","","","SYN060AAXX  25211 31725 42498 72302 10114 20029 40069 52025 82342;",
"31725099999","2000-05-26T00:00:00","4","48.6166666","133.8333333","52.0","SMIDOVICH, RS","FM-12","99999","V020","230,1,N,0040,1","99999,9,9,N","020000,1,N,1","+0142,1","+0029,1","10075,1","99,0000,9,1","","","","","","","08,99,1,00,1,00,1,99999,9,00,1,02,1","","","999,N,+0104,1","99999,9,10012,1","2,1,007,1,+999,9","","","SYN076AAXX  26001 31725 32998 82304 10142 20029 30012 40075 52007 80002 333 20104;","Q01  00002PRCP99"
"31725099999","2000-05-26T03:00:00","4","48.6166666","133.8333333","52.0","SMIDOVICH, RS","FM-12","99999","V020","230,1,N,0040,1","99999,9,9,N","020000,1,N,1","+0185,1","+0051,1","10077,1","","","","","","","","08,99,1,00,1,00,1,99999,9,00,1,02,1","","","","","2,1,004,1,+999,9","","","SYN060AAXX  26031 31725 42998 82304 10185 20051 40077 52004 80002;",
"31725099999","2000-05-26T06:00:00","4","48.6166666","133.8333333","52.0","SMIDOVICH, RS","FM-12","99999","V020","230,1,N,0030,1","99999,9,9,N","020000,1,N,1","+0215,1","+0036,1","10078,1","","","","","","","","08,99,1,00,1,00,1,99999,9,00,1,02,1","","","","","1,1,001,1,+999,9","","","SYN060AAXX  26061 31725 42998 82303 10215 20036 40078 51001 80002;",
"31725099999","2000-05-26T09:00:00","4","48.6166666","133.8333333","52.0","SMIDOVICH, RS","FM-12","99999","V020","230,1,N,0010,1","99999,9,9,N","020000,1,N,1","+0211,1","+0048,1","10079,1","99,0000,9,1","","","","","","","08,99,1,00,1,00,1,99999,9,00,1,02,1","","","999,M,+0224,1","","1,1,001,1,+999,9","","","SYN070AAXX  26091 31725 32998 82301 10211 20048 40079 51001 80002 333 10224;","Q01  00002PRCP99"
"31725099999","2000-05-26T12:00:00","4","48.6166666","133.8333333","52.0","SMIDOVICH, RS","FM-12","99999","V020","230,1,N,0010,1","22000,1,9,N","020000,1,N,1","+0172,1","+0040,1","10091,1","99,0000,9,1","","","","","","","02,99,1,00,1,00,1,99999,9,00,1,02,1","","","999,M,+0224,1","99999,9,10029,1","3,1,011,1,+999,9","","","SYN076AAXX  26121 31725 32998 22301 10172 20040 30029 40091 53011 80002 333 10224;","Q01  00002PRCP99"
"31725099999","2000-05-26T15:00:00","4","48.6166666","133.8333333","52.0","SMIDOVICH, RS","FM-12","99999","V020","230,1,N,0010,1","22000,1,9,N","020000,1,N,1","+0153,1","+0080,1","10099,1","","","","","","","","02,99,1,00,1,00,1,99999,9,00,1,02,1","","","","","2,1,008,1,+999,9","","","SYN060AAXX  26151 31725 42998 22301 10153 20080 40099 52008 80002;",
"31725099999","2000-05-26T18:00:00","4","48.6166666","133.8333333","52.0","SMIDOVICH, RS","FM-12","99999","V020","230,1,N,0010,1","99999,9,9,N","020000,1,N,1","+0090,1","+0068,1","10103,1","","","","","","","","08,99,1,03,1,00,1,99999,9,04,1,02,1","","","","","1,1,002,1,+999,9","","","SYN060AAXX  26181 31725 42998 82301 10090 20068 40103 51002 83042;",
"31725099999","2000-05-26T21:00:00","4","48.6166666","133.8333333","52.0","SMIDOVICH, RS","FM-12","99999","V020","230,1,N,0010,1","00420,1,9,N","020000,1,N,1","+0104,1","+0090,1","10096,1","99,0000,9,1","","","","","","","08,99,1,05,1,03,1,00450,1,04,1,99,9","","","","","8,1,007,1,+999,9","","","SYN060AAXX  26211 31725 32498 82301 10104 20090 40096 58007 8534/;","Q01  00002PRCP99"
"31725099999","2000-05-27T00:00:00","4","48.6166666","133.8333333","52.0","SMIDOVICH, RS","FM-12","99999","V020","999,9,C,0000,1","00420,1,9,N","050000,1,N,1","+0143,1","+0084,1","10090,1","99,0000,9,1","","","","","","","08,99,1,06,1,03,1,00450,1,04,1,99,9","","","999,N,+0088,1","99999,9,10027,1","7,1,005,1,+999,9","","","SYN076AAXX  27001 31725 32499 80000 10143 20084 30027 40090 57005 8634/ 333 20088;","Q01  00002PRCP99"
"31725099999","2000-05-27T03:00:00","4","48.6166666","133.8333333","52.0","SMIDOVICH, RS","FM-12","99999","V020","999,9,C,0000,1","00420,1,9,N","020000,1,N,1","+0189,1","+0090,1","10083,1","","","","","","","","08,99,1,05,1,05,1,00450,1,04,1,99,9","","","","","7,1,005,1,+999,9","","","SYN060AAXX  27031 31725 42498 80000 10189 20090 40083 57005 8554/;",
"31725099999","2000-05-27T06:00:00","4","48.6166666","133.8333333","52.0","SMIDOVICH, RS","FM-12","99999","V020","200,1,N,0010,1","99999,9,9,N","020000,1,N,1","+0195,1","+0065,1","10058,1","","","","","","","","08,99,1,07,1,00,1,99999,9,04,1,99,9","","","","","7,1,025,1,+999,9","","","SYN060AAXX  27061 31725 42998 82001 10195 20065 40058 57025 8704/;",
"31725099999","2000-05-27T09:00:00","4","48.6166666","133.8333333","52.0","SMIDOVICH, RS","FM-12","99999","V020","200,1,N,0020,1","03600,1,9,N","020000,1,N,1","+0161,1","+0068,1","10055,1","99,0000,9,1","","","","","","","08,99,1,03,1,05,1,00450,1,04,1,99,9","","","999,M,+0200,1","","7,1,004,1,+999,9","","","SYN070AAXX  27091 31725 32498 82002 10161 20068 40055 57004 8354/ 333 10200;","Q01  00002PRCP99"
"31725099999","2000-05-27T12:00:00","4","48.6166666","133.8333333","52.0","SMIDOVICH, RS","FM-12","99999","V020","999,9,C,0000,1","99999,9,9,N","020000,1,N,1","+0135,1","+0098,1","10048,1","99,0000,9,1","","","","","","","08,99,1,07,1,00,1,99999,9,04,1,99,9","","","999,M,+0200,1","99999,9,09985,1","7,1,008,1,+999,9","","","SYN076AAXX  27121 31725 32998 80000 10135 20098 39985 40048 57008 8704/ 333 10200;","Q01  00002PRCP99"
"31725099999","2000-05-27T15:00:00","4","48.6166666","133.8333333","52.0","SMIDOVICH, RS","FM-12","99999","V020","999,9,C,0000,1","99999,9,9,N","020000,1,N,1","+0107,1","+0086,1","10024,1","","","","","","","","06,99,1,99,9,00,1,99999,9,04,1,00,1","","","","","7,1,011,1,+999,9","","","SYN060AAXX  27151 31725 42998 60000 10107 20086 40024 57011 85040;","Q01+000052SCOTLC"
"31725099999","2000-05-27T21:00:00","4","48.6166666","133.8333333","52.0","SMIDOVICH, RS","FM-12","99999","V020","999,9,C,0000,1","99999,9,9,N","050000,1,N,1","+0104,1","+0088,1","10013,1","99,0000,9,1","","","","","","","08,99,1,00,1,00,1,99999,9,00,1,02,1","","","","","7,1,010,1,+999,9","","","SYN060AAXX  27211 31725 32999 80000 10104 20088 40013 57010 80002;","Q01  00002PRCP99"
"31725099999","2000-05-28T00:00:00","4","48.6166666","133.8333333","52.0","SMIDOVICH, RS","FM-12","99999","V020","320,1,N,0010,1","99999,9,9,N","020000,1,N,1","+0150,1","+0100,1","09993,1","99,0000,9,1","","","","","","","08,99,1,00,1,00,1,99999,9,00,1,06,1","","","999,N,+0101,1","99999,9,09931,1","7,1,019,1,+999,9","","","SYN076AAXX  28001 31725 32998 83201 10150 20100 39931 49993 57019 80006 333 20101;","Q01  00002PRCP99"
"31725099999","2000-05-28T03:00:00","4","48.6166666","133.8333333","52.0","SMIDOVICH, RS","FM-12","99999","V020","320,1,N,0020,1","99999,9,9,N","020000,1,N,1","+0202,1","+0084,1","09963,1","","","","","","","","08,99,1,00,1,00,1,99999,9,00,1,06,1","","","","","7,1,029,1,+999,9","","","SYN060AAXX  28031 31725 42998 83202 10202 20084 49963 57029 80006;",
"31725099999","2000-05-28T06:00:00","4","48.6166666","133.8333333","52.0","SMIDOVICH, RS","FM-12","99999","V020","360,1,N,0020,1","99999,9,9,N","020000,1,N,1","+0229,1","+0081,1","09936,1","","","","","","","","08,99,1,00,1,00,1,99999,9,00,1,06,1","","","","","7,1,026,1,+999,9","","","SYN060AAXX  28061 31725 42998 83602 10229 20081 49936 57026 80006;",
"31725099999","2000-05-28T09:00:00","4","48.6166666","133.8333333","52.0","SMIDOVICH, RS","FM-12","99999","V020","180,1,N,0010,1","99999,9,9,N","020000,1,N,1","+0221,1","+0095,1","09925,1","99,0000,9,1","","","","","","","08,99,1,00,1,00,1,99999,9,00,1,02,1","","","999,M,+0231,1","","7,1,012,1,+999,9","","","SYN070AAXX  28091 31725 32998 81801 10221 20095 49925 57012 80002 333 10231;","Q01  00002PRCP99"
"31725099999","2000-05-28T12:00:00","4","48.6166666","133.8333333","52.0","SMIDOVICH, RS","FM-12","99999","V020","180,1,N,0010,1","22000,1,9,N","020000,1,N,1","+0154,1","+0123,1","09929,1","99,0000,9,1","","","","","","","02,99,1,02,1,05,1,00450,1,00,1,00,1","","","999,M,+0231,1","99999,9,09867,1","3,1,003,1,+999,9","","","SYN076AAXX  28121 31725 32498 21801 10154 20123 39867 49929 53003 82500 333 10231;","Q01  00002PRCP99"
"31725099999","2000-05-28T15:00:00","4","48.6166666","133.8333333","52.0","SMIDOVICH, RS","FM-12","99999","V020","320,1,N,0030,1","22000,1,9,N","020000,1,N,1","+0122,1","+0103,1","09919,1","","","","","","","","04,99,1,04,1,03,1,00450,1,00,1,00,1","","","","","8,1,011,1,+999,9","","","SYN060AAXX  28151 31725 42498 43203 10122 20103 49919 58011 84300;",
"31725099999","2000-05-28T18:00:00","4","48.6166666","133.8333333","52.0","SMIDOVICH, RS","FM-12","99999","V020","180,1,N,0020,1","22000,1,9,N","020000,1,N,1","+0119,1","+0093,1","09903,1","","","","","","","","02,99,1,02,1,05,1,00450,1,00,1,00,1","","","","","7,1,018,1,+999,9","","","SYN060AAXX  28181 31725 42498 21802 10119 20093 49903 57018 82500;",
"31725099999","2000-05-28T21:00:00","4","48.6166666","133.8333333","52.0","SMIDOVICH, RS","FM-12","99999","V020","320,1,N,0030,1","00420,1,9,N","020000,1,N,1","+0117,1","+0095,1","09902,1","99,0000,9,1","","","","","","","06,99,1,06,1,02,1,00450,1,00,1,00,1","","","","","3,1,001,1,+999,9","","","SYN060AAXX  28211 31725 32498 63203 10117 20095 49902 53001 86200;","Q01  00002PRCP99"
"31725099999","2000-05-29T00:00:00","4","48.6166666","133.8333333","52.0","SMIDOVICH, RS","FM-12","99999","V020","320,1,N,0040,1","22000,1,9,N","020000,1,N,1","+0173,1","+0068,1","09899,1","99,0000,9,1","","","","","","","02,99,1,02,1,03,1,00450,1,00,1,00,1","","","999,N,+0099,1","99999,9,09837,1","8,1,002,1,+999,9","","","SYN076AAXX  29001 31725 32498 23204 10173 20068 39837 49899 58002 82300 333 20099;","Q01  00002PRCP99"
"31725099999","2000-05-29T03:00:00","4","48.6166666","133.8333333","52.0","SMIDOVICH, RS","FM-12","99999","V020","320,1,N,0050,1","22000,1,9,N","050000,1,N,1","+0200,1","-0002,1","09906,1","","","","","","","","02,99,1,02,1,03,1,00450,1,00,1,00,1","","","","","3,1,008,1,+999,9","","","SYN070AAXX  29031 31725 42499 23205 10200 21002 49906 53008 82300 333 91110;",
"31725099999","2000-05-29T06:00:00","4","48.6166666","133.8333333","52.0","SMIDOVICH, RS","FM-12","99999","V020","320,1,N,0090,1","22000,1,9,N","050000,1,N,1","+0207,1","-0019,1","09907,1","","","","","","","","02,99,1,02,1,03,1,00450,1,00,1,00,1","","","","","1,1,001,1,+999,9","","","SYN070AAXX  29061 31725 42499 23209 10207 21019 49907 51001 82300 333 91114;",
"31725099999","2000-05-29T09:00:00","4","48.6166666","133.8333333","52.0","SMIDOVICH, RS","FM-12","99999","V020","320,1,N,0100,1","22000,1,9,N","020000,1,N,1","+0155,1","-0007,1","09930,1","99,0000,9,1","","","","","","","02,99,1,02,1,03,1,00450,1,00,1,00,1","","","120,M,+0207,1","","3,1,022,1,+999,9","","","SYN076AAXX  29091 31725 32498 23210 10155 21007 49930 53022 82300 333 10207 91017;","Q01  00002PRCP99"
"31725099999","2000-05-29T12:00:00","4","48.6166666","133.8333333","52.0","SMIDOVICH, RS","FM-12","99999","V020","320,1,N,0050,1","22000,1,9,N","050000,1,N,1","+0129,1","+0015,1","09946,1","99,0000,9,1","","","","","","","01,99,1,01,1,04,1,00800,1,00,1,00,1","","","999,M,+0207,1","99999,9,09884,1","2,1,016,1,+999,9","","","SYN076AAXX  29121 31725 32599 13205 10129 20015 39884 49946 52016 81400 333 10207;","Q01  00002PRCP99"
"31725099999","2000-05-29T15:00:00","4","48.6166666","133.8333333","52.0","SMIDOVICH, RS","FM-12","99999","V020","320,1,N,0030,1","22000,1,9,N","020000,1,N,1","+0105,1","+0029,1","09955,1","","","","","","","","01,99,1,01,1,04,1,00800,1,00,1,00,1","","","","","2,1,008,1,+999,9","","","SYN060AAXX  29151 31725 42598 13203 10105 20029 49955 52008 81400;",
"31725099999","2000-05-29T18:00:00","4","48.6166666","133.8333333","52.0","SMIDOVICH, RS","FM-12","99999","V020","320,1,N,0030,1","00420,1,9,N","020000,1,N,1","+0105,1","+0034,1","09963,1","","","","","","","","06,99,1,05,1,03,1,00450,1,04,1,00,1","","","","","2,1,008,1,+999,9","","","SYN060AAXX  29181 31725 42498 63203 10105 20034 49963 52008 85340;",
"31725099999","2000-05-29T21:00:00","4","48.6166666","133.8333333","52.0","SMIDOVICH, RS","FM-12","99999","V020","320,1,N,0010,1","09000,1,9,N","050000,1,N,1","+0102,1","+0038,1","09984,1","99,0000,9,1","","","","","","","07,99,1,03,1,04,1,00800,1,00,1,02,1","","","","","2,1,021,1,+999,9","","","SYN060AAXX  29211 31725 32599 73201 10102 20038 49984 52021 83402;","Q01  00002PRCP99"
"31725099999","2000-05-30T00:00:00","4","48.6166666","133.8333333","52.0","SMIDOVICH, RS","FM-12","99999","V020","090,1,N,0020,1","09000,1,9,N","020000,1,N,1","+0152,1","+0061,1","10016,1","99,0000,9,1","","","","","","","08,99,1,03,1,05,1,00450,1,00,1,02,1","","","999,N,+0096,1","99999,9,09954,1","2,1,033,1,+999,9","","","SYN076AAXX  30001 31725 32498 80902 10152 20061 39954 40016 52033 83502 333 20096;","Q01  00002PRCP99"
"31725099999","2000-05-30T03:00:00","4","48.6166666","133.8333333","52.0","SMIDOVICH, RS","FM-12","99999","V020","140,1,N,0030,1","00420,1,9,N","020000,1,N,1","+0150,1","+0056,1","10045,1","","","","","","","","08,99,1,07,1,05,1,00450,1,00,1,02,1","","","","","2,1,029,1,+999,9","","","SYN060AAXX  30031 31725 42498 81403 10150 20056 40045 52029 87502;",
"31725099999","2000-05-30T06:00:00","4","48.6166666","133.8333333","52.0","SMIDOVICH, RS","FM-12","99999","V020","090,1,N,0020,1","09000,1,9,N","050000,1,N,1","+0164,1","+0040,1","10057,1","","","","","","","","08,99,1,03,1,05,1,00450,1,00,1,02,1","","","","","2,1,012,1,+999,9","","","SYN060AAXX  30061 31725 42499 80902 10164 20040 40057 52012 83502;",
"31725099999","2000-05-30T09:00:00","4","48.6166666","133.8333333","52.0","SMIDOVICH, RS","FM-12","99999","V020","999,9,C,0000,1","00420,1,9,N","050000,1,N,1","+0163,1","+0055,1","10068,1","99,0000,9,1","","","","","","","06,99,1,06,1,05,1,00450,1,00,1,00,1","","","999,M,+0172,1","","2,1,011,1,+999,9","","","SYN070AAXX  30091 31725 32499 60000 10163 20055 40068 52011 86500 333 10172;","Q01  00002PRCP99"
"31725099999","2000-05-30T12:00:00","4","48.6166666","133.8333333","52.0","SMIDOVICH, RS","FM-12","99999","V020","999,9,C,0000,1","00420,1,9,N","050000,1,N,1","+0133,1","+0071,1","10085,1","99,0000,9,1","","","","","","","07,99,1,07,1,05,1,00450,1,00,1,00,1","","","999,M,+0172,1","99999,9,10022,1","2,1,016,1,+999,9","","","SYN076AAXX  30121 31725 32499 70000 10133 20071 30022 40085 52016 87500 333 10172;","Q01  00002PRCP99"
"31725099999","2000-05-30T15:00:00","4","48.6166666","133.8333333","52.0","SMIDOVICH, RS","FM-12","99999","V020","999,9,C,0000,1","22000,1,9,N","050000,1,N,1","+0100,1","+0055,1","10095,1","","","","","","","","02,99,1,02,1,05,1,00450,1,00,1,00,1","","","","","2,1,009,1,+999,9","","","SYN060AAXX  30151 31725 42499 20000 10100 20055 40095 52009 82500;",
"31725099999","2000-05-30T18:00:00","4","48.6166666","133.8333333","52.0","SMIDOVICH, RS","FM-12","99999","V020","999,9,C,0000,1","03600,1,9,N","050000,1,N,1","+0099,1","+0074,1","10096,1","","","","","","","","08,99,1,02,1,03,1,00450,1,04,1,99,9","","","","","1,1,001,1,+999,9","","","SYN060AAXX  30181 31725 42499 80000 10099 20074 40096 51001 8234/;",
"31725099999","2000-05-30T21:00:00","4","48.6166666","133.8333333","52.0","SMIDOVICH, RS","FM-12","99999","V020","999,9,C,0000,1","00420,1,9,N","020000,1,N,1","+0097,1","+0076,1","10103,1","99,0000,9,1","","","","","","","08,99,1,06,1,05,1,00450,1,04,1,02,1","","","","","3,1,007,1,+999,9","","","SYN060AAXX  30211 31725 32498 80000 10097 20076 40103 53007 86542;","Q01  00002PRCP99"
"31725099999","2000-05-31T00:00:00","4","48.6166666","133.8333333","52.0","SMIDOVICH, RS","FM-12","99999","V020","180,1,N,0010,1","09000,1,9,N","050000,1,N,1","+0167,1","+0055,1","10110,1","99,0000,9,1","","","","","","","07,99,1,02,1,05,1,00450,1,00,1,02,1","","","999,N,+0083,1","99999,9,10048,1","2,1,009,1,+999,9","","","SYN076AAXX  31001 31725 32499 71801 10167 20055 30048 40110 52009 82502 333 20083;","Q01  00002PRCP99"
"31725099999","2000-05-31T03:00:00","4","48.6166666","133.8333333","52.0","SMIDOVICH, RS","FM-12","99999","V020","180,1,N,0010,1","99999,9,9,N","050000,1,N,1","+0185,1","+0048,1","10105,1","","","","","","","09,1,+99999,9,99,9","09,99,1,09,1,99,9,99999,9,99,9,99,9","","","","","8,1,004,1,+999,9","","","SYN060AAXX  31031 31725 42499 91801 10185 20048 40105 58004 83502;",
"31725099999","2000-05-31T06:00:00","4","48.6166666","133.8333333","52.0","SMIDOVICH, RS","FM-12","99999","V020","999,9,C,0000,1","09000,1,9,N","050000,1,N,1","+0200,1","+0062,1","10099,1","","","","","","","","06,99,1,03,1,05,1,00450,1,00,1,02,1","","","","","7,1,006,1,+999,9","","","SYN060AAXX  31061 31725 42499 60000 10200 20062 40099 57006 83502;",
"31725099999","2000-05-31T09:00:00","4","48.6166666","133.8333333","52.0","SMIDOVICH, RS","FM-12","99999","V020","190,1,N,0010,1","22000,1,9,N","050000,1,N,1","+0195,1","+0058,1","10087,1","99,0000,9,1","","","","","","","03,99,1,02,1,05,1,00450,1,00,1,02,1","","","999,M,+0206,1","","7,1,022,1,+999,9","","","SYN070AAXX  31091 31725 32499 31901 10195 20058 40087 57022 82502 333 10206;","Q01  00002PRCP99"
"31725099999","2000-05-31T12:00:00","4","48.6166666","133.8333333","52.0","SMIDOVICH, RS","FM-12","99999","V020","999,9,C,0000,1","22000,1,9,N","050000,1,N,1","+0134,1","+0082,1","10094,1","99,0000,9,1","","","","","","","02,99,1,00,1,00,1,99999,9,02,1,99,9","","","999,M,+0206,1","99999,9,10031,1","3,1,005,1,+999,9","","","SYN076AAXX  31121 31725 32999 20000 10134 20082 30031 40094 53005 8002/ 333 10206;","Q01  00002PRCP99"
"31725099999","2000-05-31T15:00:00","4","48.6166666","133.8333333","52.0","SMIDOVICH, RS","FM-12","99999","V020","999,9,C,0000,1","22000,1,9,N","050000,1,N,1","+0112,1","+0065,1","10100,1","","","","","","","00,1,+99999,9,99,9","00,99,1,00,1,00,1,99999,9,00,1,00,1","","","","","2,1,005,1,+999,9","","","SYN054AAXX  31151 31725 42999 00000 10112 20065 40100 52005;",
"31725099999","2000-05-31T18:00:00","4","48.6166666","133.8333333","52.0","SMIDOVICH, RS","FM-12","99999","V020","999,9,C,0000,1","22000,1,9,N","020000,1,N,1","+0082,1","+0056,1","10109,1","","","","","","","","02,99,1,02,1,00,1,99999,9,04,1,00,1","","","","","2,1,008,1,+999,9","","","SYN060AAXX  31181 31725 42998 20000 10082 20056 40109 52008 82040;",
"31725099999","2000-06-01T00:00:00","4","48.6166666","133.8333333","52.0","SMIDOVICH, RS","FM-12","99999","V020","090,1,N,0010,1","22000,1,9,N","020000,1,N,1","+0156,1","+0071,1","10110,1","99,0000,9,1","","","","","","","02,99,1,02,1,00,1,99999,9,04,1,00,1","","","999,N,+0071,1","99999,9,10048,1","4,1,000,1,+999,9","","","SYN076AAXX  01001 31725 32998 20901 10156 20071 30048 40110 54000 82040 333 20071;","Q01  00002PRCP99"
"31725099999","2000-06-01T03:00:00","4","48.6166666","133.8333333","52.0","SMIDOVICH, RS","FM-12","99999","V020","180,1,N,0020,1","22000,1,9,N","020000,1,N,1","+0198,1","+0085,1","10103,1","","","","","","","","01,99,1,01,1,00,1,99999,9,04,1,00,1","","","","","8,1,006,1,+999,9","","","SYN060AAXX  01031 31725 42998 11802 10198 20085 40103 58006 81040;",
"31725099999","2000-06-01T06:00:00","4","48.6166666","133.8333333","52.0","SMIDOVICH, RS","FM-12","99999","V020","230,1,N,0030,1","22000,1,9,N","020000,1,N,1","+0222,1","+0077,1","99999,9","","","","","","","","01,99,1,01,1,05,1,00800,1,00,1,00,1","","","","","7,1,020,1,+999,9","","","SYN054AAXX  01061 31725 42598 12303 10222 20077 57020 81500;",
"31725099999","2000-06-01T09:00:00","4","48.6166666","133.8333333","52.0","SMIDOVICH, RS","FM-12","99999","V020","230,1,N,0030,1","22000,1,9,N","020000,1,N,1","+0220,1","+0078,1","10071,1","99,0000,9,1","","","","","","","01,99,1,01,1,00,1,99999,9,04,1,00,1","","","999,M,+0226,1","","7,1,012,1,+999,9","","","SYN070AAXX  01091 31725 32998 12303 10220 20078 40071 57012 81040 333 10226;","Q01  00002PRCP99"
"31725099999","2000-06-01T12:00:00","4","48.6166666","133.8333333","52.0","SMIDOVICH, RS","FM-12","99999","V020","230,1,N,0010,1","03600,1,9,N","020000,1,N,1","+0154,1","+0088,1","10077,1","99,0000,9,1","","","","","","","07,99,1,02,1,03,1,00450,1,04,1,00,1","","","999,M,+0226,1","99999,9,10015,1","3,1,005,1,+999,9","","","SYN076AAXX  01121 31725 32498 72301 10154 20088 30015 40077 53005 82340 333 10226;","Q01  00002PRCP99"
"31725099999","2000-06-01T15:00:00","4","48.6166666","133.8333333","52.0","SMIDOVICH, RS","FM-12","99999","V020","999,9,C,0000,1","00420,1,9,N","004000,1,N,1","+0156,1","+0111,1","10081,1","","","","8,1,03,1","2,1,03,1","","","08,99,1,08,1,03,1,00450,1,99,9,99,9","","","","","2,1,004,1,+999,9","80,1","","SYN066AAXX  01151 31725 41496 80000 10156 20111 40081 52004 78082 883//;",
"31725099999","2000-06-01T18:00:00","4","48.6166666","133.8333333","52.0","SMIDOVICH, RS","FM-12","99999","V020","999,9,C,0000,1","22000,1,9,N","020000,1,N,1","+0141,1","+0100,1","10077,1","","","","8,1,06,1","1,1,06,1","","","02,99,1,02,1,03,1,00450,1,00,1,00,1","","","","","8,1,005,1,+999,9","01,1","","SYN066AAXX  01181 31725 41498 20000 10141 20100 40077 58005 70181 82300;",
"31725099999","2000-06-01T21:00:00","4","48.6166666","133.8333333","52.0","SMIDOVICH, RS","FM-12","99999","V020","320,1,N,0010,1","00420,1,9,N","020000,1,N,1","+0138,1","+0117,1","10084,1","","","","","","","","07,99,1,99,9,03,1,00450,1,00,1,00,1","","","","","3,1,007,1,+999,9","","","SYN060AAXX  01211 31725 /2498 73201 10138 20117 40084 53007 86300;","Q01+000062SCOTLC"
"31725099999","2000-06-02T00:00:00","4","48.6166666","133.8333333","52.0","SMIDOVICH, RS","FM-12","99999","V020","320,1,N,0020,1","00420,1,9,N","020000,1,N,1","+0178,1","+0107,1","10075,1","00,0001,9,1","","","","","","","06,99,1,05,1,05,1,00450,1,04,1,00,1","","","999,N,+0107,1","99999,9,10014,1","8,1,007,1,+999,9","","","SYN082AAXX  02001 31725 12498 63202 10178 20107 30014 40075 58007 69910 85540 333 20107;",
"31725099999","2000-06-02T03:00:00","4","48.6166666","133.8333333","52.0","SMIDOVICH, RS","FM-12","99999","V020","320,1,N,0010,1","00420,1,9,N","020000,1,N,1","+0185,1","+0100,1","10066,1","","","","8,1,03,1","2,1,03,1","","","06,99,1,05,1,03,1,00450,1,04,1,00,1","","","","","7,1,009,1,+999,9","25,1","","SYN066AAXX  02031 31725 41498 63201 10185 20100 40066 57009 72582 85340;",
"31725099999","2000-06-02T06:00:00","4","48.6166666","133.8333333","52.0","SMIDOVICH, RS","FM-12","99999","V020","050,1,N,0010,1","00420,1,9,N","020000,1,N,1","+0161,1","+0098,1","10058,1","","","","9,1,06,1","8,1,06,1","","","08,99,1,08,1,03,1,00450,1,99,9,99,9","","","","","7,1,009,1,+999,9","17,1","","SYN066AAXX  02061 31725 41498 80501 10161 20098 40058 57009 71798 883//;",
"31725099999","2000-06-02T09:00:00","4","48.6166666","133.8333333","52.0","SMIDOVICH, RS","FM-12","99999","V020","050,1,N,0010,1","00420,1,9,N","020000,1,N,1","+0154,1","+0097,1","10072,1","","","","9,1,03,1","2,1,03,1","","","08,99,1,05,1,03,1,00450,1,04,1,02,1","","","999,M,+0211,1","","3,1,014,1,+999,9","01,1","","SYN076AAXX  02091 31725 /1498 80501 10154 20097 40072 53014 70192 85342 333 10211;",
"31725099999","2000-06-02T12:00:00","4","48.6166666","133.8333333","52.0","SMIDOVICH, RS","FM-12","99999","V020","050,1,N,0010,1","00420,1,9,N","020000,1,N,1","+0134,1","+0093,1","10082,1","00,0008,9,1","","","9,1,06,1","2,1,06,1","","","08,99,1,06,1,03,1,00450,1,04,1,02,1","","","999,M,+0211,1","99999,9,10019,1","2,1,009,1,+999,9","02,1","","SYN088AAXX  02121 31725 11498 80501 10134 20093 30019 40082 52009 69980 70292 86342 333 10211;",
"31725099999","2000-06-02T15:00:00","4","48.6166666","133.8333333","52.0","SMIDOVICH, RS","FM-12","99999","V020","050,1,N,0010,1","00420,1,9,N","020000,1,N,1","+0126,1","+0093,1","10092,1","","","","","","","","06,99,1,06,1,03,1,00450,1,04,1,02,1","","","","","2,1,010,1,+999,9","","","SYN060AAXX  02151 31725 42498 60501 10126 20093 40092 52010 86342;",
"31725099999","2000-06-02T18:00:00","4","48.6166666","133.8333333","52.0","SMIDOVICH, RS","FM-12","99999","V020","050,1,N,0010,1","03600,1,9,N","020000,1,N,1","+0108,1","+0092,1","10096,1","","","","","","","","08,99,1,02,1,05,1,00450,1,04,1,02,1","","","","","2,1,003,1,+999,9","","","SYN060AAXX  02181 31725 42498 80501 10108 20092 40096 52003 82542;",
"31725099999","2000-06-02T21:00:00","4","48.6166666","133.8333333","52.0","SMIDOVICH, RS","FM-12","99999","V020","090,1,N,0010,1","99999,9,9,N","020000,1,N,1","+0118,1","+0103,1","10095,1","99,0000,9,1","","","","","","","08,99,1,00,1,00,1,99999,9,00,1,02,1","","","","","4,1,000,1,+999,9","","","SYN060AAXX  02211 31725 32998 80901 10118 20103 40095 54000 80002;","Q01  00002PRCP99"
"31725099999","2000-06-03T00:00:00","4","48.6166666","133.8333333","52.0","SMIDOVICH, RS","FM-12","99999","V020","020,1,N,0020,1","99999,9,9,N","020000,1,N,1","+0179,1","+0109,1","10100,1","99,0000,9,1","","","","","","","08,99,1,04,1,00,1,99999,9,04,1,02,1","","","999,N,+0094,1","99999,9,10039,1","3,1,007,1,+999,9","","","SYN076AAXX  03001 31725 32998 80202 10179 20109 30039 40100 53007 84042 333 20094;","Q01  00002PRCP99"
"31725099999","2000-06-03T03:00:00","4","48.6166666","133.8333333","52.0","SMIDOVICH, RS","FM-12","99999","V020","270,1,N,0010,1","00750,1,9,N","020000,1,N,1","+0211,1","+0105,1","10094,1","","","","","","","","06,99,1,06,1,04,1,00800,1,00,1,00,1","","","","","8,1,006,1,+999,9","","","SYN060AAXX  03031 31725 42598 62701 10211 20105 40094 58006 86400;",
"31725099999","2000-06-03T06:00:00","4","48.6166666","133.8333333","52.0","SMIDOVICH, RS","FM-12","99999","V020","230,1,N,0010,1","00750,1,9,N","020000,1,N,1","+0222,1","+0094,1","10078,1","","","","","","","","06,99,1,06,1,04,1,00800,1,00,1,00,1","","","","","7,1,016,1,+999,9","","","SYN060AAXX  03061 31725 42598 62301 10222 20094 40078 57016 86400;",
"31725099999","2000-06-03T09:00:00","4","48.6166666","133.8333333","52.0","SMIDOVICH, RS","FM-12","99999","V020","230,1,N,0010,1","03600,1,9,N","050000,1,N,1","+0215,1","+0105,1","10075,1","99,0000,9,1","","","","","","","08,99,1,02,1,04,1,00800,1,04,1,02,1","","","999,M,+0232,1","","7,1,003,1,+999,9","","","SYN070AAXX  03091 31725 32599 82301 10215 20105 40075 57003 82442 333 10232;","Q01  00002PRCP99"
"31725099999","2000-06-03T12:00:00","4","48.6166666","133.8333333","52.0","SMIDOVICH, RS","FM-12","99999","V020","230,1,N,0010,1","99999,9,9,N","020000,1,N,1","+0159,1","+0117,1","10079,1","99,0000,9,1","","","","","","","08,99,1,03,1,00,1,99999,9,04,1,02,1","","","999,M,+0232,1","99999,9,10017,1","3,1,003,1,+999,9","","","SYN076AAXX  03121 31725 32998 82301 10159 20117 30017 40079 53003 83042 333 10232;","Q01  00002PRCP99"
"31725099999","2000-06-03T15:00:00","4","48.6166666","133.8333333","52.0","SMIDOVICH, RS","FM-12","99999","V020","999,9,C,0000,1","22000,1,9,N","020000,1,N,1","+0136,1","+0099,1","10073,1","","","","","","","","03,99,1,02,1,00,1,99999,9,04,1,02,1","","","","","8,1,007,1,+999,9","","","SYN060AAXX  03151 31725 42998 30000 10136 20099 40073 58007 82042;",
"31725099999","2000-06-03T18:00:00","4","48.6166666","133.8333333","52.0","SMIDOVICH, RS","FM-12","99999","V020","999,9,C,0000,1","99999,9,9,N","020000,1,N,1","+0122,1","+0099,1","10069,1","","","","","","","","06,99,1,03,1,00,1,99999,9,04,1,02,1","","","","","7,1,004,1,+999,9","","","SYN060AAXX  03181 31725 42998 60000 10122 20099 40069 57004 83042;",
"31725099999","2000-06-03T21:00:00","4","48.6166666","133.8333333","52.0","SMIDOVICH, RS","FM-12","99999","V020","200,1,N,0010,1","03600,1,9,N","020000,1,N,1","+0130,1","+0109,1","10062,1","99,0000,9,1","","","","","","","06,99,1,03,1,04,1,00800,1,04,1,01,1","","","","","7,1,007,1,+999,9","","","SYN060AAXX  03211 31725 32598 62001 10130 20109 40062 57007 83441;","Q01  00002PRCP99"
"31725099999","2000-06-04T00:00:00","4","48.6166666","133.8333333","52.0","SMIDOVICH, RS","FM-12","99999","V020","200,1,N,0050,1","99999,9,9,N","020000,1,N,1","+0209,1","+0118,1","10054,1","99,0000,9,1","","","","","","","06,99,1,00,1,00,1,99999,9,00,1,02,1","","","999,N,+0108,1","99999,9,09993,1","7,1,006,1,+999,9","","","SYN076AAXX  04001 31725 32998 62005 10209 20118 39993 40054 57006 80002 333 20108;","Q01  00002PRCP99"
"31725099999","2000-06-04T03:00:00","4","48.6166666","133.8333333","52.0","SMIDOVICH, RS","FM-12","99999","V020","200,1,N,0050,1","99999,9,9,N","020000,1,N,1","+0245,1","+0100,1","10032,1","","","","","","","","06,99,1,00,1,00,1,99999,9,00,1,02,1","","","","","7,1,022,1,+999,9","","","SYN060AAXX  04031 31725 42998 62005 10245 20100 40032 57022 80002;",
"31725099999","2000-06-04T06:00:00","4","48.6166666","133.8333333","52.0","SMIDOVICH, RS","FM-12","99999","V020","200,1,N,0060,1","99999,9,9,N","020000,1,N,1","+0261,1","+0104,1","10000,1","","","","","","","","08,99,1,02,1,00,1,99999,9,04,1,02,1","","","","","7,1,031,1,+999,9","","","SYN060AAXX  04061 31725 42998 82006 10261 20104 40000 57031 82042;",
"31725099999","2000-06-04T09:00:00","4","48.6166666","133.8333333","52.0","SMIDOVICH, RS","FM-12","99999","V020","180,1,N,0070,1","00420,1,9,N","020000,1,N,1","+0246,1","+0118,1","09971,1","99,0000,9,1","","","","","","","08,99,1,08,1,03,1,00450,1,99,9,99,9","","","999,M,+0267,1","","7,1,029,1,+999,9","","","SYN070AAXX  04091 31725 32498 81807 10246 20118 49971 57029 883// 333 10267;","Q01  00002PRCP99"
"31725099999","2000-06-04T12:00:00","4","48.6166666","133.8333333","52.0","SMIDOVICH, RS","FM-12","99999","V020","180,1,N,0060,1","99999,9,9,N","020000,1,N,1","+0205,1","+0129,1","09954,1","99,0000,9,1","","","","","","","05,99,1,03,1,00,1,99999,9,04,1,02,1","","","999,M,+0267,1","99999,9,09893,1","7,1,018,1,+999,9","","","SYN076AAXX  04121 31725 32998 51806 10205 20129 39893 49954 57018 83042 333 10267;","Q01  00002PRCP99"
"31725099999","2000-06-04T15:00:00","4","48.6166666","133.8333333","52.0","SMIDOVICH, RS","FM-12","99999","V020","230,1,N,0090,1","99999,9,9,N","020000,1,N,1","+0200,1","+0111,1","09921,1","","","","9,1,03,1","2,1,03,1","","","05,99,1,03,1,00,1,99999,9,04,1,02,1","","","","","7,1,033,1,+999,9","91,1","","SYN076AAXX  04151 31725 41998 52309 10200 20111 49921 57033 79192 83042 333 91117;",
"31725099999","2000-06-04T18:00:00","4","48.6166666","133.8333333","52.0","SMIDOVICH, RS","FM-12","99999","V020","230,1,N,0040,1","99999,9,9,N","020000,1,N,1","+0195,1","+0074,1","09927,1","","","","9,1,06,1","8,1,06,1","","","05,99,1,03,1,00,1,99999,9,04,1,02,1","","","","","3,1,006,1,+999,9","02,1","","SYN066AAXX  04181 31725 41998 52304 10195 20074 49927 53006 70298 83042;",
"31725099999","2000-06-04T21:00:00","4","48.6166666","133.8333333","52.0","SMIDOVICH, RS","FM-12","99999","V020","230,1,N,0020,1","00420,1,9,N","020000,1,N,1","+0175,1","+0129,1","09936,1","","","","9,1,03,1","8,1,03,1","","","07,99,1,07,1,03,1,00450,1,00,1,00,1","","","","","2,1,008,1,+999,9","29,1","","SYN066AAXX  04211 31725 /1498 72302 10175 20129 49936 52008 72998 87300;",
"31725099999","2000-06-05T00:00:00","4","48.6166666","133.8333333","52.0","SMIDOVICH, RS","FM-12","99999","V020","230,1,N,0020,1","22000,1,9,N","020000,1,N,1","+0216,1","+0095,1","09936,1","00,0007,9,1","","","9,1,06,1","1,1,06,1","","","03,99,1,00,1,00,1,99999,9,00,1,02,1","","","999,M,+9999,9","99999,9,09875,1","1,1,001,1,+999,9","01,1","","SYN088AAXX  05001 31725 11998 32302 10216 20095 39875 49936 51001 69900 70191 80002 333 10154;","Q01 +01542ATMX  "
"31725099999","2000-06-05T03:00:00","4","48.6166666","133.8333333","52.0","SMIDOVICH, RS","FM-12","99999","V020","050,1,N,0030,1","22000,1,9,N","020000,1,N,1","+0243,1","+0074,1","09926,1","","","","","","","","03,99,1,03,1,05,1,00450,1,00,1,00,1","","","","","8,1,009,1,+999,9","","","SYN060AAXX  05031 31725 42498 30503 10243 20074 49926 58009 83500;",
"31725099999","2000-06-05T06:00:00","4","48.6166666","133.8333333","52.0","SMIDOVICH, RS","FM-12","99999","V020","320,1,N,0040,1","00420,1,9,N","020000,1,N,1","+0237,1","+0067,1","09926,1","","","","","","","","06,99,1,06,1,03,1,00450,1,00,1,00,1","","","","","4,1,000,1,+999,9","","","SYN060AAXX  05061 31725 42498 63204 10237 20067 49926 54000 86300;",
"31725099999","2000-06-05T12:00:00","4","48.6166666","133.8333333","52.0","SMIDOVICH, RS","FM-12","99999","V020","050,1,N,0030,1","99999,9,9,N","020000,1,N,1","+0124,1","+0117,1","09987,1","99,0000,9,1","","","","","","","07,99,1,99,9,03,1,00450,1,99,9,99,9","","","999,M,+0248,1","99999,9,09924,1","2,1,024,1,+999,9","","","SYN076AAXX  05121 31725 32498 70503 10124 20117 39924 49987 52024 883// 333 10248;","Q01+000082SCOTLCQ02  00002PRCP99"
"31725099999","2000-06-05T15:00:00","4","48.6166666","133.8333333","52.0","SMIDOVICH, RS","FM-12","99999","V020","050,1,N,0020,1","22000,1,9,N","020000,1,N,1","+0106,1","+0098,1","10005,1","","","","","","","","04,99,1,99,9,05,1,00450,1,00,1,00,1","","","","","2,1,018,1,+999,9","","","SYN060AAXX  05151 31725 42498 40502 10106 20098 40005 52018 83500;","Q01+000032SCOTLC"
"31725099999","2000-06-05T18:00:00","4","48.6166666","133.8333333","52.0","SMIDOVICH, RS","FM-12","99999","V020","999,9,C,0000,1","00420,1,9,N","020000,1,N,1","+0097,1","+0090,1","10006,1","","","","8,1,06,1","2,1,06,1","","","08,99,1,08,1,03,1,00450,1,99,9,99,9","","","","","1,1,001,1,+999,9","01,1","","SYN066AAXX  05181 31725 41498 80000 10097 20090 40006 51001 70182 883//;",
"31725099999","2000-06-05T21:00:00","4","48.6166666","133.8333333","52.0","SMIDOVICH, RS","FM-12","99999","V020","050,1,N,0010,1","00420,1,9,N","030000,1,N,1","+0082,1","+0062,1","10024,1","","","","8,1,03,1","2,1,03,1","","","08,99,1,08,1,03,1,00450,1,99,9,99,9","","","","","3,1,016,1,+999,9","80,1","","SYN066AAXX  05211 31725 /1480 80501 10082 20062 40024 53016 78082 883//;",
"31725099999","2000-06-06T00:00:00","4","48.6166666","133.8333333","52.0","SMIDOVICH, RS","FM-12","99999","V020","110,1,N,0010,1","00420,1,9,N","020000,1,N,1","+0114,1","+0062,1","10026,1","00,0005,9,1","","","8,1,06,1","2,1,06,1","","","08,99,1,06,1,03,1,00450,1,04,1,99,9","","","999,N,+0081,1","99999,9,09962,1","2,1,003,1,+999,9","01,1","","SYN088AAXX  06001 31725 11498 81101 10114 20062 39962 40026 52003 69940 70182 8634/ 333 20081;",
"31725099999","2000-06-06T03:00:00","4","48.6166666","133.8333333","52.0","SMIDOVICH, RS","FM-12","99999","V020","360,1,N,0010,1","00420,1,9,N","020000,1,N,1","+0116,1","+0045,1","10047,1","","","","8,1,03,1","2,1,03,1","","","08,99,1,07,1,03,1,00450,1,04,1,99,9","","","","","2,1,012,1,+999,9","02,1","","SYN066AAXX  06031 31725 41498 83601 10116 20045 40047 52012 70282 8734/;",
"31725099999","2000-06-06T06:00:00","4","48.6166666","133.8333333","52.0","SMIDOVICH, RS","FM-12","99999","V020","320,1,N,0010,1","00420,1,9,N","020000,1,N,1","+0134,1","+0048,1","10035,1","","","","8,1,06,1","2,1,06,1","","","08,99,1,06,1,03,1,00450,1,04,1,99,9","","","","","8,1,002,1,+999,9","01,1","","SYN066AAXX  06061 31725 41498 83201 10134 20048 40035 58002 70182 8634/;",
"31725099999","2000-06-06T09:00:00","4","48.6166666","133.8333333","52.0","SMIDOVICH, RS","FM-12","99999","V020","360,1,N,0010,1","00420,1,9,N","050000,1,N,1","+0124,1","+0050,1","10047,1","","","","","","","","08,99,1,07,1,03,1,00450,1,04,1,99,9","","","999,M,+0375,1","","3,1,012,1,+999,9","","","SYN070AAXX  06091 31725 /2499 83601 10124 20050 40047 53012 8734/ 333 10375;",
"31725099999","2000-06-06T12:00:00","4","48.6166666","133.8333333","52.0","SMIDOVICH, RS","FM-12","99999","V020","050,1,N,0010,1","00420,1,9,N","020000,1,N,1","+0099,1","+0027,1","10072,1","00,0003,9,1","","","","","","","08,99,1,07,1,03,1,00450,1,04,1,99,9","","","999,M,+0137,1","99999,9,10008,1","2,1,024,1,+999,9","","","SYN082AAXX  06121 31725 12498 80501 10099 20027 30008 40072 52024 69930 8734/ 333 10137;",
"31725099999","2000-06-06T18:00:00","4","48.6166666","133.8333333","52.0","SMIDOVICH, RS","FM-12","99999","V020","320,1,N,0010,1","00420,1,9,N","020000,1,N,1","+0080,1","+0041,1","10077,1","","","","","","","","08,99,1,07,1,03,1,00450,1,04,1,99,9","","","","","1,1,002,1,+999,9","","","SYN060AAXX  06181 31725 42498 83201 10080 20041 40077 51002 8734/;",
"31725099999","2000-06-06T21:00:00","4","48.6166666","133.8333333","52.0","SMIDOVICH, RS","FM-12","99999","V020","360,1,N,0010,1","03600,1,9,N","020000,1,N,1","+0086,1","+0040,1","10074,1","","","","","","","","08,99,1,04,1,03,1,00450,1,04,1,99,9","","","","","1,1,002,1,+999,9","","","SYN060AAXX  06211 31725 42498 83601 10086 20040 40074 51002 8434/;",
"31725099999","2000-06-07T00:00:00","4","48.6166666","133.8333333","52.0","SMIDOVICH, RS","FM-12","99999","V020","270,1,N,0010,1","00420,1,9,N","050000,1,N,1","+0117,1","+0041,1","10077,1","99,0000,9,1","","","","","","","08,99,1,05,1,05,1,00450,1,04,1,99,9","","","999,N,+0077,1","99999,9,10014,1","1,1,001,1,+999,9","","","SYN076AAXX  07001 31725 32499 82701 10117 20041 30014 40077 51001 8554/ 333 20077;","Q01  00002PRCP99"
"31725099999","2000-06-07T03:00:00","4","48.6166666","133.8333333","52.0","SMIDOVICH, RS","FM-12","99999","V020","050,1,N,0010,1","00420,1,9,N","050000,1,N,1","+0130,1","+0043,1","10079,1","","","","","","","","08,99,1,07,1,05,1,00450,1,99,9,99,9","","","","","1,1,002,1,+999,9","","","SYN060AAXX  07031 31725 42499 80501 10130 20043 40079 51002 875//;",
"31725099999","2000-06-07T06:00:00","4","48.6166666","133.8333333","52.0","SMIDOVICH, RS","FM-12","99999","V020","320,1,N,0010,1","09000,1,9,N","020000,1,N,1","+0061,1","+0050,1","10071,1","","","","","","","","08,99,1,01,1,05,1,00450,1,00,1,02,1","","","","","8,1,007,1,+999,9","","","SYN060AAXX  07061 31725 42498 83201 10061 20050 40071 58007 81502;",
"31725099999","2000-06-07T09:00:00","4","48.6166666","133.8333333","52.0","SMIDOVICH, RS","FM-12","99999","V020","180,1,N,0010,1","22000,1,9,N","050000,1,N,1","+0158,1","+0051,1","10068,1","99,0000,9,1","","","","","","","02,99,1,02,1,00,1,99999,9,04,1,00,1","","","999,M,+0167,1","","7,1,003,1,+999,9","","","SYN070AAXX  07091 31725 32999 21801 10158 20051 40068 57003 82040 333 10167;","Q01  00002PRCP99"
"31725099999","2000-06-07T12:00:00","4","48.6166666","133.8333333","52.0","SMIDOVICH, RS","FM-12","99999","V020","999,9,C,0000,1","22000,1,9,N","020000,1,N,1","+0097,1","+0061,1","10077,1","99,0000,9,1","","","","","","00,1,+99999,9,99,9","00,99,1,00,1,00,1,99999,9,00,1,00,1","","","999,M,+0167,1","99999,9,10013,1","3,1,007,1,+999,9","","","SYN070AAXX  07121 31725 32998 00000 10097 20061 30013 40077 53007 333 10167;","Q01  00002PRCP99"
"31725099999","2000-06-07T15:00:00","4","48.6166666","133.8333333","52.0","SMIDOVICH, RS","FM-12","99999","V020","999,9,C,0000,1","22000,1,9,N","020000,1,N,1","+0072,1","+0045,1","10080,1","","","","","","","","02,99,1,02,1,00,1,99999,9,04,1,02,1","","","","","1,1,002,1,+999,9","","","SYN060AAXX  07151 31725 42998 20000 10072 20045 40080 51002 82042;",
"31725099999","2000-06-07T18:00:00","4","48.6166666","133.8333333","52.0","SMIDOVICH, RS","FM-12","99999","V020","999,9,C,0000,1","22000,1,9,N","020000,1,N,1","+0047,1","+0037,1","10078,1","","","","","","","","03,99,1,02,1,00,1,99999,9,04,1,02,1","","","","","8,1,003,1,+999,9","","","SYN060AAXX  07181 31725 42998 30000 10047 20037 40078 58003 82042;",
"31725099999","2000-06-07T21:00:00","4","48.6166666","133.8333333","52.0","SMIDOVICH, RS","FM-12","99999","V020","999,9,C,0000,1","22000,1,9,N","020000,1,N,1","+0043,1","+0036,1","10080,1","99,0000,9,1","","","","","","","03,99,1,03,1,00,1,99999,9,04,1,00,1","","","","","3,1,002,1,+999,9","","","SYN060AAXX  07211 31725 32998 30000 10043 20036 40080 53002 83040;","Q01  00002PRCP99"
"31725099999","2000-06-08T00:00:00","4","48.6166666","133.8333333","52.0","SMIDOVICH, RS","FM-12","99999","V020","230,1,N,0010,1","09000,1,9,N","020000,1,N,1","+0155,1","+0058,1","10078,1","99,0000,9,1","","","","","","","05,99,1,02,1,05,1,00450,1,00,1,02,1","","","999,N,+0042,1","99999,9,10016,1","1,1,002,1,+999,9","","","SYN076AAXX  08001 31725 32498 52301 10155 20058 30016 40078 51002 82502 333 20042;","Q01  00002PRCP99"
"31725099999","2000-06-08T03:00:00","4","48.6166666","133.8333333","52.0","SMIDOVICH, RS","FM-12","99999","V020","999,9,C,0000,1","00420,1,9,N","050000,1,N,1","+0184,1","+0078,1","10073,1","","","","","","","","06,99,1,05,1,05,1,00450,1,00,1,02,1","","","","","8,1,004,1,+999,9","","","SYN060AAXX  08031 31725 42499 60000 10184 20078 40073 58004 85502;",
"31725099999","2000-06-08T06:00:00","4","48.6166666","133.8333333","52.0","SMIDOVICH, RS","FM-12","99999","V020","140,1,N,0010,1","09000,1,9,N","050000,1,N,1","+0194,1","+0053,1","10066,1","","","","","","","","06,99,1,04,1,05,1,00450,1,00,1,02,1","","","","","7,1,007,1,+999,9","","","SYN060AAXX  08061 31725 42499 61401 10194 20053 40066 57007 84502;",
"31725099999","2000-06-08T09:00:00","4","48.6166666","133.8333333","52.0","SMIDOVICH, RS","FM-12","99999","V020","999,9,C,0000,1","03600,1,9,N","050000,1,N,1","+0180,1","+0073,1","10061,1","99,0000,9,1","","","","","","","06,99,1,02,1,05,1,00450,1,04,1,02,1","","","999,M,+0200,1","","7,1,005,1,+999,9","","","SYN070AAXX  08091 31725 32499 60000 10180 20073 40061 57005 82542 333 10200;","Q01  00002PRCP99"
"31725099999","2000-06-08T12:00:00","4","48.6166666","133.8333333","52.0","SMIDOVICH, RS","FM-12","99999","V020","999,9,C,0000,1","22000,1,9,N","050000,1,N,1","+0117,1","+0082,1","10072,1","99,0000,9,1","","","","","","","02,99,1,02,1,05,1,00450,1,00,1,02,1","","","999,M,+0200,1","99999,9,10009,1","3,1,009,1,+999,9","","","SYN076AAXX  08121 31725 32499 20000 10117 20082 30009 40072 53009 82502 333 10200;","Q01  00002PRCP99"
"31725099999","2000-06-08T15:00:00","4","48.6166666","133.8333333","52.0","SMIDOVICH, RS","FM-12","99999","V020","999,9,C,0000,1","22000,1,9,N","020000,1,N,1","+0073,1","+0062,1","10077,1","","","","","","","","02,99,1,02,1,05,1,00450,1,00,1,00,1","","","","","2,1,003,1,+999,9","","","SYN060AAXX  08151 31725 42498 20000 10073 20062 40077 52003 82500;",
"31725099999","2000-06-08T18:00:00","4","48.6166666","133.8333333","52.0","SMIDOVICH, RS","FM-12","99999","V020","999,9,C,0000,1","09000,1,9,N","020000,1,N,1","+0079,1","+0068,1","10077,1","","","","","","","","05,99,1,03,1,05,1,00450,1,00,1,02,1","","","","","4,1,000,1,+999,9","","","SYN060AAXX  08181 31725 42498 50000 10079 20068 40077 54000 83502;",
"31725099999","2000-06-08T21:00:00","4","48.6166666","133.8333333","52.0","SMIDOVICH, RS","FM-12","99999","V020","270,1,N,0010,1","09000,1,9,N","050000,1,N,1","+0083,1","+0065,1","10082,1","99,0000,9,1","","","","","","","06,99,1,04,1,03,1,00450,1,00,1,02,1","","","","","3,1,005,1,+999,9","","","SYN060AAXX  08211 31725 32499 62701 10083 20065 40082 53005 84302;","Q01  00002PRCP99"
"31725099999","2000-06-09T00:00:00","4","48.6166666","133.8333333","52.0","SMIDOVICH, RS","FM-12","99999","V020","999,9,C,0000,1","03600,1,9,N","020000,1,N,1","+0165,1","+0098,1","10077,1","99,0000,9,1","","","","","","","08,99,1,02,1,04,1,00800,1,04,1,02,1","","","999,N,+0059,1","99999,9,10015,1","8,1,002,1,+999,9","","","SYN076AAXX  09001 31725 32598 80000 10165 20098 30015 40077 58002 82442 333 20059;","Q01  00002PRCP99"
"31725099999","2000-06-09T03:00:00","4","48.6166666","133.8333333","52.0","SMIDOVICH, RS","FM-12","99999","V020","360,1,N,0020,1","03600,1,9,N","020000,1,N,1","+0197,1","+0078,1","10065,1","","","","","","","","06,99,1,02,1,05,1,00800,1,04,1,02,1","","","","","7,1,011,1,+999,9","","","SYN060AAXX  09031 31725 42598 63602 10197 20078 40065 57011 82542;",
"31725099999","2000-06-09T06:00:00","4","48.6166666","133.8333333","52.0","SMIDOVICH, RS","FM-12","99999","V020","360,1,N,0030,1","00420,1,9,N","020000,1,N,1","+0192,1","+0053,1","10053,1","","","","","","","","07,99,1,06,1,03,1,00450,1,04,1,00,1","","","","","7,1,012,1,+999,9","","","SYN060AAXX  09061 31725 42498 73603 10192 20053 40053 57012 86340;",
"31725099999","2000-06-09T09:00:00","4","48.6166666","133.8333333","52.0","SMIDOVICH, RS","FM-12","99999","V020","999,9,C,0000,1","03600,1,9,N","050000,1,N,1","+0186,1","+0064,1","10050,1","99,0000,9,1","","","","","","","07,99,1,03,1,03,1,00450,1,04,1,00,1","","","999,M,+0206,1","","7,1,003,1,+999,9","","","SYN070AAXX  09091 31725 32499 70000 10186 20064 40050 57003 83340 333 10206;","Q01  00002PRCP99"
"31725099999","2000-06-09T12:00:00","4","48.6166666","133.8333333","52.0","SMIDOVICH, RS","FM-12","99999","V020","999,9,C,0000,1","03600,1,9,N","050000,1,N,1","+0136,1","+0097,1","10059,1","99,0000,9,1","","","","","","","06,99,1,03,1,03,1,00450,1,04,1,00,1","","","999,M,+0206,1","99999,9,09996,1","3,1,007,1,+999,9","","","SYN076AAXX  09121 31725 32499 60000 10136 20097 39996 40059 53007 83340 333 10206;","Q01  00002PRCP99"
"31725099999","2000-06-09T15:00:00","4","48.6166666","133.8333333","52.0","SMIDOVICH, RS","FM-12","99999","V020","999,9,C,0000,1","03600,1,9,N","050000,1,N,1","+0134,1","+0082,1","10069,1","","","","","","","","06,99,1,03,1,03,1,00450,1,04,1,00,1","","","","","2,1,010,1,+999,9","","","SYN060AAXX  09151 31725 42499 60000 10134 20082 40069 52010 83340;",
"31725099999","2000-06-09T18:00:00","4","48.6166666","133.8333333","52.0","SMIDOVICH, RS","FM-12","99999","V020","999,9,C,0000,1","03600,1,9,N","020000,1,N,1","+0100,1","+0070,1","10071,1","","","","","","","","05,99,1,02,1,03,1,00450,1,04,1,00,1","","","","","1,1,001,1,+999,9","","","SYN060AAXX  09181 31725 42498 50000 10100 20070 40071 51001 82340;",
"31725099999","2000-06-09T21:00:00","4","48.6166666","133.8333333","52.0","SMIDOVICH, RS","FM-12","99999","V020","200,1,N,0010,1","22000,1,9,N","050000,1,N,1","+0092,1","+0076,1","10081,1","99,0000,9,1","","","","","","","02,99,1,01,1,03,1,00450,1,00,1,02,1","","","","","3,1,010,1,+999,9","","","SYN060AAXX  09211 31725 32499 22001 10092 20076 40081 53010 81302;","Q01  00002PRCP99"
"31725099999","2000-06-10T00:00:00","4","48.6166666","133.8333333","52.0","SMIDOVICH, RS","FM-12","99999","V020","200,1,N,0020,1","22000,1,9,N","050000,1,N,1","+0190,1","+0081,1","10076,1","99,0000,9,1","","","","","","","03,99,1,02,1,03,1,00450,1,04,1,01,1","","","999,N,+0084,1","99999,9,10015,1","8,1,002,1,+999,9","","","SYN076AAXX  10001 31725 32499 32002 10190 20081 30015 40076 58002 82341 333 20084;","Q01  00002PRCP99"
"31725099999","2000-06-10T03:00:00","4","48.6166666","133.8333333","52.0","SMIDOVICH, RS","FM-12","99999","V020","200,1,N,0030,1","03600,1,9,N","050000,1,N,1","+0224,1","+0080,1","10070,1","","","","","","","","08,99,1,02,1,03,1,00450,1,04,1,02,1","","","","","7,1,006,1,+999,9","","","SYN060AAXX  10031 31725 42499 82003 10224 20080 40070 57006 82342;",
"31725099999","2000-06-10T06:00:00","4","48.6166666","133.8333333","52.0","SMIDOVICH, RS","FM-12","99999","V020","230,1,N,0020,1","03600,1,9,N","050000,1,N,1","+0239,1","+0094,1","10061,1","","","","","","","","08,99,1,02,1,03,1,00450,1,04,1,01,1","","","","","7,1,009,1,+999,9","","","SYN060AAXX  10061 31725 42499 82302 10239 20094 40061 57009 82341;",
"31725099999","2000-06-10T09:00:00","4","48.6166666","133.8333333","52.0","SMIDOVICH, RS","FM-12","99999","V020","230,1,N,0020,1","99999,9,9,N","050000,1,N,1","+0226,1","+0099,1","10060,1","99,0000,9,1","","","","","","","06,99,1,03,1,00,1,99999,9,04,1,02,1","","","999,M,+0246,1","","6,1,001,1,+999,9","","","SYN070AAXX  10091 31725 32999 62302 10226 20099 40060 56001 83042 333 10246;","Q01  00002PRCP99"
"31725099999","2000-06-10T12:00:00","4","48.6166666","133.8333333","52.0","SMIDOVICH, RS","FM-12","99999","V020","230,1,N,0010,1","99999,9,9,N","050000,1,N,1","+0163,1","+0118,1","10071,1","99,0000,9,1","","","","","","","05,99,1,02,1,00,1,99999,9,04,1,02,1","","","999,M,+0246,1","99999,9,10009,1","3,1,010,1,+999,9","","","SYN076AAXX  10121 31725 32999 52301 10163 20118 30009 40071 53010 82042 333 10246;","Q01  00002PRCP99"
"31725099999","2000-06-10T15:00:00","4","48.6166666","133.8333333","52.0","SMIDOVICH, RS","FM-12","99999","V020","320,1,N,0020,1","22000,1,9,N","050000,1,N,1","+0152,1","+0092,1","10076,1","","","","","","","","02,99,1,02,1,00,1,99999,9,04,1,00,1","","","","","2,1,005,1,+999,9","","","SYN060AAXX  10151 31725 42999 23202 10152 20092 40076 52005 82040;",
"31725099999","2000-06-10T18:00:00","4","48.6166666","133.8333333","52.0","SMIDOVICH, RS","FM-12","99999","V020","320,1,N,0010,1","22000,1,9,N","050000,1,N,1","+0097,1","+0081,1","10078,1","","","","","","","00,1,+99999,9,99,9","00,99,1,00,1,00,1,99999,9,00,1,00,1","","","","","4,1,000,1,+999,9","","","SYN054AAXX  10181 31725 42999 03201 10097 20081 40078 54000;",
"31725099999","2000-06-10T21:00:00","4","48.6166666","133.8333333","52.0","SMIDOVICH, RS","FM-12","99999","V020","250,1,N,0020,1","22000,1,9,N","050000,1,N,1","+0120,1","+0092,1","10077,1","99,0000,9,1","","","","","","00,1,+99999,9,99,9","00,99,1,00,1,00,1,99999,9,00,1,00,1","","","","","4,1,000,1,+999,9","","","SYN054AAXX  10211 31725 32999 02502 10120 20092 40077 54000;","Q01  00002PRCP99"
"31725099999","2000-06-11T00:00:00","4","48.6166666","133.8333333","52.0","SMIDOVICH, RS","FM-12","99999","V020","230,1,N,0010,1","22000,1,9,N","020000,1,N,1","+0212,1","+0120,1","10070,1","99,0000,9,1","","","","","","00,1,+99999,9,99,9","00,99,1,00,1,00,1,99999,9,00,1,00,1","","","999,N,+0080,1","99999,9,10009,1","8,1,005,1,+999,9","","","SYN070AAXX  11001 31725 32998 02301 10212 20120 30009 40070 58005 333 20080;","Q01  00002PRCP99"
"31725099999","2000-06-11T03:00:00","4","48.6166666","133.8333333","52.0","SMIDOVICH, RS","FM-12","99999","V020","180,1,N,0020,1","22000,1,9,N","020000,1,N,1","+0250,1","+0125,1","10062,1","","","","","","","00,1,+99999,9,99,9","00,99,1,00,1,00,1,99999,9,00,1,00,1","","","","","7,1,008,1,+999,9","","","SYN054AAXX  11031 31725 42998 01802 10250 20125 40062 57008;",
"31725099999","2000-06-11T06:00:00","4","48.6166666","133.8333333","52.0","SMIDOVICH, RS","FM-12","99999","V020","180,1,N,0020,1","22000,1,9,N","020000,1,N,1","+0271,1","+0121,1","10041,1","","","","","","","","02,99,1,00,1,00,1,99999,9,00,1,02,1","","","","","7,1,020,1,+999,9","","","SYN060AAXX  11061 31725 42998 21802 10271 20121 40041 57020 80002;",
"31725099999","2000-06-11T09:00:00","4","48.6166666","133.8333333","52.0","SMIDOVICH, RS","FM-12","99999","V020","230,1,N,0020,1","09000,1,9,N","020000,1,N,1","+0258,1","+0151,1","10024,1","99,0000,9,1","","","","","","","08,99,1,02,1,05,1,00450,1,00,1,02,1","","","999,M,+0279,1","","7,1,017,1,+999,9","","","SYN070AAXX  11091 31725 32498 82302 10258 20151 40024 57017 82502 333 10279;","Q01  00002PRCP99"
"31725099999","2000-06-11T12:00:00","4","48.6166666","133.8333333","52.0","SMIDOVICH, RS","FM-12","99999","V020","230,1,N,0010,1","00420,1,9,N","020000,1,N,1","+0204,1","+0155,1","10018,1","99,0000,9,1","","","9,1,06,1","1,1,06,1","","","08,99,1,08,1,03,1,00450,1,99,9,99,9","","","999,M,+0279,1","99999,9,09957,1","7,1,007,1,+999,9","17,1","","SYN082AAXX  11121 31725 31498 82301 10204 20155 39957 40018 57007 71791 883// 333 10279;","Q01  00002PRCP99"
"31725099999","2000-06-11T15:00:00","4","48.6166666","133.8333333","52.0","SMIDOVICH, RS","FM-12","99999","V020","230,1,N,0010,1","00420,1,9,N","020000,1,N,1","+0162,1","+0128,1","10019,1","","","","9,1,03,1","2,1,03,1","","","08,99,1,07,1,05,1,00450,1,99,9,99,9","","","","","4,1,000,1,+999,9","02,1","","SYN066AAXX  11151 31725 41498 82301 10162 20128 40019 54000 70292 875//;",
"31725099999","2000-06-11T18:00:00","4","48.6166666","133.8333333","52.0","SMIDOVICH, RS","FM-12","99999","V020","230,1,N,0010,1","00420,1,9,N","020000,1,N,1","+0186,1","+0147,1","10010,1","","","","9,1,06,1","2,1,06,1","","","08,99,1,06,1,03,1,00450,1,04,1,99,9","","","","","8,1,008,1,+999,9","02,1","","SYN066AAXX  11181 31725 41498 82301 10186 20147 40010 58008 70292 8634/;",
"31725099999","2000-06-11T21:00:00","4","48.6166666","133.8333333","52.0","SMIDOVICH, RS","FM-12","99999","V020","230,1,N,0010,1","00420,1,9,N","020000,1,N,1","+0179,1","+0139,1","09995,1","","","","","","","","08,99,1,06,1,05,1,00450,1,04,1,99,9","","","","","7,1,016,1,+999,9","","","SYN060AAXX  11211 31725 /2498 82301 10179 20139 49995 57016 8654/;",
"31725099999","2000-06-12T00:00:00","4","48.6166666","133.8333333","52.0","SMIDOVICH, RS","FM-12","99999","V020","230,1,N,0020,1","99999,9,9,N","020000,1,N,1","+0224,1","+0140,1","09976,1","00,0003,9,1","","","","","","","06,99,1,04,1,00,1,99999,9,04,1,02,1","","","999,N,+0161,1","99999,9,09915,1","7,1,018,1,+999,9","","","SYN082AAXX  12001 31725 12998 62302 10224 20140 39915 49976 57018 69930 84042 333 20161;",
"31725099999","2000-06-12T03:00:00","4","48.6166666","133.8333333","52.0","SMIDOVICH, RS","FM-12","99999","V020","230,1,N,0030,1","03600,1,9,N","020000,1,N,1","+0278,1","+0154,1","09956,1","","","","","","","","06,99,1,03,1,03,1,00450,1,04,1,02,1","","","","","7,1,018,1,+999,9","","","SYN060AAXX  12031 31725 42498 62303 10278 20154 49956 57018 83342;",
"31725099999","2000-06-12T06:00:00","4","48.6166666","133.8333333","52.0","SMIDOVICH, RS","FM-12","99999","V020","230,1,N,0020,1","00420,1,9,N","020000,1,N,1","+0237,1","+0117,1","09949,1","","","","","","","","08,99,1,08,1,03,1,00450,1,99,9,99,9","","","","","7,1,008,1,+999,9","","","SYN060AAXX  12061 31725 42498 82302 10237 20117 49949 57008 883//;",
"31725099999","2000-06-12T09:00:00","4","48.6166666","133.8333333","52.0","SMIDOVICH, RS","FM-12","99999","V020","230,1,N,0020,1","03600,1,9,N","020000,1,N,1","+0244,1","+0159,1","09939,1","99,0000,9,1","","","","","","","06,99,1,02,1,03,1,00450,1,04,1,02,1","","","999,M,+0281,1","","7,1,010,1,+999,9","","","SYN070AAXX  12091 31725 32498 62302 10244 20159 49939 57010 82342 333 10281;","Q01  00002PRCP99"
"31725099999","2000-06-12T12:00:00","4","48.6166666","133.8333333","52.0","SMIDOVICH, RS","FM-12","99999","V020","230,1,N,0020,1","22000,1,9,N","020000,1,N,1","+0213,1","+0159,1","09942,1","99,0000,9,1","","","","","","","02,99,1,02,1,03,1,00450,1,00,1,02,1","","","999,M,+0281,1","99999,9,09881,1","3,1,002,1,+999,9","","","SYN076AAXX  12121 31725 32498 22302 10213 20159 39881 49942 53002 82302 333 10281;","Q01  00002PRCP99"
"31725099999","2000-06-12T15:00:00","4","48.6166666","133.8333333","52.0","SMIDOVICH, RS","FM-12","99999","V020","230,1,N,0020,1","22000,1,9,N","020000,1,N,1","+0190,1","+0137,1","09961,1","","","","","","","","02,99,1,00,1,00,1,99999,9,00,1,02,1","","","","","2,1,019,1,+999,9","","","SYN060AAXX  12151 31725 42998 22302 10190 20137 49961 52019 80002;",
"31725099999","2000-06-12T18:00:00","4","48.6166666","133.8333333","52.0","SMIDOVICH, RS","FM-12","99999","V020","050,1,N,0020,1","00420,1,9,N","020000,1,N,1","+0160,1","+0090,1","09991,1","","","","","","","","05,99,1,05,1,03,1,00450,1,00,1,00,1","","","","","2,1,029,1,+999,9","","","SYN060AAXX  12181 31725 42498 50502 10160 20090 49991 52029 85300;",
"31725099999","2000-06-12T21:00:00","4","48.6166666","133.8333333","52.0","SMIDOVICH, RS","FM-12","99999","V020","320,1,N,0020,1","00420,1,9,N","050000,1,N,1","+0145,1","+0084,1","10002,1","99,0000,9,1","","","","","","","05,99,1,05,1,03,1,00450,1,00,1,00,1","","","","","2,1,011,1,+999,9","","","SYN060AAXX  12211 31725 32499 53202 10145 20084 40002 52011 85300;","Q01  00002PRCP99"
"31725099999","2000-06-13T00:00:00","4","48.6166666","133.8333333","52.0","SMIDOVICH, RS","FM-12","99999","V020","020,1,N,0030,1","22000,1,9,N","050000,1,N,1","+0200,1","+0068,1","10009,1","99,0000,9,1","","","","","","","01,99,1,01,1,04,1,00800,1,00,1,00,1","","","999,N,+0130,1","99999,9,09948,1","2,1,008,1,+999,9","","","SYN076AAXX  13001 31725 32599 10203 10200 20068 39948 40009 52008 81400 333 20130;","Q01  00002PRCP99"
"31725099999","2000-06-13T03:00:00","4","48.6166666","133.8333333","52.0","SMIDOVICH, RS","FM-12","99999","V020","230,1,N,0010,1","22000,1,9,N","050000,1,N,1","+0224,1","+0074,1","10005,1","","","","","","","00,1,+99999,9,99,9","00,99,1,00,1,00,1,99999,9,00,1,00,1","","","","","8,1,004,1,+999,9","","","SYN054AAXX  13031 31725 42999 02301 10224 20074 40005 58004;",
"31725099999","2000-06-13T06:00:00","4","48.6166666","133.8333333","52.0","SMIDOVICH, RS","FM-12","99999","V020","070,1,N,0020,1","22000,1,9,N","050000,1,N,1","+0240,1","+0071,1","09992,1","","","","","","","","01,99,1,01,1,03,1,00450,1,00,1,00,1","","","","","7,1,012,1,+999,9","","","SYN060AAXX  13061 31725 42499 10702 10240 20071 49992 57012 81300;",
"31725099999","2000-06-13T09:00:00","4","48.6166666","133.8333333","52.0","SMIDOVICH, RS","FM-12","99999","V020","140,1,N,0010,1","22000,1,9,N","050000,1,N,1","+0240,1","+0107,1","09992,1","99,0000,9,1","","","","","","","01,99,1,01,1,03,1,00450,1,00,1,00,1","","","999,M,+0254,1","","4,1,000,1,+999,9","","","SYN070AAXX  13091 31725 32499 11401 10240 20107 49992 54000 81300 333 10254;","Q01  00002PRCP99"
"31725099999","2000-06-13T12:00:00","4","48.6166666","133.8333333","52.0","SMIDOVICH, RS","FM-12","99999","V020","140,1,N,0020,1","00420,1,9,N","050000,1,N,1","+0170,1","+0098,1","10016,1","99,0000,9,1","","","9,1,06,1","2,1,06,1","","","06,99,1,06,1,09,1,00450,1,00,1,00,1","","","999,M,+0254,1","99999,9,09954,1","3,1,022,1,+999,9","17,1","","SYN082AAXX  13121 31725 31499 61402 10170 20098 39954 40016 53022 71792 86900 333 10254;","Q01  00002PRCP99"
"31725099999","2000-06-13T15:00:00","4","48.6166666","133.8333333","52.0","SMIDOVICH, RS","FM-12","99999","V020","999,9,C,0000,1","22000,1,9,N","050000,1,N,1","+0134,1","+0099,1","10026,1","","","","9,1,03,1","8,1,03,1","","","01,99,1,01,1,03,1,00450,1,00,1,00,1","","","","","2,1,009,1,+999,9","01,1","","SYN066AAXX  13151 31725 41499 10000 10134 20099 40026 52009 70198 81300;",
"31725099999","2000-06-13T18:00:00","4","48.6166666","133.8333333","52.0","SMIDOVICH, RS","FM-12","99999","V020","999,9,C,0000,1","00420,1,9,N","020000,1,N,1","+0126,1","+0099,1","10033,1","","","","9,1,06,1","1,1,06,1","","","06,99,1,06,1,03,1,00450,1,00,1,00,1","","","","","2,1,007,1,+999,9","03,1","","SYN066AAXX  13181 31725 41498 60000 10126 20099 40033 52007 70391 86300;",
"31725099999","2000-06-13T21:00:00","4","48.6166666","133.8333333","52.0","SMIDOVICH, RS","FM-12","99999","V020","360,1,N,0010,1","03600,1,9,N","050000,1,N,1","+0128,1","+0097,1","10041,1","","","","","","","","06,99,1,03,1,04,1,00800,1,04,1,00,1","","","","","2,1,008,1,+999,9","","","SYN060AAXX  13211 31725 /2599 63601 10128 20097 40041 52008 83440;",
"31725099999","2000-06-14T00:00:00","4","48.6166666","133.8333333","52.0","SMIDOVICH, RS","FM-12","99999","V020","090,1,N,0010,1","22000,1,9,N","050000,1,N,1","+0183,1","+0089,1","10048,1","00,0051,9,1","","","","","","","04,99,1,02,1,05,1,00450,1,04,1,02,1","","","999,N,+0114,1","99999,9,09987,1","2,1,009,1,+999,9","","","SYN082AAXX  14001 31725 12499 40901 10183 20089 39987 40048 52009 60050 82542 333 20114;",
"31725099999","2000-06-14T03:00:00","4","48.6166666","133.8333333","52.0","SMIDOVICH, RS","FM-12","99999","V020","999,9,C,0000,1","22000,1,9,N","050000,1,N,1","+0223,1","+0095,1","10044,1","","","","","","","","02,99,1,02,1,05,1,00450,1,00,1,02,1","","","","","8,1,004,1,+999,9","","","SYN060AAXX  14031 31725 42499 20000 10223 20095 40044 58004 82502;",
"31725099999","2000-06-14T06:00:00","4","48.6166666","133.8333333","52.0","SMIDOVICH, RS","FM-12","99999","V020","999,9,C,0000,1","22000,1,9,N","050000,1,N,1","+0244,1","+0106,1","10031,1","","","","","","","","02,99,1,02,1,05,1,00450,1,00,1,02,1","","","","","7,1,013,1,+999,9","","","SYN060AAXX  14061 31725 42499 20000 10244 20106 40031 57013 82502;",
"31725099999","2000-06-14T09:00:00","4","48.6166666","133.8333333","52.0","SMIDOVICH, RS","FM-12","99999","V020","999,9,C,0000,1","22000,1,9,N","050000,1,N,1","+0246,1","+0104,1","10030,1","99,0000,9,1","","","","","","","04,99,1,99,9,99,9,00450,1,99,9,99,9","","","999,M,+0248,1","","6,1,001,1,+999,9","","","SYN064AAXX  14091 31725 32499 40000 10246 20104 40030 56001 333 10248;","Q01  00002PRCP99"
"31725099999","2000-06-14T12:00:00","4","48.6166666","133.8333333","52.0","SMIDOVICH, RS","FM-12","99999","V020","999,9,C,0000,1","22000,1,9,N","020000,1,N,1","+0178,1","+0112,1","10044,1","99,0000,9,1","","","","","","","04,99,1,02,1,05,1,00450,1,00,1,02,1","","","999,M,+0248,1","99999,9,09983,1","3,1,014,1,+999,9","","","SYN076AAXX  14121 31725 32498 40000 10178 20112 39983 40044 53014 82502 333 10248;","Q01  00002PRCP99"
"31725099999","2000-06-14T15:00:00","4","48.6166666","133.8333333","52.0","SMIDOVICH, RS","FM-12","99999","V020","999,9,C,0000,1","22000,1,9,N","020000,1,N,1","+0163,1","+0132,1","10053,1","","","","","","","00,1,+99999,9,99,9","00,99,1,00,1,00,1,99999,9,00,1,00,1","","","","","2,1,018,1,+999,9","","","SYN054AAXX  14151 31725 42998 00000 10163 20132 40053 52018;",
"31725099999","2000-06-14T18:00:00","4","48.6166666","133.8333333","52.0","SMIDOVICH, RS","FM-12","99999","V020","999,9,C,0000,1","22000,1,9,N","020000,1,N,1","+0115,1","+0095,1","10059,1","","","","","","","00,1,+99999,9,99,9","00,99,1,00,1,00,1,99999,9,00,1,00,1","","","","","2,1,005,1,+999,9","","","SYN054AAXX  14181 31725 42998 00000 10115 20095 40059 52005;",
"31725099999","2000-06-14T21:00:00","4","48.6166666","133.8333333","52.0","SMIDOVICH, RS","FM-12","99999","V020","999,9,C,0000,1","22000,1,9,N","020000,1,N,1","+0134,1","+0110,1","10069,1","99,0000,9,1","","","","","","00,1,+99999,9,99,9","00,99,1,00,1,00,1,99999,9,00,1,00,1","","","","","2,1,010,1,+999,9","","","SYN054AAXX  14211 31725 32998 00000 10134 20110 40069 52010;","Q01  00002PRCP99"
"31725099999","2000-06-15T00:00:00","4","48.6166666","133.8333333","52.0","SMIDOVICH, RS","FM-12","99999","V020","230,1,N,0020,1","22000,1,9,N","050000,1,N,1","+0224,1","+0124,1","10066,1","99,0000,9,1","","","","","","","01,99,1,00,1,00,1,99999,9,00,1,02,1","","","999,N,+0085,1","99999,9,10005,1","8,1,001,1,+999,9","","","SYN076AAXX  15001 31725 32999 12302 10224 20124 30005 40066 58001 80002 333 20085;","Q01  00002PRCP99"
"31725099999","2000-06-15T03:00:00","4","48.6166666","133.8333333","52.0","SMIDOVICH, RS","FM-12","99999","V020","270,1,N,0030,1","22000,1,9,N","050000,1,N,1","+0254,1","+0104,1","10062,1","","","","","","","","01,99,1,01,1,03,1,00450,1,00,1,00,1","","","","","7,1,003,1,+999,9","","","SYN060AAXX  15031 31725 42499 12703 10254 20104 40062 57003 81300;",
"31725099999","2000-06-15T06:00:00","4","48.6166666","133.8333333","52.0","SMIDOVICH, RS","FM-12","99999","V020","250,1,N,0030,1","22000,1,9,N","050000,1,N,1","+0280,1","+0103,1","10043,1","","","","","","","","01,99,1,01,1,03,1,00450,1,00,1,00,1","","","","","7,1,013,1,+999,9","","","SYN060AAXX  15061 31725 42499 12503 10280 20103 40043 57013 81300;",
"31725099999","2000-06-15T09:00:00","4","48.6166666","133.8333333","52.0","SMIDOVICH, RS","FM-12","99999","V020","230,1,N,0030,1","22000,1,9,N","050000,1,N,1","+0261,1","+0121,1","10046,1","99,0000,9,1","","","","","","","01,99,1,01,1,00,1,99999,9,04,1,00,1","","","999,M,+0282,1","","7,1,003,1,+999,9","","","SYN070AAXX  15091 31725 32999 12303 10261 20121 40046 57003 81040 333 10282;","Q01  00002PRCP99"
"31725099999","2000-06-15T12:00:00","4","48.6166666","133.8333333","52.0","SMIDOVICH, RS","FM-12","99999","V020","230,1,N,0010,1","22000,1,9,N","050000,1,N,1","+0180,1","+0136,1","10057,1","","","","","","","","01,99,1,01,1,00,1,99999,9,04,1,00,1","","","999,M,+0282,1","99999,9,09996,1","3,1,010,1,+999,9","","","SYN076AAXX  15121 31725 42999 12301 10180 20136 39996 40057 53010 81040 333 10282;",
"31725099999","2000-06-15T15:00:00","4","48.6166666","133.8333333","52.0","SMIDOVICH, RS","FM-12","99999","V020","230,1,N,0010,1","99999,9,9,N","020000,1,N,1","+0136,1","+0097,1","10070,1","","","","","","","","07,99,1,02,1,00,1,99999,9,04,1,02,1","","","","","2,1,011,1,+999,9","","","SYN060AAXX  15151 31725 42998 72301 10136 20097 40070 52011 82042;",
"31725099999","2000-06-15T18:00:00","4","48.6166666","133.8333333","52.0","SMIDOVICH, RS","FM-12","99999","V020","999,9,C,0000,1","03600,1,9,N","020000,1,N,1","+0128,1","+9999,9","10073,1","","","","","","","","07,99,1,02,1,03,1,00450,1,04,1,02,1","","","","","2,1,003,1,+999,9","","","SYN060AAXX  15181 31725 42498 70000 10128 20130 40073 52003 82342;",
"31725099999","2000-06-15T21:00:00","4","48.6166666","133.8333333","52.0","SMIDOVICH, RS","FM-12","99999","V020","230,1,N,0010,1","99999,9,9,N","020000,1,N,1","+0152,1","+0123,1","10080,1","99,0000,9,1","","","","","","","08,99,1,02,1,00,1,99999,9,04,1,02,1","","","","","2,1,008,1,+999,9","","","SYN060AAXX  15211 31725 32998 82301 10152 20123 40080 52008 82042;","Q01  00002PRCP99"
"31725099999","2000-06-16T00:00:00","4","48.6166666","133.8333333","52.0","SMIDOVICH, RS","FM-12","99999","V020","230,1,N,0020,1","99999,9,9,N","020000,1,N,1","+0236,1","+0135,1","10078,1","99,0000,9,1","","","","","","","08,99,1,02,1,00,1,99999,9,04,1,02,1","","","999,N,+0124,1","99999,9,10017,1","8,1,001,1,+999,9","","","SYN076AAXX  16001 31725 32998 82302 10236 20135 30017 40078 58001 82042 333 20124;","Q01  00002PRCP99"
"31725099999","2000-06-16T03:00:00","4","48.6166666","133.8333333","52.0","SMIDOVICH, RS","FM-12","99999","V020","290,1,N,0020,1","99999,9,9,N","020000,1,N,1","+0269,1","+0138,1","10081,1","","","","","","","","08,99,1,02,1,00,1,99999,9,04,1,02,1","","","","","3,1,004,1,+999,9","","","SYN060AAXX  16031 31725 4/998 82902 10269 20138 40081 53004 82042;",
"31725099999","2000-06-16T06:00:00","4","48.6166666","133.8333333","52.0","SMIDOVICH, RS","FM-12","99999","V020","320,1,N,0030,1","99999,9,9,N","020000,1,N,1","+0278,1","+0089,1","10079,1","","","","","","","","05,99,1,00,1,00,1,99999,9,00,1,02,1","","","","","8,1,002,1,+999,9","","","SYN060AAXX  16061 31725 42998 53203 10278 20089 40079 58002 80002;",
"31725099999","2000-06-16T09:00:00","4","48.6166666","133.8333333","52.0","SMIDOVICH, RS","FM-12","99999","V020","270,1,N,0020,1","22000,1,9,N","020000,1,N,1","+0262,1","+0074,1","10079,1","99,0000,9,1","","","","","","","03,99,1,00,1,00,1,99999,9,00,1,02,1","","","999,M,+0282,1","","4,1,000,1,+999,9","","","SYN070AAXX  16091 31725 32998 32702 10262 20074 40079 54000 80002 333 10282;","Q01  00002PRCP99"
"31725099999","2000-06-16T12:00:00","4","48.6166666","133.8333333","52.0","SMIDOVICH, RS","FM-12","99999","V020","320,1,N,0020,1","99999,9,9,N","020000,1,N,1","+0197,1","+0071,1","10099,1","99,0000,9,1","","","","","","","06,99,1,03,1,00,1,99999,9,04,1,02,1","","","999,M,+0282,1","99999,9,10038,1","3,1,019,1,+999,9","","","SYN076AAXX  16121 31725 32998 63202 10197 20071 30038 40099 53019 83042 333 10282;","Q01  00002PRCP99"
"31725099999","2000-06-16T15:00:00","4","48.6166666","133.8333333","52.0","SMIDOVICH, RS","FM-12","99999","V020","320,1,N,0020,1","99999,9,9,N","004000,1,N,1","+0166,1","+0045,1","10113,1","","","","2,1,03,1","2,1,03,1","","","08,99,1,05,1,00,1,99999,9,04,1,02,1","","","","","2,1,013,1,+999,9","10,1","","SYN066AAXX  16151 31725 41996 83202 10166 20045 40113 52013 71022 85042;",
"31725099999","2000-06-16T18:00:00","4","48.6166666","133.8333333","52.0","SMIDOVICH, RS","FM-12","99999","V020","320,1,N,0030,1","03600,1,9,N","004000,1,N,1","+0138,1","+0050,1","10121,1","","","","2,1,06,1","2,1,06,1","","","08,99,1,03,1,05,1,00800,1,04,1,99,9","","","","","2,1,007,1,+999,9","10,1","","SYN066AAXX  16181 31725 41596 83203 10138 20050 40121 52007 71022 8354/;",
"31725099999","2000-06-16T21:00:00","4","48.6166666","133.8333333","52.0","SMIDOVICH, RS","FM-12","99999","V020","320,1,N,0010,1","22000,1,9,N","004000,1,N,1","+0136,1","+0061,1","10119,1","99,0000,9,1","","","1,1,03,1","1,1,03,1","","","03,99,1,02,1,05,1,00800,1,04,1,00,1","","","","","8,1,002,1,+999,9","10,1","","SYN066AAXX  16211 31725 31596 33201 10136 20061 40119 58002 71011 82540;","Q01  00002PRCP99"
"31725099999","2000-06-17T00:00:00","4","48.6166666","133.8333333","52.0","SMIDOVICH, RS","FM-12","99999","V020","320,1,N,0020,1","22000,1,9,N","020000,1,N,1","+0214,1","+0059,1","10119,1","99,0000,9,1","","","","","","","01,99,1,00,1,00,1,99999,9,00,1,02,1","","","999,N,+0121,1","99999,9,10058,1","3,1,002,1,+999,9","","","SYN076AAXX  17001 31725 32998 13202 10214 20059 30058 40119 53002 80002 333 20121;","Q01  00002PRCP99"
"31725099999","2000-06-17T03:00:00","4","48.6166666","133.8333333","52.0","SMIDOVICH, RS","FM-12","99999","V020","230,1,N,0020,1","22000,1,9,N","020000,1,N,1","+0254,1","+0076,1","10102,1","","","","","","","","01,99,1,00,1,00,1,99999,9,00,1,02,1","","","","","8,1,017,1,+999,9","","","SYN060AAXX  17031 31725 42998 12302 10254 20076 40102 58017 80002;",
"31725099999","2000-06-17T09:00:00","4","48.6166666","133.8333333","52.0","SMIDOVICH, RS","FM-12","99999","V020","230,1,N,0020,1","09000,1,9,N","020000,1,N,1","+0253,1","+0121,1","10063,1","99,0000,9,1","","","1,1,03,1","0,1,03,1","","","07,99,1,03,1,03,1,00450,1,00,1,02,1","","","999,M,+0284,1","","","","","SYN070AAXX  17091 31725 32498 72302 10253 20121 40063 77010 83302 333 10284;","Q01+000702PRSWM1Q02  00002PRCP99"
"31725099999","2000-06-17T12:00:00","4","48.6166666","133.8333333","52.0","SMIDOVICH, RS","FM-12","99999","V020","230,1,N,0020,1","99999,9,9,N","020000,1,N,1","+0196,1","+0120,1","10053,1","99,0000,9,1","","","","","","","06,99,1,03,1,00,1,99999,9,04,1,02,1","","","999,M,+0284,1","99999,9,09992,1","7,1,010,1,+999,9","","","SYN076AAXX  17121 31725 32998 62302 10196 20120 39992 40053 57010 83042 333 10284;","Q01  00002PRCP99"
"31725099999","2000-06-17T15:00:00","4","48.6166666","133.8333333","52.0","SMIDOVICH, RS","FM-12","99999","V020","230,1,N,0020,1","99999,9,9,N","020000,1,N,1","+0161,1","+0095,1","10041,1","","","","","","","","06,99,1,03,1,00,1,99999,9,04,1,02,1","","","","","7,1,013,1,+999,9","","","SYN060AAXX  17151 31725 42998 62302 10161 20095 40041 57013 83042;",
"31725099999","2000-06-17T18:00:00","4","48.6166666","133.8333333","52.0","SMIDOVICH, RS","FM-12","99999","V020","230,1,N,0020,1","99999,9,9,N","020000,1,N,1","+0133,1","+0085,1","10023,1","","","","","","","","06,99,1,03,1,00,1,99999,9,04,1,02,1","","","","","7,1,019,1,+999,9","","","SYN060AAXX  17181 31725 42998 62302 10133 20085 40023 57019 83042;",
"31725099999","2000-06-17T21:00:00","4","48.6166666","133.8333333","52.0","SMIDOVICH, RS","FM-12","99999","V020","999,9,C,0000,1","99999,9,9,N","020000,1,N,1","+0135,1","+0095,1","10025,1","99,0000,9,1","","","","","","","06,99,1,03,1,00,1,99999,9,04,1,02,1","","","","","3,1,002,1,+999,9","","","SYN060AAXX  17211 31725 32998 60000 10135 20095 40025 53002 83042;","Q01  00002PRCP99"
"31725099999","2000-06-18T00:00:00","4","48.6166666","133.8333333","52.0","SMIDOVICH, RS","FM-12","99999","V020","050,1,N,0090,1","03600,1,9,N","020000,1,N,1","+0160,1","+0103,1","10042,1","99,0000,9,1","","","","","","","08,99,1,04,1,03,1,00450,1,04,1,99,9","","","120,N,+0124,1","99999,9,09980,1","2,1,018,1,+999,9","","","SYN082AAXX  18001 31725 32498 80509 10160 20103 39980 40042 52018 8434/ 333 20124 91114;","Q01  00002PRCP99"
"31725099999","2000-06-18T03:00:00","4","48.6166666","133.8333333","52.0","SMIDOVICH, RS","FM-12","99999","V020","050,1,N,0080,1","00420,1,9,N","020000,1,N,1","+0159,1","+0106,1","10066,1","","","","8,1,03,1","2,1,03,1","","","08,99,1,07,1,03,1,00450,1,04,1,99,9","","","","","2,1,024,1,+999,9","03,1","","SYN076AAXX  18031 31725 42498 80508 10159 20106 40066 52024 70382 8734/ 333 91110;",
"31725099999","2000-06-18T06:00:00","4","48.6166666","133.8333333","52.0","SMIDOVICH, RS","FM-12","99999","V020","050,1,N,0060,1","22000,1,9,N","020000,1,N,1","+0193,1","+0095,1","10070,1","","","","8,1,06,1","1,1,06,1","","","02,99,1,02,1,05,1,00450,1,00,1,00,1","","","","","2,1,005,1,+999,9","01,1","","SYN066AAXX  18061 31725 42498 20506 10193 20095 40070 52005 70181 82500;",
"31725099999","2000-06-18T09:00:00","4","48.6166666","133.8333333","52.0","SMIDOVICH, RS","FM-12","99999","V020","330,1,N,0220,1","22000,1,9,N","020000,1,N,1","+0199,1","+0103,1","10071,1","","","","","","","","02,99,1,02,1,05,1,00450,1,00,1,00,1","","","999,M,+0201,1","","1,1,001,1,+999,9","","","SYN070AAXX  18091 31725 /2498 23322 10199 20103 40071 51001 82500 333 10201;",
"31725099999","2000-06-18T12:00:00","4","48.6166666","133.8333333","52.0","SMIDOVICH, RS","FM-12","99999","V020","230,1,N,0010,1","22000,1,9,N","020000,1,N,1","+0142,1","+0099,1","10086,1","00,0005,9,1","","","","","","00,1,+99999,9,99,9","00,99,1,00,1,00,1,99999,9,00,1,00,1","","","999,M,+0201,1","99999,9,10023,1","3,1,013,1,+999,9","","","SYN076AAXX  18121 31725 12998 02301 10142 20099 30023 40086 53013 69940 333 10201;",
"31725099999","2000-06-18T15:00:00","4","48.6166666","133.8333333","52.0","SMIDOVICH, RS","FM-12","99999","V020","230,1,N,0020,1","22000,1,9,N","020000,1,N,1","+0122,1","+0081,1","10101,1","","","","","","","00,1,+99999,9,99,9","00,99,1,00,1,00,1,99999,9,00,1,00,1","","","","","2,1,015,1,+999,9","","","SYN054AAXX  18151 31725 42998 02302 10122 20081 40101 52015;",
"31725099999","2000-06-18T18:00:00","4","48.6166666","133.8333333","52.0","SMIDOVICH, RS","FM-12","99999","V020","230,1,N,0020,1","22000,1,9,N","020000,1,N,1","+0096,1","+0051,1","10103,1","","","","","","","","03,99,1,02,1,05,1,00450,1,00,1,02,1","","","","","1,1,001,1,+999,9","","","SYN060AAXX  18181 31725 42498 32302 10096 20051 40103 51001 82502;",
"31725099999","2000-06-18T21:00:00","4","48.6166666","133.8333333","52.0","SMIDOVICH, RS","FM-12","99999","V020","320,1,N,0010,1","99999,9,9,N","050000,1,N,1","+0095,1","+0065,1","10103,1","99,0000,9,1","","","","","","","08,99,1,06,1,00,1,99999,9,04,1,02,1","","","","","4,1,000,1,+999,9","","","SYN060AAXX  18211 31725 32999 83201 10095 20065 40103 54000 86042;","Q01  00002PRCP99"
"31725099999","2000-06-19T00:00:00","4","48.6166666","133.8333333","52.0","SMIDOVICH, RS","FM-12","99999","V020","360,1,N,0010,1","00420,1,9,N","050000,1,N,1","+0136,1","+0070,1","10106,1","99,0000,9,1","","","","","","","08,99,1,06,1,03,1,00450,1,04,1,99,9","","","999,N,+0085,1","99999,9,10043,1","3,1,004,1,+999,9","","","SYN076AAXX  19001 31725 32499 83601 10136 20070 30043 40106 53004 8634/ 333 20085;","Q01  00002PRCP99"
"31725099999","2000-06-19T03:00:00","4","48.6166666","133.8333333","52.0","SMIDOVICH, RS","FM-12","99999","V020","230,1,N,0010,1","03600,1,9,N","020000,1,N,1","+0168,1","+0095,1","10092,1","","","","8,1,03,1","2,1,03,1","","","08,99,1,02,1,03,1,00450,1,04,1,02,1","","","","","8,1,013,1,+999,9","01,1","","SYN066AAXX  19031 31725 41498 82301 10168 20095 40092 58013 70182 82342;",
"31725099999","2000-06-19T06:00:00","4","48.6166666","133.8333333","52.0","SMIDOVICH, RS","FM-12","99999","V020","270,1,N,0020,1","00420,1,9,N","050000,1,N,1","+0210,1","+0089,1","10067,1","","","","8,1,06,1","2,1,06,1","","","08,99,1,06,1,03,1,00450,1,04,1,02,1","","","","","7,1,024,1,+999,9","03,1","","SYN066AAXX  19061 31725 41499 82702 10210 20089 40067 57024 70382 86342;",
"31725099999","2000-06-19T09:00:00","4","48.6166666","133.8333333","52.0","SMIDOVICH, RS","FM-12","99999","V020","230,1,N,0020,1","99999,9,9,N","020000,1,N,1","+0208,1","+0114,1","10055,1","","","","","","","","08,99,1,01,1,00,1,99999,9,04,1,02,1","","","999,M,+0216,1","","7,1,012,1,+999,9","","","SYN070AAXX  19091 31725 /2998 82302 10208 20114 40055 57012 81042 333 10216;",
"31725099999","2000-06-19T12:00:00","4","48.6166666","133.8333333","52.0","SMIDOVICH, RS","FM-12","99999","V020","230,1,N,0010,1","09000,1,9,N","020000,1,N,1","+0144,1","+0114,1","99999,9","00,0030,9,1","","","","","","","08,99,1,01,1,05,1,00800,1,00,1,02,1","","","999,M,+0216,1","99999,9,09986,1","7,1,008,1,+999,9","","","SYN076AAXX  19121 31725 12598 82301 10144 20114 39986 57008 60030 81502 333 10216;",
"31725099999","2000-06-19T15:00:00","4","48.6166666","133.8333333","52.0","SMIDOVICH, RS","FM-12","99999","V020","230,1,N,0010,1","03600,1,9,N","020000,1,N,1","+0140,1","+0095,1","10044,1","","","","","","","","08,99,1,01,1,05,1,00800,1,04,1,02,1","","","","","7,1,005,1,+999,9","","","SYN060AAXX  19151 31725 42598 82301 10140 20095 40044 57005 81542;",
"31725099999","2000-06-19T18:00:00","4","48.6166666","133.8333333","52.0","SMIDOVICH, RS","FM-12","99999","V020","230,1,N,0010,1","99999,9,9,N","020000,1,N,1","+0120,1","+0094,1","10034,1","","","","","","","","07,99,1,07,1,00,1,99999,9,04,1,99,9","","","","","7,1,010,1,+999,9","","","SYN060AAXX  19181 31725 42998 72301 10120 20094 40034 57010 8704/;",
"31725099999","2000-06-19T21:00:00","4","48.6166666","133.8333333","52.0","SMIDOVICH, RS","FM-12","99999","V020","999,9,C,0000,1","00420,1,9,N","020000,1,N,1","+0134,1","+0103,1","10041,1","99,0000,9,1","","","","","","","08,99,1,06,1,03,1,00450,1,04,1,99,9","","","","","3,1,008,1,+999,9","","","SYN060AAXX  19211 31725 32498 80000 10134 20103 40041 53008 8634/;","Q01  00002PRCP99"
"31725099999","2000-06-20T00:00:00","4","48.6166666","133.8333333","52.0","SMIDOVICH, RS","FM-12","99999","V020","230,1,N,0010,1","09000,1,9,N","020000,1,N,1","+0181,1","+0131,1","10026,1","","","","8,1,06,1","2,1,06,1","","","08,99,1,02,1,03,1,00450,1,00,1,02,1","","","999,N,+0110,1","99999,9,09965,1","8,1,014,1,+999,9","01,1","","SYN082AAXX  20001 31725 11498 82301 10181 20131 39965 40026 58014 70182 82302 333 20110;",
"31725099999","2000-06-20T03:00:00","4","48.6166666","133.8333333","52.0","SMIDOVICH, RS","FM-12","99999","V020","230,1,N,0010,1","99999,9,9,N","020000,1,N,1","+0223,1","+0121,1","10017,1","","","","","","","","07,99,1,07,1,00,1,99999,9,04,1,99,9","","","","","7,1,009,1,+999,9","","","SYN060AAXX  20031 31725 42998 72301 10223 20121 40017 57009 8704/;",
"31725099999","2000-06-20T06:00:00","4","48.6166666","133.8333333","52.0","SMIDOVICH, RS","FM-12","99999","V020","050,1,N,0040,1","22000,1,9,N","020000,1,N,1","+0236,1","+0153,1","10021,1","","","","","","","","02,99,1,02,1,05,1,00450,1,00,1,00,1","","","","","3,1,004,1,+999,9","","","SYN060AAXX  20061 31725 42498 20504 10236 20153 40021 53004 82500;",
"31725099999","2000-06-20T09:00:00","4","48.6166666","133.8333333","52.0","SMIDOVICH, RS","FM-12","99999","V020","070,1,N,0050,1","22000,1,9,N","020000,1,N,1","+0179,1","+0118,1","10041,1","","","","","","","","03,99,1,02,1,05,1,00450,1,00,1,02,1","","","999,M,+0242,1","","2,1,020,1,+999,9","","","SYN070AAXX  20091 31725 /2498 30705 10179 20118 40041 52020 82502 333 10242;",
"31725099999","2000-06-20T12:00:00","4","48.6166666","133.8333333","52.0","SMIDOVICH, RS","FM-12","99999","V020","050,1,N,0040,1","99999,9,9,N","020000,1,N,1","+0131,1","+0076,1","10063,1","00,0007,9,1","","","","","","","06,99,1,06,1,00,1,99999,9,04,1,00,1","","","999,M,+0242,1","99999,9,10000,1","2,1,020,1,+999,9","","","SYN082AAXX  20121 31725 12998 60504 10131 20076 30000 40063 52020 69900 86040 333 10242;",
"31725099999","2000-06-20T15:00:00","4","48.6166666","133.8333333","52.0","SMIDOVICH, RS","FM-12","99999","V020","999,9,C,0000,1","22000,1,9,N","020000,1,N,1","+0102,1","+0080,1","10069,1","","","","","","","","04,99,1,04,1,00,1,99999,9,04,1,00,1","","","","","2,1,005,1,+999,9","","","SYN060AAXX  20151 31725 42998 40000 10102 20080 40069 52005 84040;",
"31725099999","2000-06-20T18:00:00","4","48.6166666","133.8333333","52.0","SMIDOVICH, RS","FM-12","99999","V020","999,9,C,0000,1","22000,1,9,N","020000,1,N,1","+0091,1","+0077,1","10069,1","","","","","","","00,1,+99999,9,99,9","00,99,1,00,1,00,1,99999,9,00,1,00,1","","","","","4,1,000,1,+999,9","","","SYN054AAXX  20181 31725 42998 00000 10091 20077 40069 54000;",
"31725099999","2000-06-20T21:00:00","4","48.6166666","133.8333333","52.0","SMIDOVICH, RS","FM-12","99999","V020","999,9,C,0000,1","03600,1,9,N","050000,1,N,1","+0099,1","+0081,1","10070,1","99,0000,9,1","","","","","","","06,99,1,02,1,05,1,00450,1,04,1,02,1","","","","","3,1,001,1,+999,9","","","SYN060AAXX  20211 31725 32499 60000 10099 20081 40070 53001 82542;","Q01  00002PRCP99"
"31725099999","2000-06-21T00:00:00","4","48.6166666","133.8333333","52.0","SMIDOVICH, RS","FM-12","99999","V020","050,1,N,0010,1","00420,1,9,N","020000,1,N,1","+0152,1","+0094,1","10069,1","99,0000,9,1","","","","","","","08,99,1,07,1,03,1,00450,1,04,1,99,9","","","999,N,+0083,1","99999,9,10007,1","1,1,001,1,+999,9","","","SYN076AAXX  21001 31725 32498 80501 10152 20094 30007 40069 51001 8734/ 333 20083;","Q01  00002PRCP99"
"31725099999","2000-06-21T03:00:00","4","48.6166666","133.8333333","52.0","SMIDOVICH, RS","FM-12","99999","V020","070,1,N,0010,1","00420,1,9,N","050000,1,N,1","+0174,1","+0098,1","10074,1","","","","","","","","08,99,1,07,1,03,1,00450,1,04,1,99,9","","","","","3,1,005,1,+999,9","","","SYN060AAXX  21031 31725 42499 80701 10174 20098 40074 53005 8734/;",
"31725099999","2000-06-21T06:00:00","4","48.6166666","133.8333333","52.0","SMIDOVICH, RS","FM-12","99999","V020","090,1,N,0010,1","03600,1,9,N","050000,1,N,1","+0192,1","+0112,1","10065,1","","","","","","","","08,99,1,02,1,03,1,00450,1,04,1,99,9","","","","","8,1,008,1,+999,9","","","SYN060AAXX  21061 31725 42499 80901 10192 20112 40065 58008 8234/;",
"31725099999","2000-06-21T09:00:00","4","48.6166666","133.8333333","52.0","SMIDOVICH, RS","FM-12","99999","V020","050,1,N,0010,1","03600,1,9,N","020000,1,N,1","+0180,1","+0126,1","10064,1","99,0000,9,1","","","","","","","08,99,1,03,1,03,1,00450,1,04,1,99,9","","","999,M,+0204,1","","6,1,001,1,+999,9","","","SYN070AAXX  21091 31725 32498 80501 10180 20126 40064 56001 8334/ 333 10204;","Q01  00002PRCP99"
"31725099999","2000-06-21T12:00:00","4","48.6166666","133.8333333","52.0","SMIDOVICH, RS","FM-12","99999","V020","050,1,N,0010,1","00420,1,9,N","020000,1,N,1","+0133,1","+0110,1","10071,1","99,0000,9,1","","","","","","","08,99,1,06,1,03,1,00450,1,04,1,99,9","","","999,M,+0204,1","99999,9,10008,1","3,1,005,1,+999,9","","","SYN076AAXX  21121 31725 32498 80501 10133 20110 30008 40071 53005 8634/ 333 10204;","Q01  00002PRCP99"
"31725099999","2000-06-21T15:00:00","4","48.6166666","133.8333333","52.0","SMIDOVICH, RS","FM-12","99999","V020","050,1,N,0010,1","00420,1,9,N","020000,1,N,1","+0127,1","+0110,1","10079,1","","","","","","","","08,99,1,06,1,03,1,00450,1,04,1,99,9","","","","","2,1,008,1,+999,9","","","SYN060AAXX  21151 31725 42498 80501 10127 20110 40079 52008 8634/;",
"31725099999","2000-06-21T18:00:00","4","48.6166666","133.8333333","52.0","SMIDOVICH, RS","FM-12","99999","V020","050,1,N,0010,1","00420,1,9,N","020000,1,N,1","+0112,1","+0109,1","10077,1","","","","","","","","08,99,1,06,1,03,1,00450,1,04,1,99,9","","","","","8,1,003,1,+999,9","","","SYN060AAXX  21181 31725 42498 80501 10112 20109 40077 58003 8634/;",
"31725099999","2000-06-21T21:00:00","4","48.6166666","133.8333333","52.0","SMIDOVICH, RS","FM-12","99999","V020","320,1,N,0010,1","03600,1,9,N","020000,1,N,1","+0117,1","+0099,1","10073,1","99,0000,9,1","","","","","","","08,99,1,02,1,03,1,00450,1,04,1,99,9","","","","","7,1,003,1,+999,9","","","SYN060AAXX  21211 31725 32498 83201 10117 20099 40073 57003 8234/;","Q01  00002PRCP99"
"31725099999","2000-06-22T00:00:00","4","48.6166666","133.8333333","52.0","SMIDOVICH, RS","FM-12","99999","V020","360,1,N,0020,1","99999,9,9,N","020000,1,N,1","+0167,1","+0107,1","10073,1","99,0000,9,1","","","","","","","08,99,1,07,1,00,1,99999,9,04,1,99,9","","","999,N,+0106,1","99999,9,10011,1","3,1,001,1,+999,9","","","SYN076AAXX  22001 31725 32998 83602 10167 20107 30011 40073 53001 8704/ 333 20106;","Q01  00002PRCP99"
"31725099999","2000-06-22T03:00:00","4","48.6166666","133.8333333","52.0","SMIDOVICH, RS","FM-12","99999","V020","340,1,N,0020,1","99999,9,9,N","020000,1,N,1","+0204,1","+0130,1","10067,1","","","","","","","","07,99,1,07,1,00,1,99999,9,04,1,99,9","","","","","8,1,005,1,+999,9","","","SYN060AAXX  22031 31725 42998 73402 10204 20130 40067 58005 8704/;",
"31725099999","2000-06-22T06:00:00","4","48.6166666","133.8333333","52.0","SMIDOVICH, RS","FM-12","99999","V020","230,1,N,0010,1","99999,9,9,N","020000,1,N,1","+0240,1","+0150,1","10055,1","","","","","","","","08,99,1,03,1,00,1,99999,9,04,1,02,1","","","","","7,1,012,1,+999,9","","","SYN060AAXX  22061 31725 42998 82301 10240 20150 40055 57012 83042;",
"31725099999","2000-06-22T09:00:00","4","48.6166666","133.8333333","52.0","SMIDOVICH, RS","FM-12","99999","V020","999,9,C,0000,1","22000,1,9,N","020000,1,N,1","+0237,1","+0164,1","10046,1","99,0000,9,1","","","","","","00,1,+99999,9,99,9","00,99,1,00,1,00,1,99999,9,00,1,00,1","","","999,M,+0243,1","","7,1,009,1,+999,9","","","SYN064AAXX  22091 31725 32998 00000 10237 20164 40046 57009 333 10243;","Q01  00002PRCP99"
"31725099999","2000-06-22T12:00:00","4","48.6166666","133.8333333","52.0","SMIDOVICH, RS","FM-12","99999","V020","999,9,C,0000,1","22000,1,9,N","004000,1,N,1","+0198,1","+0169,1","10050,1","99,0000,9,1","","","0,1,06,1","0,1,06,1","","00,1,+99999,9,99,9","00,99,1,00,1,00,1,99999,9,00,1,00,1","","","999,M,+0243,1","99999,9,09989,1","3,1,004,1,+999,9","05,1","","SYN076AAXX  22121 31725 31996 00000 10198 20169 39989 40050 53004 70500 333 10243;","Q01  00002PRCP99"
"31725099999","2000-06-22T15:00:00","4","48.6166666","133.8333333","52.0","SMIDOVICH, RS","FM-12","99999","V020","999,9,C,0000,1","22000,1,9,N","004000,1,N,1","+0183,1","+0156,1","10049,1","","","","0,1,03,1","0,1,03,1","","00,1,+99999,9,99,9","00,99,1,00,1,00,1,99999,9,00,1,00,1","","","","","8,1,001,1,+999,9","05,1","","SYN060AAXX  22151 31725 41996 00000 10183 20156 40049 58001 70500;",
"31725099999","2000-06-22T18:00:00","4","48.6166666","133.8333333","52.0","SMIDOVICH, RS","FM-12","99999","V020","999,9,C,0000,1","22000,1,9,N","020000,1,N,1","+0158,1","+0146,1","10051,1","99,0000,9,1","","","","","","00,1,+99999,9,99,9","00,99,1,00,1,00,1,99999,9,00,1,00,1","","","","","3,1,001,1,+999,9","","","SYN054AAXX  22181 31725 32998 00000 10158 20146 40051 53001;","Q01  00002PRCP99"
"31725099999","2000-06-22T21:00:00","4","48.6166666","133.8333333","52.0","SMIDOVICH, RS","FM-12","99999","V020","999,9,C,0000,1","22000,1,9,N","004000,1,N,1","+0153,1","+0140,1","10050,1","99,0000,9,1","","","0,1,03,1","0,1,03,1","","00,1,+99999,9,99,9","00,99,1,00,1,00,1,99999,9,00,1,00,1","","","","","8,1,001,1,+999,9","05,1","","SYN060AAXX  22211 31725 31996 00000 10153 20140 40050 58001 70500;","Q01  00002PRCP99"
"31725099999","2000-06-23T00:00:00","4","48.6166666","133.8333333","52.0","SMIDOVICH, RS","FM-12","99999","V020","180,1,N,0010,1","22000,1,9,N","020000,1,N,1","+0243,1","+0184,1","10051,1","99,0000,9,1","","","","","","00,1,+99999,9,99,9","00,99,1,00,1,00,1,99999,9,00,1,00,1","","","999,N,+0145,1","99999,9,09990,1","3,1,002,1,+999,9","","","SYN070AAXX  23001 31725 32998 01801 10243 20184 39990 40051 53002 333 20145;","Q01  00002PRCP99"
"31725099999","2000-06-23T03:00:00","4","48.6166666","133.8333333","52.0","SMIDOVICH, RS","FM-12","99999","V020","230,1,N,0010,1","22000,1,9,N","020000,1,N,1","+0284,1","+0192,1","10046,1","","","","","","","00,1,+99999,9,99,9","00,99,1,00,1,00,1,99999,9,00,1,00,1","","","","","8,1,004,1,+999,9","","","SYN054AAXX  23031 31725 42998 02301 10284 20192 40046 58004;",
"31725099999","2000-06-23T06:00:00","4","48.6166666","133.8333333","52.0","SMIDOVICH, RS","FM-12","99999","V020","230,1,N,0020,1","22000,1,9,N","020000,1,N,1","+0311,1","+0190,1","10036,1","","","","","","","00,1,+99999,9,99,9","00,99,1,00,1,00,1,99999,9,00,1,00,1","","","","","7,1,010,1,+999,9","","","SYN054AAXX  23061 31725 42998 02302 10311 20190 40036 57010;",
"31725099999","2000-06-23T09:00:00","4","48.6166666","133.8333333","52.0","SMIDOVICH, RS","FM-12","99999","V020","999,9,C,0000,1","22000,1,9,N","020000,1,N,1","+0309,1","+0202,1","10027,1","99,0000,9,1","","","","","","00,1,+99999,9,99,9","00,99,1,00,1,00,1,99999,9,00,1,00,1","","","999,M,+0313,1","","7,1,009,1,+999,9","","","SYN064AAXX  23091 31725 32998 00000 10309 20202 40027 57009 333 10313;","Q01  00002PRCP99"
"31725099999","2000-06-23T12:00:00","4","48.6166666","133.8333333","52.0","SMIDOVICH, RS","FM-12","99999","V020","999,9,C,0000,1","22000,1,9,N","020000,1,N,1","+0241,1","+0209,1","10032,1","99,0000,9,1","","","","","","00,1,+99999,9,99,9","00,99,1,00,1,00,1,99999,9,00,1,00,1","","","999,M,+0313,1","99999,9,09971,1","3,1,004,1,+999,9","","","SYN070AAXX  23121 31725 32998 00000 10241 20209 39971 40032 53004 333 10313;","Q01  00002PRCP99"
"31725099999","2000-06-23T15:00:00","4","48.6166666","133.8333333","52.0","SMIDOVICH, RS","FM-12","99999","V020","999,9,C,0000,1","22000,1,9,N","020000,1,N,1","+0219,1","+0156,1","10046,1","","","","","","","00,1,+99999,9,99,9","00,99,1,00,1,00,1,99999,9,00,1,00,1","","","","","2,1,014,1,+999,9","","","SYN054AAXX  23151 31725 42998 00000 10219 20156 40046 52014;",
"31725099999","2000-06-23T18:00:00","4","48.6166666","133.8333333","52.0","SMIDOVICH, RS","FM-12","99999","V020","999,9,C,0000,1","22000,1,9,N","020000,1,N,1","+0169,1","+0147,1","10047,1","","","","","","","00,1,+99999,9,99,9","00,99,1,00,1,00,1,99999,9,00,1,00,1","","","","","4,1,000,1,+999,9","","","SYN054AAXX  23181 31725 42998 00000 10169 20147 40047 54000;",
"31725099999","2000-06-23T21:00:00","4","48.6166666","133.8333333","52.0","SMIDOVICH, RS","FM-12","99999","V020","999,9,C,0000,1","22000,1,9,N","020000,1,N,1","+0173,1","+0145,1","10062,1","99,0000,9,1","","","","","","00,1,+99999,9,99,9","00,99,1,00,1,00,1,99999,9,00,1,00,1","","","","","3,1,015,1,+999,9","","","SYN054AAXX  23211 31725 32998 00000 10173 20145 40062 53015;","Q01  00002PRCP99"
"31725099999","2000-06-24T00:00:00","4","48.6166666","133.8333333","52.0","SMIDOVICH, RS","FM-12","99999","V020","180,1,N,0010,1","22000,1,9,N","020000,1,N,1","+0252,1","+0174,1","10068,1","99,0000,9,1","","","","","","00,1,+99999,9,99,9","00,99,1,00,1,00,1,99999,9,00,1,00,1","","","999,N,+0159,1","99999,9,10007,1","2,1,007,1,+999,9","","","SYN070AAXX  24001 31725 32998 01801 10252 20174 30007 40068 52007 333 20159;","Q01  00002PRCP99"
"31725099999","2000-06-24T03:00:00","4","48.6166666","133.8333333","52.0","SMIDOVICH, RS","FM-12","99999","V020","180,1,N,0020,1","22000,1,9,N","004000,1,N,1","+0301,1","+0166,1","10063,1","","","","0,1,03,1","0,1,03,1","","00,1,+99999,9,99,9","00,99,1,00,1,00,1,99999,9,00,1,00,1","","","","","8,1,004,1,+999,9","05,1","","SYN060AAXX  24031 31725 41996 01802 10301 20166 40063 58004 70500;",
"31725099999","2000-06-24T06:00:00","4","48.6166666","133.8333333","52.0","SMIDOVICH, RS","FM-12","99999","V020","180,1,N,0030,1","22000,1,9,N","004000,1,N,1","+0314,1","+0167,1","10048,1","","","","0,1,06,1","0,1,06,1","","00,1,+99999,9,99,9","00,99,1,00,1,00,1,99999,9,00,1,00,1","","","","","7,1,015,1,+999,9","05,1","","SYN060AAXX  24061 31725 41996 01803 10314 20167 40048 57015 70500;",
"31725099999","2000-06-24T09:00:00","4","48.6166666","133.8333333","52.0","SMIDOVICH, RS","FM-12","99999","V020","180,1,N,0010,1","22000,1,9,N","004000,1,N,1","+0303,1","+0184,1","10046,1","","","","0,1,03,1","0,1,03,1","","00,1,+99999,9,99,9","00,99,1,00,1,00,1,99999,9,00,1,00,1","","","999,M,+0318,1","","6,1,002,1,+999,9","05,1","","SYN070AAXX  24091 31725 41996 01801 10303 20184 40046 56002 70500 333 10318;",
"31725099999","2000-06-24T12:00:00","4","48.6166666","133.8333333","52.0","SMIDOVICH, RS","FM-12","99999","V020","180,1,N,0010,1","22000,1,9,N","020000,1,N,1","+0233,1","+0201,1","10050,1","99,0000,9,1","","","","","","","03,99,1,02,1,00,1,99999,9,04,1,02,1","","","999,M,+0318,1","99999,9,09989,1","3,1,003,1,+999,9","","","SYN076AAXX  24121 31725 32998 31801 10233 20201 39989 40050 53003 82042 333 10318;","Q01  00002PRCP99"
"31725099999","2000-06-24T15:00:00","4","48.6166666","133.8333333","52.0","SMIDOVICH, RS","FM-12","99999","V020","180,1,N,0010,1","22000,1,9,N","020000,1,N,1","+0214,1","+0182,1","10050,1","","","","","","","","03,99,1,00,1,00,1,99999,9,00,1,02,1","","","","","4,1,000,1,+999,9","","","SYN060AAXX  24151 31725 42998 31801 10214 20182 40050 54000 80002;",
"31725099999","2000-06-24T18:00:00","4","48.6166666","133.8333333","52.0","SMIDOVICH, RS","FM-12","99999","V020","999,9,C,0000,1","22000,1,9,N","020000,1,N,1","+0171,1","+0149,1","10053,1","","","","","","","","03,99,1,99,9,00,1,99999,9,04,1,00,1","","","","","3,1,002,1,+999,9","","","SYN060AAXX  24181 31725 42998 30000 10171 20149 40053 53002 82040;","Q01+000022SCOTLC"
"31725099999","2000-06-24T21:00:00","4","48.6166666","133.8333333","52.0","SMIDOVICH, RS","FM-12","99999","V020","999,9,C,0000,1","99999,9,9,N","004000,1,N,1","+0196,1","+0163,1","10052,1","99,0000,9,1","","","1,1,03,1","1,1,03,1","","","08,99,1,00,1,00,1,99999,9,00,1,02,1","","","","","4,1,000,1,+999,9","05,1","","SYN066AAXX  24211 31725 31996 80000 10196 20163 40052 54000 70511 80002;","Q01  00002PRCP99"
"31725099999","2000-06-25T00:00:00","4","48.6166666","133.8333333","52.0","SMIDOVICH, RS","FM-12","99999","V020","140,1,N,0010,1","99999,9,9,N","004000,1,N,1","+0244,1","+0175,1","10062,1","99,0000,9,1","","","1,1,06,1","1,1,06,1","","","07,99,1,07,1,00,1,99999,9,04,1,99,9","","","999,N,+0164,1","99999,9,10001,1","3,1,010,1,+999,9","05,1","","SYN082AAXX  25001 31725 31996 71401 10244 20175 30001 40062 53010 70511 8704/ 333 20164;","Q01  00002PRCP99"
"31725099999","2000-06-25T03:00:00","4","48.6166666","133.8333333","52.0","SMIDOVICH, RS","FM-12","99999","V020","160,1,N,0030,1","00420,1,9,N","004000,1,N,1","+0274,1","+0164,1","10056,1","","","","2,1,03,1","2,1,03,1","","","08,99,1,06,1,03,1,00450,1,04,1,99,9","","","","","8,1,005,1,+999,9","05,1","","SYN066AAXX  25031 31725 41496 81603 10274 20164 40056 58005 70522 8634/;",
"31725099999","2000-06-25T06:00:00","4","48.6166666","133.8333333","52.0","SMIDOVICH, RS","FM-12","99999","V020","160,1,N,0020,1","00420,1,9,N","004000,1,N,1","+0288,1","+0163,1","10041,1","","","","2,1,06,1","2,1,06,1","","","08,99,1,06,1,03,1,00450,1,04,1,99,9","","","","","7,1,015,1,+999,9","05,1","","SYN066AAXX  25061 31725 41496 81602 10288 20163 40041 57015 70522 8634/;",
"31725099999","2000-06-25T09:00:00","4","48.6166666","133.8333333","52.0","SMIDOVICH, RS","FM-12","99999","V020","200,1,N,0030,1","00420,1,9,N","004000,1,N,1","+0232,1","+0159,1","10039,1","","","","8,1,03,1","2,1,03,1","","","08,99,1,08,1,03,1,00450,1,99,9,99,9","","","999,M,+0288,1","","7,1,003,1,+999,9","80,1","","SYN076AAXX  25091 31725 /1496 82003 10232 20159 40039 57003 78082 883// 333 10288;",
"31725099999","2000-06-25T12:00:00","4","48.6166666","133.8333333","52.0","SMIDOVICH, RS","FM-12","99999","V020","140,1,N,0010,1","00420,1,9,N","020000,1,N,1","+0186,1","+0159,1","10048,1","00,0007,9,1","","","8,1,06,1","2,1,06,1","","","08,99,1,08,1,03,1,00450,1,99,9,99,9","","","999,M,+0288,1","99999,9,09987,1","3,1,009,1,+999,9","02,1","","SYN088AAXX  25121 31725 11498 81401 10186 20159 39987 40048 53009 69900 70282 883// 333 10288;",
"31725099999","2000-06-25T15:00:00","4","48.6166666","133.8333333","52.0","SMIDOVICH, RS","FM-12","99999","V020","180,1,N,0030,1","00420,1,9,N","020000,1,N,1","+0200,1","+9999,9","10049,1","","","","","","","","08,99,1,08,1,03,1,00450,1,99,9,99,9","","","","","1,1,001,1,+999,9","","","SYN060AAXX  25151 31725 42498 81803 10200 21037 40049 51001 883//;","Q01-000373ATOD  "
"31725099999","2000-06-25T18:00:00","4","48.6166666","133.8333333","52.0","SMIDOVICH, RS","FM-12","99999","V020","999,9,C,0000,1","00420,1,9,N","004000,1,N,1","+0160,1","+0127,1","10054,1","","","","8,1,06,1","2,1,06,1","","","08,99,1,08,1,03,1,00450,1,99,9,99,9","","","","","3,1,004,1,+999,9","80,1","","SYN066AAXX  25181 31725 41496 80000 10160 20127 40054 53004 78082 883//;",
"31725099999","2000-06-25T21:00:00","4","48.6166666","133.8333333","52.0","SMIDOVICH, RS","FM-12","99999","V020","999,9,C,0000,1","22000,1,9,N","004000,1,N,1","+0152,1","+0141,1","10064,1","","","","8,1,03,1","1,1,03,1","","","02,99,1,02,1,03,1,00450,1,00,1,00,1","","","","","2,1,010,1,+999,9","10,1","","SYN066AAXX  25211 31725 /1496 20000 10152 20141 40064 52010 71081 82300;",
"31725099999","2000-06-26T03:00:00","4","48.6166666","133.8333333","52.0","SMIDOVICH, RS","FM-12","99999","V020","180,1,N,0030,1","22000,1,9,N","020000,1,N,1","+0254,1","+0167,1","10047,1","","","","","","","","03,99,1,03,1,03,1,00450,1,00,1,00,1","","","","","7,1,014,1,+999,9","","","SYN060AAXX  26031 31725 42498 31803 10254 20167 40047 57014 83300;",
"31725099999","2000-06-26T06:00:00","4","48.6166666","133.8333333","52.0","SMIDOVICH, RS","FM-12","99999","V020","180,1,N,0040,1","22000,1,9,N","020000,1,N,1","+0272,1","+0169,1","10028,1","","","","","","","","03,99,1,03,1,03,1,00450,1,00,1,00,1","","","","","7,1,018,1,+999,9","","","SYN060AAXX  26061 31725 42498 31804 10272 20169 40028 57018 83300;",
"31725099999","2000-06-26T09:00:00","4","48.6166666","133.8333333","52.0","SMIDOVICH, RS","FM-12","99999","V020","180,1,N,0030,1","00420,1,9,N","020000,1,N,1","+0255,1","+0155,1","10010,1","99,0000,9,1","","","","","","","07,99,1,05,1,03,1,00450,1,04,1,00,1","","","999,M,+0281,1","","7,1,018,1,+999,9","","","SYN070AAXX  26091 31725 32498 71803 10255 20155 40010 57018 85340 333 10281;","Q01  00002PRCP99"
"31725099999","2000-06-26T12:00:00","4","48.6166666","133.8333333","52.0","SMIDOVICH, RS","FM-12","99999","V020","230,1,N,0010,1","00420,1,9,N","020000,1,N,1","+0205,1","+0170,1","10020,1","99,0000,9,1","","","9,1,06,1","8,1,06,1","","","08,99,1,08,1,03,1,00450,1,99,9,99,9","","","999,M,+0281,1","99999,9,09959,1","3,1,009,1,+999,9","02,1","","SYN082AAXX  26121 31725 31498 82301 10205 20170 39959 40020 53009 70298 883// 333 10281;","Q01  00002PRCP99"
"31725099999","2000-06-26T15:00:00","4","48.6166666","133.8333333","52.0","SMIDOVICH, RS","FM-12","99999","V020","230,1,N,0010,1","00420,1,9,N","004000,1,N,1","+0183,1","+0158,1","10034,1","","","","8,1,03,1","2,1,03,1","","","08,99,1,08,1,03,1,00450,1,99,9,99,9","","","","","2,1,014,1,+999,9","80,1","","SYN066AAXX  26151 31725 41496 82301 10183 20158 40034 52014 78082 883//;",
"31725099999","2000-06-26T18:00:00","4","48.6166666","133.8333333","52.0","SMIDOVICH, RS","FM-12","99999","V020","999,9,C,0000,1","00420,1,9,N","020000,1,N,1","+0180,1","+0162,1","10028,1","","","","8,1,06,1","2,1,06,1","","","08,99,1,08,1,03,1,00450,1,99,9,99,9","","","","","8,1,006,1,+999,9","02,1","","SYN066AAXX  26181 31725 41498 80000 10180 20162 40028 58006 70282 883//;",
"31725099999","2000-06-26T21:00:00","4","48.6166666","133.8333333","52.0","SMIDOVICH, RS","FM-12","99999","V020","050,1,N,0020,1","00420,1,9,N","020000,1,N,1","+0185,1","+0165,1","10025,1","","","","9,1,03,1","2,1,03,1","","","08,99,1,08,1,03,1,00450,1,99,9,99,9","","","","","7,1,003,1,+999,9","17,1","","SYN066AAXX  26211 31725 /1498 80502 10185 20165 40025 57003 71792 883//;",
"31725099999","2000-06-27T00:00:00","4","48.6166666","133.8333333","52.0","SMIDOVICH, RS","FM-12","99999","V020","180,1,N,0020,1","00420,1,9,N","020000,1,N,1","+0195,1","+0175,1","10022,1","00,0089,9,1","","","9,1,06,1","8,1,06,1","","","07,99,1,07,1,03,1,00450,1,00,1,00,1","","","999,N,+0170,1","99999,9,09961,1","7,1,003,1,+999,9","91,1","","SYN088AAXX  27001 31725 11498 71802 10195 20175 39961 40022 57003 60090 79198 87300 333 20170;",
"31725099999","2000-06-27T03:00:00","4","48.6166666","133.8333333","52.0","SMIDOVICH, RS","FM-12","99999","V020","180,1,N,0020,1","00420,1,9,N","020000,1,N,1","+0226,1","+0176,1","10015,1","","","","9,1,03,1","8,1,03,1","","","08,99,1,07,1,03,1,00450,1,04,1,99,9","","","","","7,1,007,1,+999,9","02,1","","SYN066AAXX  27031 31725 41498 81802 10226 20176 40015 57007 70298 8734/;",
"31725099999","2000-06-27T06:00:00","4","48.6166666","133.8333333","52.0","SMIDOVICH, RS","FM-12","99999","V020","230,1,N,0020,1","00420,1,9,N","020000,1,N,1","+0251,1","+0167,1","10006,1","","","","9,1,06,1","2,1,06,1","","","05,99,1,05,1,05,1,00450,1,00,1,00,1","","","","","7,1,008,1,+999,9","01,1","","SYN066AAXX  27061 31725 41498 52302 10251 20167 40006 57008 70192 85500;",
"31725099999","2000-06-27T09:00:00","4","48.6166666","133.8333333","52.0","SMIDOVICH, RS","FM-12","99999","V020","230,1,N,0020,1","00420,1,9,N","020000,1,N,1","+0243,1","+0181,1","10013,1","","","","","","","","06,99,1,05,1,03,1,00450,1,00,1,02,1","","","999,M,+0257,1","","3,1,006,1,+999,9","","","SYN070AAXX  27091 31725 /2498 62302 10243 20181 40013 53006 85302 333 10257;",
"31725099999","2000-06-27T12:00:00","4","48.6166666","133.8333333","52.0","SMIDOVICH, RS","FM-12","99999","V020","999,9,C,0000,1","00420,1,9,N","020000,1,N,1","+0196,1","+0177,1","10021,1","00,0061,9,1","","","","","","","06,99,1,05,1,03,1,00450,1,00,1,02,1","","","999,M,+0257,1","99999,9,09960,1","2,1,008,1,+999,9","","","SYN082AAXX  27121 31725 12498 60000 10196 20177 39960 40021 52008 60060 85302 333 10257;",
"31725099999","2000-06-27T15:00:00","4","48.6166666","133.8333333","52.0","SMIDOVICH, RS","FM-12","99999","V020","360,1,N,0010,1","00420,1,9,N","020000,1,N,1","+0182,1","+0162,1","10042,1","","","","","","","","06,99,1,06,1,03,1,00450,1,00,1,02,1","","","","","2,1,021,1,+999,9","","","SYN060AAXX  27151 31725 42498 63601 10182 20162 40042 52021 86302;",
"31725099999","2000-06-27T18:00:00","4","48.6166666","133.8333333","52.0","SMIDOVICH, RS","FM-12","99999","V020","999,9,C,0000,1","03600,1,9,N","020000,1,N,1","+0159,1","+0147,1","10029,1","","","","","","","","08,99,1,02,1,03,1,00450,1,04,1,99,9","","","","","8,1,014,1,+999,9","","","SYN060AAXX  27181 31725 42498 80000 10159 20147 40029 58014 8234/;",
"31725099999","2000-06-27T21:00:00","4","48.6166666","133.8333333","52.0","SMIDOVICH, RS","FM-12","99999","V020","999,9,C,0000,1","22000,1,9,N","020000,1,N,1","+0170,1","+0153,1","10031,1","99,0000,9,1","","","","","","","03,99,1,02,1,05,1,00450,1,04,1,02,1","","","","","3,1,002,1,+999,9","","","SYN060AAXX  27211 31725 32498 30000 10170 20153 40031 53002 82542;","Q01  00002PRCP99"
"31725099999","2000-06-28T00:00:00","4","48.6166666","133.8333333","52.0","SMIDOVICH, RS","FM-12","99999","V020","230,1,N,0010,1","00420,1,9,N","020000,1,N,1","+0202,1","+0168,1","10034,1","99,0000,9,1","","","","","","","06,99,1,06,1,03,1,00450,1,00,1,00,1","","","999,N,+0155,1","99999,9,09973,1","2,1,004,1,+999,9","","","SYN076AAXX  28001 31725 32498 62301 10202 20168 39973 40034 52004 86300 333 20155;","Q01  00002PRCP99"
"31725099999","2000-06-28T03:00:00","4","48.6166666","133.8333333","52.0","SMIDOVICH, RS","FM-12","99999","V020","230,1,N,0010,1","00420,1,9,N","004000,1,N,1","+0198,1","+0163,1","10035,1","","","","9,1,03,1","8,1,03,1","","","08,99,1,08,1,03,1,00450,1,99,9,99,9","","","","","1,1,001,1,+999,9","95,1","","SYN066AAXX  28031 31725 41496 82301 10198 20163 40035 51001 79598 883//;",
"31725099999","2000-06-28T06:00:00","4","48.6166666","133.8333333","52.0","SMIDOVICH, RS","FM-12","99999","V020","050,1,N,0010,1","22000,1,9,N","050000,1,N,1","+0222,1","+0170,1","10027,1","","","","9,1,06,1","8,1,06,1","","","04,99,1,02,1,03,1,00450,1,04,1,00,1","","","","","8,1,008,1,+999,9","01,1","","SYN066AAXX  28061 31725 41499 40501 10222 20170 40027 58008 70198 82340;",
"31725099999","2000-06-28T09:00:00","4","48.6166666","133.8333333","52.0","SMIDOVICH, RS","FM-12","99999","V020","050,1,N,0020,1","99999,9,9,N","020000,1,N,1","+0239,1","+0160,1","10028,1","","","","9,1,03,1","2,1,03,1","","","06,99,1,99,9,03,1,00450,1,00,1,00,1","","","999,M,+9999,9","","3,1,001,1,+999,9","17,1","","SYN076AAXX  28091 31725 /1498 60502 10239 20160 40028 53001 71792 83300 333 10233;","Q01+000032SCOTLCQ02 +02332ATMX  "
"31725099999","2000-06-28T12:00:00","4","48.6166666","133.8333333","52.0","SMIDOVICH, RS","FM-12","99999","V020","050,1,N,0010,1","09000,1,9,N","020000,1,N,1","+0183,1","+0158,1","10038,1","00,0180,9,1","","","9,1,06,1","8,1,06,1","","","08,99,1,02,1,05,1,00450,1,00,1,02,1","","","999,M,+0233,1","99999,9,09997,1","2,1,010,1,+999,9","01,1","","SYN088AAXX  28121 31725 11498 80501 10183 20158 39997 40038 52010 60180 70198 82502 333 10233;",
"31725099999","2000-06-28T15:00:00","4","48.6166666","133.8333333","52.0","SMIDOVICH, RS","FM-12","99999","V020","999,9,C,0000,1","22000,1,9,N","050000,1,N,1","+0179,1","+0155,1","10046,1","","","","","","","","02,99,1,02,1,00,1,99999,9,04,1,00,1","","","","","3,1,008,1,+999,9","","","SYN060AAXX  28151 31725 42999 20000 10179 20155 40046 53008 82040;",
"31725099999","2000-06-28T18:00:00","4","48.6166666","133.8333333","52.0","SMIDOVICH, RS","FM-12","99999","V020","320,1,N,0010,1","99999,9,9,N","020000,1,N,1","+0160,1","+0146,1","10039,1","","","","","","","","08,99,1,03,1,00,1,99999,9,04,1,02,1","","","","","8,1,008,1,+999,9","","","SYN060AAXX  28181 31725 42998 83201 10160 20146 40039 58008 83042;",
"31725099999","2000-06-28T21:00:00","4","48.6166666","133.8333333","52.0","SMIDOVICH, RS","FM-12","99999","V020","320,1,N,0010,1","09000,1,9,N","020000,1,N,1","+0183,1","+0152,1","10039,1","","","","","","","","05,99,1,03,1,05,1,00450,1,00,1,02,1","","","","","3,1,001,1,+999,9","","","SYN060AAXX  28211 31725 /2498 53201 10183 20152 40039 53001 83502;",
"31725099999","2000-06-29T00:00:00","4","48.6166666","133.8333333","52.0","SMIDOVICH, RS","FM-12","99999","V020","999,9,C,0000,1","03600,1,9,N","050000,1,N,1","+0224,1","+0154,1","10042,1","00,0003,9,1","","","","","","","06,99,1,02,1,05,1,00800,1,04,1,02,1","","","999,N,+0153,1","99999,9,09981,1","2,1,003,1,+999,9","","","SYN082AAXX  29001 31725 12599 60000 10224 20154 39981 40042 52003 69930 82542 333 20153;",
"31725099999","2000-06-29T03:00:00","4","48.6166666","133.8333333","52.0","SMIDOVICH, RS","FM-12","99999","V020","320,1,N,0010,1","22000,1,9,N","050000,1,N,1","+0244,1","+0163,1","10033,1","","","","","","","","02,99,1,02,1,03,1,00450,1,04,1,00,1","","","","","8,1,009,1,+999,9","","","SYN060AAXX  29031 31725 42499 23201 10244 20163 40033 58009 82340;",
"31725099999","2000-06-29T06:00:00","4","48.6166666","133.8333333","52.0","SMIDOVICH, RS","FM-12","99999","V020","230,1,N,0010,1","00420,1,9,N","050000,1,N,1","+0244,1","+0174,1","10022,1","","","","","","","","07,99,1,07,1,03,1,00450,1,00,1,00,1","","","","","7,1,011,1,+999,9","","","SYN060AAXX  29061 31725 42499 72301 10244 20174 40022 57011 87300;",
"31725099999","2000-06-29T12:00:00","4","48.6166666","133.8333333","52.0","SMIDOVICH, RS","FM-12","99999","V020","050,1,N,0030,1","00420,1,9,N","004000,1,N,1","+0176,1","+0159,1","10051,1","00,0030,9,1","","","8,1,06,1","2,1,06,1","","","08,99,1,08,1,03,1,00450,1,99,9,99,9","","","999,M,+0257,1","99999,9,09990,1","2,1,023,1,+999,9","81,1","","SYN088AAXX  29121 31725 11496 80503 10176 20159 39990 40051 52023 60030 78182 883// 333 10257;",
"31725099999","2000-06-29T15:00:00","4","48.6166666","133.8333333","52.0","SMIDOVICH, RS","FM-12","99999","V020","999,9,C,0000,1","00420,1,9,N","020000,1,N,1","+0160,1","+0142,1","10060,1","","","","8,1,03,1","2,1,03,1","","","08,99,1,08,1,03,1,00450,1,99,9,99,9","","","","","2,1,008,1,+999,9","02,1","","SYN066AAXX  29151 31725 41498 80000 10160 20142 40060 52008 70282 883//;",
"31725099999","2000-06-29T18:00:00","4","48.6166666","133.8333333","52.0","SMIDOVICH, RS","FM-12","99999","V020","090,1,N,0020,1","00420,1,9,N","020000,1,N,1","+0155,1","+0131,1","10060,1","","","","8,1,06,1","2,1,06,1","","","07,99,1,07,1,03,1,00450,1,00,1,00,1","","","","","4,1,000,1,+999,9","01,1","","SYN066AAXX  29181 31725 41498 70902 10155 20131 40060 54000 70182 87300;",
"31725099999","2000-06-29T21:00:00","4","48.6166666","133.8333333","52.0","SMIDOVICH, RS","FM-12","99999","V020","999,9,C,0000,1","00420,1,9,N","004000,1,N,1","+0146,1","+0128,1","10074,1","","","","8,1,03,1","2,1,03,1","","","08,99,1,08,1,03,1,00450,1,99,9,99,9","","","","","3,1,014,1,+999,9","80,1","","SYN066AAXX  29211 31725 /1496 80000 10146 20128 40074 53014 78082 883//;",
"31725099999","2000-06-30T00:00:00","4","48.6166666","133.8333333","52.0","SMIDOVICH, RS","FM-12","99999","V020","050,1,N,0040,1","00420,1,9,N","020000,1,N,1","+0171,1","+0124,1","10070,1","00,0051,9,1","","","8,1,06,1","2,1,06,1","","","06,99,1,06,1,03,1,00450,1,00,1,02,1","","","999,N,+0144,1","99999,9,10008,1","8,1,004,1,+999,9","01,1","","SYN088AAXX  30001 31725 11498 60504 10171 20124 30008 40070 58004 60050 70182 86302 333 20144;",
"31725099999","2000-06-30T03:00:00","4","48.6166666","133.8333333","52.0","SMIDOVICH, RS","FM-12","99999","V020","050,1,N,0060,1","00420,1,9,N","050000,1,N,1","+0189,1","+0121,1","10065,1","","","","","","","","07,99,1,06,1,03,1,00450,1,04,1,02,1","","","","","7,1,004,1,+999,9","","","SYN060AAXX  30031 31725 42499 70506 10189 20121 40065 57004 86342;",
"31725099999","2000-06-30T06:00:00","4","48.6166666","133.8333333","52.0","SMIDOVICH, RS","FM-12","99999","V020","140,1,N,0040,1","00420,1,9,N","050000,1,N,1","+0217,1","+0140,1","10056,1","","","","","","","","08,99,1,06,1,03,1,00450,1,04,1,02,1","","","","","7,1,009,1,+999,9","","","SYN060AAXX  30061 31725 42499 81404 10217 20140 40056 57009 86342;",
"31725099999","2000-06-30T09:00:00","4","48.6166666","133.8333333","52.0","SMIDOVICH, RS","FM-12","99999","V020","070,1,N,0040,1","00420,1,9,N","050000,1,N,1","+0225,1","+0137,1","10008,1","","","","","","","","08,99,1,06,1,05,1,00450,1,04,1,02,1","","","999,M,+0225,1","","7,1,008,1,+999,9","","","SYN070AAXX  30091 31725 /2499 80704 10225 20137 40008 57008 86542 333 10225;",
"31725099999","2000-06-30T12:00:00","4","48.6166666","133.8333333","52.0","SMIDOVICH, RS","FM-12","99999","V020","050,1,N,0010,1","00420,1,9,N","050000,1,N,1","+0185,1","+0134,1","10053,1","00,0007,9,1","","","","","","","08,99,1,06,1,03,1,00450,1,04,1,02,1","","","999,M,+0225,1","99999,9,09992,1","3,1,005,1,+999,9","","","SYN082AAXX  30121 31725 12499 80501 10185 20134 39992 40053 53005 69900 86342 333 10225;",
"31725099999","2000-06-30T15:00:00","4","48.6166666","133.8333333","52.0","SMIDOVICH, RS","FM-12","99999","V020","999,9,C,0000,1","00420,1,9,N","020000,1,N,1","+0170,1","+0130,1","10057,1","","","","","","","","08,99,1,06,1,03,1,00450,1,04,1,99,9","","","","","2,1,003,1,+999,9","","","SYN060AAXX  30151 31725 42498 80000 10170 20130 40057 52003 8634/;",
"31725099999","2000-06-30T18:00:00","4","48.6166666","133.8333333","52.0","SMIDOVICH, RS","FM-12","99999","V020","050,1,N,0010,1","00420,1,9,N","020000,1,N,1","+0155,1","+0120,1","10060,1","","","","","","","","08,99,1,06,1,03,1,00450,1,04,1,02,1","","","","","2,1,003,1,+999,9","","","SYN060AAXX  30181 31725 42498 80501 10155 20120 40060 52003 86342;",
"31725099999","2000-06-30T21:00:00","4","48.6166666","133.8333333","52.0","SMIDOVICH, RS","FM-12","99999","V020","020,1,N,0010,1","00420,1,9,N","050000,1,N,1","+0140,1","+0120,1","10064,1","","","","8,1,03,1","2,1,03,1","","","08,99,1,08,1,03,1,00450,1,99,9,99,9","","","","","2,1,003,1,+999,9","03,1","","SYN066AAXX  30211 31725 /1499 80201 10140 20120 40064 52003 70382 883//;",
"31725099999","2000-07-01T00:00:00","4","48.6166666","133.8333333","52.0","SMIDOVICH, RS","FM-12","99999","V020","360,1,N,0010,1","00420,1,9,N","020000,1,N,1","+0162,1","+0128,1","10063,1","00,0020,9,1","","","8,1,06,1","2,1,06,1","","","08,99,1,05,1,03,1,00450,1,04,1,99,9","","","999,N,+0137,1","99999,9,10001,1","4,1,000,1,+999,9","01,1","","SYN088AAXX  01001 31725 11498 83601 10162 20128 30001 40063 54000 60020 70182 8534/ 333 20137;",
"31725099999","2000-07-01T03:00:00","4","48.6166666","133.8333333","52.0","SMIDOVICH, RS","FM-12","99999","V020","050,1,N,0010,1","00420,1,9,N","010000,1,N,1","+0177,1","+0134,1","10062,1","","","","8,1,03,1","2,1,03,1","","","08,99,1,08,1,03,1,00450,1,99,9,99,9","","","","","4,1,000,1,+999,9","80,1","","SYN066AAXX  01031 31725 41497 80501 10177 20134 40062 54000 78082 883//;",
"31725099999","2000-07-01T06:00:00","4","48.6166666","133.8333333","52.0","SMIDOVICH, RS","FM-12","99999","V020","090,1,N,0010,1","00420,1,9,N","020000,1,N,1","+0199,1","+0142,1","10060,1","","","","8,1,06,1","2,1,06,1","","","08,99,1,05,1,05,1,00450,1,04,1,99,9","","","","","8,1,002,1,+999,9","01,1","","SYN066AAXX  01061 31725 41498 80901 10199 20142 40060 58002 70182 8554/;",
"31725099999","2000-07-01T09:00:00","4","48.6166666","133.8333333","52.0","SMIDOVICH, RS","FM-12","99999","V020","180,1,N,0010,1","03600,1,9,N","020000,1,N,1","+0193,1","+0152,1","10055,1","","","","8,1,03,1","2,1,03,1","","","08,99,1,02,1,03,1,00450,1,04,1,02,1","","","999,M,+0202,1","","7,1,005,1,+999,9","80,1","","SYN076AAXX  01091 31725 /1498 81801 10193 20152 40055 57005 78082 82342 333 10202;",
"31725099999","2000-07-01T12:00:00","4","48.6166666","133.8333333","52.0","SMIDOVICH, RS","FM-12","99999","V020","999,9,C,0000,1","22000,1,9,N","020000,1,N,1","+0168,1","+0147,1","10060,1","00,0005,9,1","","","8,1,06,1","1,1,06,1","","","02,99,1,02,1,05,1,00450,1,00,1,00,1","","","999,M,+0202,1","99999,9,09998,1","4,1,000,1,+999,9","01,1","","SYN088AAXX  01121 31725 11498 20000 10168 20147 39998 40060 54004 69950 70181 82500 333 10202;",
"31725099999","2000-07-01T15:00:00","4","48.6166666","133.8333333","52.0","SMIDOVICH, RS","FM-12","99999","V020","999,9,C,0000,1","22000,1,9,N","020000,1,N,1","+0143,1","+0121,1","10063,1","","","","","","","","02,99,1,02,1,05,1,00450,1,00,1,00,1","","","","","1,1,002,1,+999,9","","","SYN060AAXX  01151 31725 42498 20000 10143 20121 40063 51002 82500;",
"31725099999","2000-07-01T18:00:00","4","48.6166666","133.8333333","52.0","SMIDOVICH, RS","FM-12","99999","V020","999,9,C,0000,1","22000,1,9,N","020000,1,N,1","+0129,1","+0122,1","10061,1","","","","","","","","03,99,1,03,1,00,1,99999,9,04,1,00,1","","","","","8,1,002,1,+999,9","","","SYN060AAXX  01181 31725 42998 30000 10129 20122 40061 58002 83040;",
"31725099999","2000-07-01T21:00:00","4","48.6166666","133.8333333","52.0","SMIDOVICH, RS","FM-12","99999","V020","999,9,C,0000,1","99999,9,9,N","004000,1,N,1","+0127,1","+0118,1","10075,1","99,0000,2,1","","","1,1,03,1","1,1,03,1","","","08,99,1,03,1,00,1,99999,9,04,1,02,1","","","","","3,1,014,1,+999,9","10,1","","SYN066AAXX  01211 31725 31996 80000 10127 20118 40075 53014 71011 83042;",
"31725099999","2000-07-02T00:00:00","4","48.6166666","133.8333333","52.0","SMIDOVICH, RS","FM-12","99999","V020","230,1,N,0010,1","09000,1,9,N","020000,1,N,1","+0217,1","+0169,1","10076,1","99,0000,9,1","","","","","","","05,99,1,01,1,05,1,00800,1,07,1,02,1","","","999,N,+0104,1","99999,9,10015,1","2,1,003,1,+999,9","","","SYN076AAXX  02001 31725 32598 52301 10217 20169 30015 40076 52003 81572 333 20104;","Q01  00002PRCP99"
"31725099999","2000-07-02T03:00:00","4","48.6166666","133.8333333","52.0","SMIDOVICH, RS","FM-12","99999","V020","200,1,N,0010,1","00420,1,9,N","020000,1,N,1","+0256,1","+0175,1","10078,1","","","","","","","","06,99,1,06,1,03,1,00450,1,00,1,00,1","","","","","2,1,003,1,+999,9","","","SYN060AAXX  02031 31725 42498 62001 10256 20175 40078 52003 86300;",
"31725099999","2000-07-02T06:00:00","4","48.6166666","133.8333333","52.0","SMIDOVICH, RS","FM-12","99999","V020","230,1,N,0010,1","22000,1,9,N","020000,1,N,1","+0272,1","+0179,1","10074,1","","","","","","","","03,99,1,03,1,04,1,00800,1,00,1,00,1","","","","","8,1,004,1,+999,9","","","SYN060AAXX  02061 31725 42598 32301 10272 20179 40074 58004 83400;",
"31725099999","2000-07-02T09:00:00","4","48.6166666","133.8333333","52.0","SMIDOVICH, RS","FM-12","99999","V020","230,1,N,0010,1","09000,1,9,N","020000,1,N,1","+0268,1","+0174,1","10071,1","99,0000,9,1","","","","","","","05,99,1,02,1,03,1,00450,1,04,1,01,1","","","999,M,+0273,1","","7,1,003,1,+999,9","","","SYN070AAXX  02091 31725 32498 52301 10268 20174 40071 57003 82341 333 10273;","Q01  00002PRCP99"
"31725099999","2000-07-02T12:00:00","4","48.6166666","133.8333333","52.0","SMIDOVICH, RS","FM-12","99999","V020","999,9,C,0000,1","99999,9,9,N","020000,1,N,1","+0210,1","+0186,1","10085,1","99,0000,9,1","","","","","","","05,99,1,02,1,00,1,99999,9,04,1,02,1","","","999,M,+0273,1","99999,9,10024,1","3,1,013,1,+999,9","","","SYN076AAXX  02121 31725 32998 50000 10210 20186 30024 40085 53013 82042 333 10273;","Q01  00002PRCP99"
"31725099999","2000-07-02T15:00:00","4","48.6166666","133.8333333","52.0","SMIDOVICH, RS","FM-12","99999","V020","999,9,C,0000,1","22000,1,9,N","020000,1,N,1","+0174,1","+0164,1","10091,1","","","","","","","00,1,+99999,9,99,9","00,99,1,00,1,00,1,99999,9,00,1,00,1","","","","","2,1,005,1,+999,9","","","SYN054AAXX  02151 31725 42998 00000 10174 20164 40091 52005;",
"31725099999","2000-07-02T18:00:00","4","48.6166666","133.8333333","52.0","SMIDOVICH, RS","FM-12","99999","V020","999,9,C,0000,1","22000,1,9,N","004000,1,N,1","+0157,1","+0149,1","10102,1","","","","0,1,06,1","0,1,06,1","","00,1,+99999,9,99,9","00,99,1,00,1,00,1,99999,9,00,1,00,1","","","","","2,1,011,1,+999,9","10,1","","SYN060AAXX  02181 31725 41996 00000 10157 20149 40102 52011 71000;",
"31725099999","2000-07-02T21:00:00","4","48.6166666","133.8333333","52.0","SMIDOVICH, RS","FM-12","99999","V020","999,9,C,0000,1","99999,9,9,N","004000,1,N,1","+0183,1","+0168,1","10113,1","99,0000,9,1","","","0,1,03,1","0,1,03,1","","","06,99,1,99,9,99,9,99999,9,99,9,99,9","","","","","2,1,012,1,+999,9","10,1","","SYN060AAXX  02211 31725 31996 60000 10183 20168 40113 52012 71000;","Q01  00002PRCP99"
"31725099999","2000-07-03T00:00:00","4","48.6166666","133.8333333","52.0","SMIDOVICH, RS","FM-12","99999","V020","999,9,C,0000,1","22000,1,9,N","020000,1,N,1","+0253,1","+0191,1","10118,1","99,0000,9,1","","","","","","00,1,+99999,9,99,9","00,99,1,00,1,00,1,99999,9,00,1,00,1","","","999,N,+0135,1","99999,9,10057,1","2,1,005,1,+999,9","","","SYN070AAXX  03001 31725 32998 00000 10253 20191 30057 40118 52005 333 20135;","Q01  00002PRCP99"
"31725099999","2000-07-03T03:00:00","4","48.6166666","133.8333333","52.0","SMIDOVICH, RS","FM-12","99999","V020","999,9,C,0000,1","22000,1,9,N","020000,1,N,1","+0283,1","+0184,1","10115,1","","","","","","","","02,99,1,02,1,05,1,00450,1,00,1,00,1","","","","","8,1,002,1,+999,9","","","SYN060AAXX  03031 31725 42498 20000 10283 20184 40115 58002 82500;",
"31725099999","2000-07-03T06:00:00","4","48.6166666","133.8333333","52.0","SMIDOVICH, RS","FM-12","99999","V020","230,1,N,0010,1","22000,1,9,N","020000,1,N,1","+0298,1","+0185,1","10112,1","","","","","","","","03,99,1,02,1,05,1,00450,1,00,1,02,1","","","","","7,1,003,1,+999,9","","","SYN060AAXX  03061 31725 42498 32301 10298 20185 40112 57003 82502;",
"31725099999","2000-07-03T09:00:00","4","48.6166666","133.8333333","52.0","SMIDOVICH, RS","FM-12","99999","V020","999,9,C,0000,1","22000,1,9,N","020000,1,N,1","+0294,1","+0195,1","10104,1","99,0000,9,1","","","","","","","02,99,1,00,1,00,1,99999,9,00,1,02,1","","","999,M,+0307,1","","7,1,008,1,+999,9","","","SYN070AAXX  03091 31725 32998 20000 10294 20195 40104 57008 80002 333 10307;","Q01  00002PRCP99"
"31725099999","2000-07-03T12:00:00","4","48.6166666","133.8333333","52.0","SMIDOVICH, RS","FM-12","99999","V020","999,9,C,0000,1","22000,1,9,N","020000,1,N,1","+0242,1","+0202,1","10107,1","99,0000,9,1","","","","","","","02,99,1,99,9,99,9,99999,9,99,9,99,9","","","","99999,9,10046,1","","","","SYN075AAXX  03121 31725 32998 20000 10242 20202 30046 40107 5300 80002 333 10307;","Q01  00002PRCP99"
"31725099999","2000-07-03T15:00:00","4","48.6166666","133.8333333","52.0","SMIDOVICH, RS","FM-12","99999","V020","999,9,C,0000,1","22000,1,9,N","020000,1,N,1","+0206,1","+0190,1","10113,1","","","","0,1,03,1","0,1,03,1","","00,1,+99999,9,99,9","00,99,1,00,1,00,1,99999,9,00,1,00,1","","","","","2,1,006,1,+999,9","12,1","","SYN060AAXX  03151 31725 41998 00000 10206 20190 40113 52006 71200;",
"31725099999","2000-07-03T18:00:00","4","48.6166666","133.8333333","52.0","SMIDOVICH, RS","FM-12","99999","V020","999,9,C,0000,1","22000,1,9,N","020000,1,N,1","+0192,1","+0179,1","10113,1","","","","0,1,06,1","0,1,06,1","","00,1,+99999,9,99,9","00,99,1,00,1,00,1,99999,9,00,1,00,1","","","","","4,1,000,1,+999,9","12,1","","SYN060AAXX  03181 31725 41998 00000 10192 20179 40113 54000 71200;",
"31725099999","2000-07-03T21:00:00","4","48.6166666","133.8333333","52.0","SMIDOVICH, RS","FM-12","99999","V020","999,9,C,0000,1","22000,1,9,N","020000,1,N,1","+0199,1","+0178,1","10116,1","99,0000,9,1","","","","","","00,1,+99999,9,99,9","00,99,1,00,1,00,1,99999,9,00,1,00,1","","","","","3,1,003,1,+999,9","","","SYN054AAXX  03211 31725 32998 00000 10199 20178 40116 53003;","Q01  00002PRCP99"
"31725099999","2000-07-04T00:00:00","4","48.6166666","133.8333333","52.0","SMIDOVICH, RS","FM-12","99999","V020","270,1,N,0010,1","99999,9,9,N","020000,1,N,1","+0264,1","+0208,1","10122,1","99,0000,9,1","","","","","","","08,99,1,02,1,00,1,99999,9,04,1,04,1","","","999,N,+0166,1","99999,9,10068,1","2,1,007,1,+999,9","","","SYN076AAXX  04001 31725 32998 82701 10264 20208 30068 40122 52007 82044 333 20166;","Q01  00002PRCP99"
"31725099999","2000-07-04T03:00:00","4","48.6166666","133.8333333","52.0","SMIDOVICH, RS","FM-12","99999","V020","230,1,N,0020,1","99999,9,9,N","020000,1,N,1","+0314,1","+0204,1","10112,1","","","","","","","","08,99,1,00,1,00,1,99999,9,00,1,01,1","","","","","8,1,010,1,+999,9","","","SYN060AAXX  04031 31725 42998 82302 10314 20204 40112 58010 80001;",
"31725099999","2000-07-04T06:00:00","4","48.6166666","133.8333333","52.0","SMIDOVICH, RS","FM-12","99999","V020","230,1,N,0020,1","99999,9,9,N","050000,1,N,1","+0328,1","+0239,1","10099,1","","","","","","","","08,99,1,00,1,00,1,99999,9,00,1,01,1","","","","","7,1,013,1,+999,9","","","SYN060AAXX  04061 31725 42999 82302 10328 20239 40099 57013 80001;",
"31725099999","2000-07-04T09:00:00","4","48.6166666","133.8333333","52.0","SMIDOVICH, RS","FM-12","99999","V020","180,1,N,0010,1","22000,1,9,N","020000,1,N,1","+0320,1","+0217,1","10085,1","99,0000,9,1","","","","","","","02,99,1,00,1,00,1,99999,9,00,1,01,1","","","999,M,+0331,1","","7,1,014,1,+999,9","","","SYN070AAXX  04091 31725 32998 21801 10320 20217 40085 57014 80001 333 10331;","Q01  00002PRCP99"
"31725099999","2000-07-04T12:00:00","4","48.6166666","133.8333333","52.0","SMIDOVICH, RS","FM-12","99999","V020","999,9,C,0000,1","22000,1,9,N","020000,1,N,1","+0252,1","+0216,1","10093,1","99,0000,9,1","","","","","","","02,99,1,00,1,00,1,99999,9,00,1,01,1","","","999,M,+0331,1","99999,9,10032,1","3,1,007,1,+999,9","","","SYN076AAXX  04121 31725 32998 20000 10252 20216 30032 40093 53007 80001 333 10331;","Q01  00002PRCP99"
"31725099999","2000-07-04T15:00:00","4","48.6166666","133.8333333","52.0","SMIDOVICH, RS","FM-12","99999","V020","180,1,N,0010,1","22000,1,9,N","020000,1,N,1","+0230,1","+0182,1","10087,1","","","","","","","00,1,+99999,9,99,9","00,99,1,00,1,00,1,99999,9,00,1,00,1","","","","","8,1,006,1,+999,9","","","SYN054AAXX  04151 31725 42998 01801 10230 20182 40087 58006;",
"31725099999","2000-07-04T18:00:00","4","48.6166666","133.8333333","52.0","SMIDOVICH, RS","FM-12","99999","V020","230,1,N,0020,1","22000,1,9,N","020000,1,N,1","+0204,1","+0171,1","10082,1","","","","","","","00,1,+99999,9,99,9","00,99,1,00,1,00,1,99999,9,00,1,00,1","","","","","7,1,005,1,+999,9","","","SYN054AAXX  04181 31725 42498 02302 10204 20171 40082 57005;",
"31725099999","2000-07-05T00:00:00","4","48.6166666","133.8333333","52.0","SMIDOVICH, RS","FM-12","99999","V020","320,1,N,0030,1","00420,1,9,N","004000,1,N,1","+0212,1","+0190,1","10096,1","99,0000,2,1","","","9,1,06,1","8,1,06,1","","","08,99,1,08,1,03,1,00450,1,99,9,99,9","","","999,N,+0186,1","99999,9,10035,1","2,1,008,1,+999,9","95,1","","SYN082AAXX  05001 31725 31496 83203 10212 20190 30035 40096 52008 79598 883// 333 20186;",
"31725099999","2000-07-05T03:00:00","4","48.6166666","133.8333333","52.0","SMIDOVICH, RS","FM-12","99999","V020","020,1,N,0020,1","00420,1,9,N","020000,1,N,1","+0211,1","+0192,1","10095,1","","","","9,1,03,1","8,1,03,1","","","08,99,1,08,1,03,1,00450,1,99,9,99,9","","","","","8,1,001,1,+999,9","25,1","","SYN066AAXX  05031 31725 41498 80202 10211 20192 40095 58001 72598 883//;",
"31725099999","2000-07-05T06:00:00","4","48.6166666","133.8333333","52.0","SMIDOVICH, RS","FM-12","99999","V020","320,1,N,0010,1","00420,1,9,N","020000,1,N,1","+0235,1","+0201,1","10085,1","","","","9,1,06,1","8,1,06,1","","","08,99,1,05,1,03,1,00450,1,04,1,02,1","","","","","7,1,010,1,+999,9","01,1","","SYN066AAXX  05061 31725 41498 83201 10235 20201 40085 57010 70198 85342;",
"31725099999","2000-07-05T09:00:00","4","48.6166666","133.8333333","52.0","SMIDOVICH, RS","FM-12","99999","V020","090,1,N,0010,1","03600,1,9,N","020000,1,N,1","+0241,1","+0195,1","10080,1","","","","","","","","08,99,1,02,1,05,1,00450,1,04,1,02,1","","","999,M,+0246,1","","7,1,005,1,+999,9","","","SYN070AAXX  05091 31725 /2498 80901 10241 20195 40080 57005 82542 333 10246;",
"31725099999","2000-07-05T12:00:00","4","48.6166666","133.8333333","52.0","SMIDOVICH, RS","FM-12","99999","V020","999,9,C,0000,1","00420,1,9,N","020000,1,N,1","+0211,1","+0190,1","10080,1","00,0079,9,1","","","","","","","08,99,1,05,1,03,1,00450,1,04,1,02,1","","","999,M,+0246,1","99999,9,10019,1","4,1,000,1,+999,9","","","SYN082AAXX  05121 31725 12498 80000 10211 20190 30019 40080 54000 60080 85342 333 10246;",
"31725099999","2000-07-05T15:00:00","4","48.6166666","133.8333333","52.0","SMIDOVICH, RS","FM-12","99999","V020","999,9,C,0000,1","00420,1,9,N","020000,1,N,1","+0193,1","+0174,1","10080,1","","","","","","","","08,99,1,06,1,03,1,00450,1,04,1,99,9","","","","","4,1,000,1,+999,9","","","SYN060AAXX  05151 31725 42498 80000 10193 20174 40080 54000 8634/;",
"31725099999","2000-07-05T18:00:00","4","48.6166666","133.8333333","52.0","SMIDOVICH, RS","FM-12","99999","V020","320,1,N,0010,1","00420,1,9,N","020000,1,N,1","+0198,1","+0185,1","10085,1","","","","","","","","08,99,1,08,1,03,1,00450,1,99,9,99,9","","","","","3,1,005,1,+999,9","","","SYN060AAXX  05181 31725 42498 83201 10198 20185 40085 53005 883//;",
"31725099999","2000-07-05T21:00:00","4","48.6166666","133.8333333","52.0","SMIDOVICH, RS","FM-12","99999","V020","050,1,N,0030,1","00420,1,9,N","020000,1,N,1","+0203,1","+0175,1","10101,1","99,0000,9,1","","","","","","","08,99,1,05,1,03,1,00450,1,04,1,02,1","","","","","2,1,016,1,+999,9","","","SYN060AAXX  05211 31725 32498 80503 10203 20175 40101 52016 85342;","Q01  00002PRCP99"
"31725099999","2000-07-06T00:00:00","4","48.6166666","133.8333333","52.0","SMIDOVICH, RS","FM-12","99999","V020","050,1,N,0040,1","00420,1,9,N","020000,1,N,1","+0229,1","+0181,1","10101,1","99,0000,9,1","","","","","","","07,99,1,07,1,03,1,00450,1,00,1,00,1","","","999,N,+0192,1","99999,9,10040,1","4,1,000,1,+999,9","","","SYN076AAXX  06001 31725 32498 70504 10229 20181 30040 40101 54000 87300 333 20192;","Q01  00002PRCP99"
"31725099999","2000-07-06T03:00:00","4","48.6166666","133.8333333","52.0","SMIDOVICH, RS","FM-12","99999","V020","360,1,N,0020,1","00420,1,9,N","020000,1,N,1","+0250,1","+0189,1","10100,1","","","","","","","","08,99,1,08,1,05,1,00450,1,99,9,99,9","","","","","8,1,001,1,+999,9","","","SYN060AAXX  06031 31725 42498 83602 10250 20189 40100 58001 885//;",
"31725099999","2000-07-06T06:00:00","4","48.6166666","133.8333333","52.0","SMIDOVICH, RS","FM-12","99999","V020","320,1,N,0030,1","00420,1,9,N","020000,1,N,1","+0266,1","+0184,1","10089,1","","","","","","","","07,99,1,07,1,05,1,00450,1,00,1,00,1","","","","","7,1,010,1,+999,9","","","SYN060AAXX  06061 31725 42498 73203 10266 20184 40089 57010 87500;",
"31725099999","2000-07-06T09:00:00","4","48.6166666","133.8333333","52.0","SMIDOVICH, RS","FM-12","99999","V020","320,1,N,0010,1","22000,1,9,N","020000,1,N,1","+0271,1","+0187,1","10082,1","99,0000,9,1","","","","","","","02,99,1,02,1,00,1,99999,9,04,1,02,1","","","999,M,+0273,1","","7,1,007,1,+999,9","","","SYN070AAXX  06091 31725 32998 23201 10271 20187 40082 57007 82042 333 10273;","Q01  00002PRCP99"
"31725099999","2000-07-06T12:00:00","4","48.6166666","133.8333333","52.0","SMIDOVICH, RS","FM-12","99999","V020","999,9,C,0000,1","99999,9,9,N","020000,1,N,1","+0226,1","+0192,1","10081,1","99,0000,9,1","","","","","","","05,99,1,03,1,00,1,99999,9,04,1,02,1","","","999,M,+0273,1","99999,9,10020,1","6,1,002,1,+999,9","","","SYN076AAXX  06121 31725 32998 50000 10226 20192 30020 40081 56002 83042 333 10273;","Q01  00002PRCP99"
"31725099999","2000-07-06T15:00:00","4","48.6166666","133.8333333","52.0","SMIDOVICH, RS","FM-12","99999","V020","999,9,C,0000,1","99999,9,9,N","020000,1,N,1","+0187,1","+0174,1","10080,1","","","","","","","","05,99,1,03,1,00,1,99999,9,04,1,02,1","","","","","6,1,001,1,+999,9","","","SYN060AAXX  06151 31725 42998 50000 10187 20174 40080 56001 83042;",
"31725099999","2000-07-06T18:00:00","4","48.6166666","133.8333333","52.0","SMIDOVICH, RS","FM-12","99999","V020","999,9,C,0000,1","99999,9,9,N","020000,1,N,1","+0190,1","+0170,1","10073,1","","","","","","","","08,99,1,03,1,03,1,99999,9,04,1,01,1","","","","","8,1,007,1,+999,9","","","SYN060AAXX  06181 31725 42998 80000 10190 20170 40073 58007 83341;",
"31725099999","2000-07-06T21:00:00","4","48.6166666","133.8333333","52.0","SMIDOVICH, RS","FM-12","99999","V020","230,1,N,0010,1","00420,1,9,N","020000,1,N,1","+0200,1","+0182,1","10067,1","99,0000,9,1","","","","","","","08,99,1,05,1,03,1,00450,1,04,1,99,9","","","","","7,1,006,1,+999,9","","","SYN060AAXX  06211 31725 32498 82301 10200 20182 40067 57006 8534/;","Q01  00002PRCP99"
"31725099999","2000-07-07T00:00:00","4","48.6166666","133.8333333","52.0","SMIDOVICH, RS","FM-12","99999","V020","290,1,N,0010,1","22000,1,9,N","020000,1,N,1","+0252,1","+0203,1","10065,1","99,0000,9,1","","","","","","","02,99,1,02,1,00,1,99999,9,04,1,02,1","","","999,N,+0180,1","99999,9,10004,1","6,1,002,1,+999,9","","","SYN076AAXX  07001 31725 32998 22901 10252 20203 30004 40065 56002 82042 333 20180;","Q01  00002PRCP99"
"31725099999","2000-07-07T03:00:00","4","48.6166666","133.8333333","52.0","SMIDOVICH, RS","FM-12","99999","V020","320,1,N,0020,1","22000,1,9,N","020000,1,N,1","+0288,1","+0155,1","10049,1","","","","","","","","01,99,1,00,1,00,1,99999,9,00,1,02,1","","","","","8,1,015,1,+999,9","","","SYN060AAXX  07031 31725 42998 13202 10288 20155 40049 58015 80002;",
"31725099999","2000-07-07T06:00:00","4","48.6166666","133.8333333","52.0","SMIDOVICH, RS","FM-12","99999","V020","320,1,N,0010,1","22000,1,9,N","020000,1,N,1","+0306,1","+0166,1","10036,1","","","","","","","","02,99,1,01,1,05,1,00800,1,04,1,00,1","","","","","7,1,013,1,+999,9","","","SYN060AAXX  07061 31725 42598 23201 10306 20166 40036 57013 81540;",
"31725099999","2000-07-07T09:00:00","4","48.6166666","133.8333333","52.0","SMIDOVICH, RS","FM-12","99999","V020","090,1,N,0040,1","22000,1,9,N","020000,1,N,1","+0246,1","+0174,1","10053,1","99,0000,9,1","","","","","","","02,99,1,01,1,05,1,00800,1,04,1,00,1","","","999,M,+0312,1","","3,1,016,1,+999,9","","","SYN070AAXX  07091 31725 32598 20904 10246 20174 40053 53016 81540 333 10312;","Q01  00002PRCP99"
"31725099999","2000-07-07T12:00:00","4","48.6166666","133.8333333","52.0","SMIDOVICH, RS","FM-12","99999","V020","050,1,N,0030,1","22000,1,9,N","020000,1,N,1","+0208,1","+0170,1","10070,1","99,0000,9,1","","","","","","","02,99,1,01,1,03,1,00450,1,00,1,02,1","","","999,M,+0312,1","99999,9,10009,1","2,1,017,1,+999,9","","","SYN076AAXX  07121 31725 32498 20503 10208 20170 30009 40070 52017 81302 333 10312;","Q01  00002PRCP99"
"31725099999","2000-07-07T15:00:00","4","48.6166666","133.8333333","52.0","SMIDOVICH, RS","FM-12","99999","V020","050,1,N,0010,1","22000,1,9,N","020000,1,N,1","+0176,1","+0159,1","10078,1","","","","","","","00,1,+99999,9,99,9","00,99,1,00,1,00,1,99999,9,00,1,00,1","","","","","2,1,008,1,+999,9","","","SYN054AAXX  07151 31725 42998 00501 10176 20159 40078 52008;",
"31725099999","2000-07-07T18:00:00","4","48.6166666","133.8333333","52.0","SMIDOVICH, RS","FM-12","99999","V020","360,1,N,0010,1","22000,1,9,N","020000,1,N,1","+0170,1","+0153,1","10078,1","","","","","","","00,1,+99999,9,99,9","00,99,1,00,1,00,1,99999,9,00,1,00,1","","","","","8,1,001,1,+999,9","","","SYN054AAXX  07181 31725 42998 03601 10170 20153 40078 58001;",
"31725099999","2000-07-07T21:00:00","4","48.6166666","133.8333333","52.0","SMIDOVICH, RS","FM-12","99999","V020","360,1,N,0010,1","22000,1,9,N","020000,1,N,1","+0178,1","+0158,1","10079,1","99,0000,9,1","","","","","","","02,99,1,99,9,99,9,99999,9,99,9,99,9","","","","","3,1,002,1,+999,9","","","SYN054AAXX  07211 31725 32998 23601 10178 20158 40079 53002;","Q01  00002PRCP99"
"31725099999","2000-07-08T00:00:00","4","48.6166666","133.8333333","52.0","SMIDOVICH, RS","FM-12","99999","V020","050,1,N,0050,1","22000,1,9,N","020000,1,N,1","+0250,1","+0166,1","10081,1","99,0000,9,1","","","","","","","03,99,1,00,1,00,1,99999,9,00,1,02,1","","","999,N,+0162,1","99999,9,10020,1","7,1,002,1,+999,9","","","SYN076AAXX  08001 31725 32998 30505 10250 20166 30020 40081 57002 80002 333 20162;","Q01  00002PRCP99"
"31725099999","2000-07-08T03:00:00","4","48.6166666","133.8333333","52.0","SMIDOVICH, RS","FM-12","99999","V020","050,1,N,0030,1","22000,1,9,N","020000,1,N,1","+0272,1","+0162,1","10073,1","","","","","","","","03,99,1,01,1,02,1,00450,1,00,1,02,1","","","","","8,1,007,1,+999,9","","","SYN060AAXX  08031 31725 42498 30503 10272 20162 40073 58007 81202;",
"31725099999","2000-07-08T06:00:00","4","48.6166666","133.8333333","52.0","SMIDOVICH, RS","FM-12","99999","V020","320,1,N,0010,1","22000,1,9,N","020000,1,N,1","+0288,1","+0159,1","10059,1","","","","","","","","01,99,1,00,1,00,1,99999,9,00,1,02,1","","","","","7,1,014,1,+999,9","","","SYN060AAXX  08061 31725 42998 13201 10288 20159 40059 57014 80002;",
"31725099999","2000-07-08T09:00:00","4","48.6166666","133.8333333","52.0","SMIDOVICH, RS","FM-12","99999","V020","270,1,N,0010,1","22000,1,9,N","020000,1,N,1","+0285,1","+0159,1","10047,1","99,0000,9,1","","","","","","","01,99,1,00,1,00,1,99999,9,00,1,02,1","","","999,M,+0292,1","","7,1,012,1,+999,9","","","SYN070AAXX  08091 31725 32998 12701 10285 20159 40047 57012 80002 333 10292;","Q01  00002PRCP99"
"31725099999","2000-07-08T12:00:00","4","48.6166666","133.8333333","52.0","SMIDOVICH, RS","FM-12","99999","V020","999,9,C,0000,1","22000,1,9,N","020000,1,N,1","+0216,1","+0174,1","10051,1","99,0000,9,1","","","","","","00,1,+99999,9,99,9","00,99,1,00,1,00,1,99999,9,00,1,00,1","","","999,M,+0292,1","99999,9,09990,1","3,1,003,1,+999,9","","","SYN070AAXX  08121 31725 32998 00000 10216 20174 39990 40051 53003 333 10292;","Q01  00002PRCP99"
"31725099999","2000-07-08T15:00:00","4","48.6166666","133.8333333","52.0","SMIDOVICH, RS","FM-12","99999","V020","999,9,C,0000,1","22000,1,9,N","020000,1,N,1","+0194,1","+0162,1","10050,1","","","","","","","","02,99,1,00,1,00,1,99999,9,00,1,02,1","","","","","8,1,001,1,+999,9","","","SYN060AAXX  08151 31725 42998 20000 10194 20162 40050 58001 80002;",
"31725099999","2000-07-08T18:00:00","4","48.6166666","133.8333333","52.0","SMIDOVICH, RS","FM-12","99999","V020","999,9,C,0000,1","22000,1,9,N","020000,1,N,1","+0138,1","+0123,1","10052,1","","","","","","","","02,99,1,00,1,00,1,99999,9,00,1,02,1","","","","","4,1,000,1,+999,9","","","SYN060AAXX  08181 31725 42998 20000 10138 20123 40052 54000 80002;",
"31725099999","2000-07-08T21:00:00","4","48.6166666","133.8333333","52.0","SMIDOVICH, RS","FM-12","99999","V020","999,9,C,0000,1","22000,1,9,N","020000,1,N,1","+0161,1","+0140,1","10053,1","99,0000,9,1","","","","","","00,1,+99999,9,99,9","00,99,1,00,1,00,1,99999,9,00,1,00,1","","","","","3,1,001,1,+999,9","","","SYN054AAXX  08211 31725 32998 00000 10161 20140 40053 53001;","Q01  00002PRCP99"
"31725099999","2000-07-09T00:00:00","4","48.6166666","133.8333333","52.0","SMIDOVICH, RS","FM-12","99999","V020","230,1,N,0010,1","22000,1,9,N","020000,1,N,1","+0260,1","+0181,1","10054,1","99,0000,9,1","","","","","","00,1,+99999,9,99,9","00,99,1,00,1,00,1,99999,9,00,1,00,1","","","999,N,+0116,1","99999,9,09994,1","2,1,003,1,+999,9","","","SYN070AAXX  09001 31725 32998 02301 10260 20181 39994 40054 52003 333 20116;","Q01  00002PRCP99"
"31725099999","2000-07-09T03:00:00","4","48.6166666","133.8333333","52.0","SMIDOVICH, RS","FM-12","99999","V020","230,1,N,0020,1","22000,1,9,N","050000,1,N,1","+0297,1","+0164,1","10050,1","","","","","","","00,1,+99999,9,99,9","00,99,1,00,1,00,1,99999,9,00,1,00,1","","","","","8,1,004,1,+999,9","","","SYN054AAXX  09031 31725 42999 02302 10297 20164 40050 58004;",
"31725099999","2000-07-09T06:00:00","4","48.6166666","133.8333333","52.0","SMIDOVICH, RS","FM-12","99999","V020","230,1,N,0020,1","22000,1,9,N","020000,1,N,1","+0316,1","+0174,1","10041,1","","","","","","","00,1,+99999,9,99,9","00,99,1,00,1,00,1,99999,9,00,1,00,1","","","","","7,1,009,1,+999,9","","","SYN054AAXX  09061 31725 42998 02302 10316 20174 40041 57009;",
"31725099999","2000-07-09T09:00:00","4","48.6166666","133.8333333","52.0","SMIDOVICH, RS","FM-12","99999","V020","230,1,N,0020,1","22000,1,9,N","020000,1,N,1","+0303,1","+0190,1","10036,1","99,0000,9,1","","","","","","00,1,+99999,9,99,9","00,99,1,00,1,00,1,99999,9,00,1,00,1","","","999,M,+0317,1","","7,1,005,1,+999,9","","","SYN064AAXX  09091 31725 32998 02302 10303 20190 40036 57005 333 10317;","Q01  00002PRCP99"
"31725099999","2000-07-09T12:00:00","4","48.6166666","133.8333333","52.0","SMIDOVICH, RS","FM-12","99999","V020","999,9,C,0000,1","22000,1,9,N","020000,1,N,1","+0249,1","+0205,1","10042,1","99,0000,9,1","","","","","","","02,99,1,02,1,00,1,99999,9,04,1,00,1","","","999,M,+0317,1","99999,9,09981,1","3,1,005,1,+999,9","","","SYN076AAXX  09121 31725 32998 20000 10249 20205 39981 40042 53005 82040 333 10317;","Q01  00002PRCP99"
"31725099999","2000-07-09T15:00:00","4","48.6166666","133.8333333","52.0","SMIDOVICH, RS","FM-12","99999","V020","999,9,C,0000,1","22000,1,9,N","020000,1,N,1","+0220,1","+0181,1","10044,1","","","","","","","00,1,+99999,9,99,9","00,99,1,00,1,00,1,99999,9,00,1,00,1","","","","","1,1,002,2,+999,9","","","SYN054AAXX  09151 31725 42998 00000 10220 20181 40044 51062;","Q01+000622APC3  "
"31725099999","2000-07-09T18:00:00","4","48.6166666","133.8333333","52.0","SMIDOVICH, RS","FM-12","99999","V020","999,9,C,0000,1","22000,1,9,N","020000,1,N,1","+0190,1","+0167,1","10043,1","","","","","","","00,1,+99999,9,99,9","00,99,1,00,1,00,1,99999,9,00,1,00,1","","","","","8,1,001,1,+999,9","","","SYN054AAXX  09181 31725 42998 00000 10190 20167 40043 58001;",
"31725099999","2000-07-09T21:00:00","4","48.6166666","133.8333333","52.0","SMIDOVICH, RS","FM-12","99999","V020","999,9,C,0000,1","22000,1,9,N","020000,1,N,1","+0192,1","+0169,1","10045,1","99,0000,9,1","","","","","","00,1,+99999,9,99,9","00,99,1,00,1,00,1,99999,9,00,1,00,1","","","","","3,1,002,1,+999,9","","","SYN054AAXX  09211 31725 32998 00000 10192 20169 40045 53002;","Q01  00002PRCP99"
"31725099999","2000-07-10T00:00:00","4","48.6166666","133.8333333","52.0","SMIDOVICH, RS","FM-12","99999","V020","230,1,N,0030,1","22000,1,9,N","020000,1,N,1","+0279,1","+0212,1","10039,1","99,0000,9,1","","","","","","00,1,+99999,9,99,9","00,99,1,00,1,00,1,99999,9,00,1,00,1","","","999,N,+0179,1","99999,9,09979,1","8,1,048,1,+999,9","","","SYN070AAXX  10001 31725 32098 02303 10279 20212 39979 40039 58048 333 20179;","Q01  00002PRCP99"
"31725099999","2000-07-10T03:00:00","4","48.6166666","133.8333333","52.0","SMIDOVICH, RS","FM-12","99999","V020","230,1,N,0050,1","22000,1,9,N","020000,1,N,1","+0330,1","+0220,1","10024,1","","","","","","","00,1,+99999,9,99,9","00,99,1,00,1,00,1,99999,9,00,1,00,1","","","","","7,1,015,1,+999,9","","","SYN054AAXX  10031 31725 42998 02305 10330 20220 40024 57015;",
"31725099999","2000-07-10T06:00:00","4","48.6166666","133.8333333","52.0","SMIDOVICH, RS","FM-12","99999","V020","230,1,N,0050,1","22000,1,9,N","020000,1,N,1","+0350,1","+0214,1","10003,1","","","","","","","00,1,+99999,9,99,9","00,99,1,00,1,00,1,99999,9,00,1,00,1","","","","","7,1,021,1,+999,9","","","SYN054AAXX  10061 31725 42998 02305 10350 20214 40003 57021;",
"31725099999","2000-07-10T09:00:00","4","48.6166666","133.8333333","52.0","SMIDOVICH, RS","FM-12","99999","V020","230,1,N,0030,1","22000,1,9,N","020000,1,N,1","+0326,1","+0235,1","09995,1","99,0000,9,1","","","","","","00,1,+99999,9,99,9","00,99,1,00,1,00,1,99999,9,00,1,00,1","","","999,M,+0327,1","","7,1,008,1,+999,9","","","SYN064AAXX  10091 31725 32998 02303 10326 20235 49995 57008 333 10327;","Q01  00002PRCP99"
"31725099999","2000-07-10T12:00:00","4","48.6166666","133.8333333","52.0","SMIDOVICH, RS","FM-12","99999","V020","230,1,N,0010,1","03600,1,9,N","020000,1,N,1","+0272,1","+0217,1","09995,1","99,0000,9,1","","","","","","","06,99,1,02,1,03,1,00450,1,04,1,01,1","","","999,M,+0353,1","99999,9,09935,1","4,1,000,1,+999,9","","","SYN076AAXX  10121 31725 32498 62301 10272 20217 39935 49995 54000 82341 333 10353;","Q01  00002PRCP99"
"31725099999","2000-07-10T15:00:00","4","48.6166666","133.8333333","52.0","SMIDOVICH, RS","FM-12","99999","V020","270,1,N,0020,1","99999,9,9,N","020000,1,N,1","+0243,1","+0200,1","09998,1","","","","","","","","08,99,1,05,1,00,1,99999,9,04,1,02,1","","","","","3,1,003,1,+999,9","","","SYN060AAXX  10151 31725 42998 82702 10243 20200 49998 53003 85042;",
"31725099999","2000-07-10T18:00:00","4","48.6166666","133.8333333","52.0","SMIDOVICH, RS","FM-12","99999","V020","270,1,N,0020,1","99999,9,9,N","002000,1,N,1","+0218,1","+0176,1","10011,1","","","","9,1,06,1","8,1,06,1","","","08,99,1,99,9,03,1,00450,1,04,1,01,1","","","","","2,1,012,1,+999,9","95,1","","SYN066AAXX  10181 31725 41495 82702 10218 20176 40011 52012 79598 80341;","Q01+000002SCOTLC"
"31725099999","2000-07-10T21:00:00","4","48.6166666","133.8333333","52.0","SMIDOVICH, RS","FM-12","99999","V020","230,1,N,0010,1","22000,1,9,N","020000,1,N,1","+0218,1","+0199,1","10000,1","","","","9,1,03,1","8,1,03,1","","","03,99,1,01,1,03,1,00450,1,04,1,01,1","","","","","8,1,011,1,+999,9","01,1","","SYN066AAXX  10211 31725 /1498 32301 10218 20199 40000 58011 70198 81341;",
"31725099999","2000-07-11T00:00:00","4","48.6166666","133.8333333","52.0","SMIDOVICH, RS","FM-12","99999","V020","230,1,N,0030,1","22000,1,9,N","020000,1,N,1","+0272,1","+0192,1","99999,9","00,0005,9,1","","","9,1,06,1","1,1,06,1","","","01,99,1,00,1,00,1,99999,9,00,1,02,1","","","999,N,+0204,1","99999,9,09937,1","6,1,002,1,+999,9","01,1","","SYN088AAXX  11001 31725 11998 12303 10272 20192 39937 40097 56002 69940 70191 80002 333 20204;","Q01+100973APOSLP"
"31725099999","2000-07-11T03:00:00","4","48.6166666","133.8333333","52.0","SMIDOVICH, RS","FM-12","99999","V020","230,1,N,0040,1","22000,1,9,N","020000,1,N,1","+0320,1","+0206,1","09987,1","","","","","","","00,1,+99999,9,99,9","00,99,1,00,1,00,1,99999,9,00,1,00,1","","","","","8,1,009,1,+999,9","","","SYN054AAXX  11031 31725 42998 02304 10320 20206 49987 58009;",
"31725099999","2000-07-11T06:00:00","4","48.6166666","133.8333333","52.0","SMIDOVICH, RS","FM-12","99999","V020","230,1,N,0040,1","22000,1,9,N","020000,1,N,1","+0337,1","+0193,1","09965,1","","","","","","","","03,99,1,01,1,03,1,00450,1,04,1,02,1","","","","","7,1,022,1,+999,9","","","SYN060AAXX  11061 31725 42498 32304 10337 20193 49965 57022 81342;",
"31725099999","2000-07-11T09:00:00","4","48.6166666","133.8333333","52.0","SMIDOVICH, RS","FM-12","99999","V020","230,1,N,0010,1","22000,1,9,N","020000,1,N,1","+0318,1","+0222,1","09956,1","99,0000,9,1","","","","","","","02,99,1,00,1,00,1,99999,9,00,1,02,1","","","999,M,+0341,1","","7,1,009,1,+999,9","","","SYN070AAXX  11091 31725 32998 22301 10318 20222 49956 57009 80002 333 10341;","Q01  00002PRCP99"
"31725099999","2000-07-11T12:00:00","4","48.6166666","133.8333333","52.0","SMIDOVICH, RS","FM-12","99999","V020","230,1,N,0030,1","09000,1,9,N","020000,1,N,1","+0258,1","+0203,1","09954,1","99,0000,9,1","","","","","","","06,99,1,01,1,03,1,00450,1,00,1,02,1","","","999,M,+0341,1","99999,9,09894,1","7,1,003,1,+999,9","","","SYN076AAXX  11121 31725 32498 62303 10258 20203 39894 49954 57003 81302 333 10341;","Q01  00002PRCP99"
"31725099999","2000-07-11T15:00:00","4","48.6166666","133.8333333","52.0","SMIDOVICH, RS","FM-12","99999","V020","999,9,C,0000,1","99999,9,9,N","020000,1,N,1","+0223,1","+0193,1","09952,1","","","","","","","","06,99,1,00,1,00,1,99999,9,00,1,01,1","","","","","7,1,003,1,+999,9","","","SYN060AAXX  11151 31725 42998 60000 10223 20193 49952 57003 80001;",
"31725099999","2000-07-11T18:00:00","4","48.6166666","133.8333333","52.0","SMIDOVICH, RS","FM-12","99999","V020","999,9,C,0000,1","03600,1,9,N","020000,1,N,1","+0200,1","+0184,1","09948,1","","","","","","","","06,99,1,01,1,04,1,00800,1,04,1,02,1","","","","","7,1,004,1,+999,9","","","SYN060AAXX  11181 31725 42598 60000 10200 20184 49948 57004 81442;",
"31725099999","2000-07-11T21:00:00","4","48.6166666","133.8333333","52.0","SMIDOVICH, RS","FM-12","99999","V020","360,1,N,0010,1","03600,1,9,N","004000,1,N,1","+0222,1","+0197,1","09950,1","99,0000,9,1","","","","","","","08,99,1,02,1,05,1,00800,1,04,1,02,1","","","","","3,1,002,1,+999,9","","","SYN060AAXX  11211 31725 32596 83601 10222 20197 49950 53002 82542;","Q01  00002PRCP99"
"31725099999","2000-07-12T00:00:00","4","48.6166666","133.8333333","52.0","SMIDOVICH, RS","FM-12","99999","V020","020,1,N,0040,1","99999,9,9,N","020000,1,N,1","+0247,1","+0204,1","09949,1","99,0000,9,1","","","","","","","08,99,1,04,1,00,1,99999,9,04,1,02,1","","","999,N,+0194,1","99999,9,09889,1","4,1,000,1,+999,9","","","SYN076AAXX  12001 31725 32998 80204 10247 20204 39889 49949 54000 84042 333 20194;","Q01  00002PRCP99"
"31725099999","2000-07-12T03:00:00","4","48.6166666","133.8333333","52.0","SMIDOVICH, RS","FM-12","99999","V020","200,1,N,0040,1","09000,1,9,N","020000,1,N,1","+0277,1","+0211,1","09943,1","","","","","","","","05,99,1,02,1,05,1,00450,1,00,1,02,1","","","","","8,1,005,1,+999,9","","","SYN060AAXX  12031 31725 42498 52004 10277 20211 49943 58005 82502;",
"31725099999","2000-07-12T06:00:00","4","48.6166666","133.8333333","52.0","SMIDOVICH, RS","FM-12","99999","V020","180,1,N,0020,1","00420,1,9,N","020000,1,N,1","+0288,1","+0217,1","09931,1","","","","9,1,06,1","2,1,06,1","","","08,99,1,08,1,03,1,00450,1,99,9,99,9","","","","","7,1,012,1,+999,9","17,1","","SYN066AAXX  12061 31725 41498 81802 10288 20217 49931 57012 71792 883//;",
"31725099999","2000-07-12T12:00:00","4","48.6166666","133.8333333","52.0","SMIDOVICH, RS","FM-12","99999","V020","270,1,N,0010,1","03600,1,9,N","020000,1,N,1","+0199,1","+0184,1","09945,1","00,0191,9,1","","","9,1,06,1","8,1,06,1","","","08,99,1,04,1,03,1,00450,1,04,1,99,9","","","999,M,+0293,1","99999,9,09884,1","2,1,010,1,+999,9","01,1","","SYN088AAXX  12121 31725 11498 82701 10199 20184 39884 49945 52010 60190 70198 8434/ 333 10293;",
"31725099999","2000-07-12T15:00:00","4","48.6166666","133.8333333","52.0","SMIDOVICH, RS","FM-12","99999","V020","230,1,N,0030,1","00420,1,9,N","020000,1,N,1","+0182,1","+0170,1","09948,1","","","","","","","","08,99,1,08,1,03,1,00450,1,99,9,99,9","","","","","1,1,002,1,+999,9","","","SYN060AAXX  12151 31725 42498 82303 10182 20170 49948 51002 883//;",
"31725099999","2000-07-12T18:00:00","4","48.6166666","133.8333333","52.0","SMIDOVICH, RS","FM-12","99999","V020","230,1,N,0030,1","03600,1,9,N","020000,1,N,1","+0185,1","+0167,1","09944,1","","","","","","","","08,99,1,03,1,03,1,00450,1,04,1,99,9","","","","","8,1,003,1,+999,9","","","SYN060AAXX  12181 31725 42498 82303 10185 20167 49944 58003 8334/;",
"31725099999","2000-07-12T21:00:00","4","48.6166666","133.8333333","52.0","SMIDOVICH, RS","FM-12","99999","V020","360,1,N,0030,1","00420,1,9,N","004000,1,N,1","+0178,1","+0168,1","09957,1","","","","5,1,03,1","2,1,03,1","","","08,99,1,07,1,05,1,00450,1,99,9,99,9","","","","","3,1,012,1,+999,9","51,1","","SYN066AAXX  12211 31725 /1496 83603 10178 20168 49957 53012 75152 875//;",
"31725099999","2000-07-13T00:00:00","4","48.6166666","133.8333333","52.0","SMIDOVICH, RS","FM-12","99999","V020","360,1,N,0040,1","00420,1,9,N","020000,1,N,1","+0193,1","+0170,1","09956,1","00,0005,9,1","","","5,1,06,1","2,1,06,1","","","08,99,1,08,1,03,1,00450,1,99,9,99,9","","","999,N,+0177,1","99999,9,09895,1","4,1,000,1,+999,9","02,1","","SYN088AAXX  13001 31725 11498 83604 10193 20170 39895 49956 54000 69940 70252 883// 333 20177;",
"31725099999","2000-07-13T03:00:00","4","48.6166666","133.8333333","52.0","SMIDOVICH, RS","FM-12","99999","V020","230,1,N,0010,1","00420,1,9,N","020000,1,N,1","+0222,1","+0184,1","09955,1","","","","","","","","08,99,1,08,1,03,1,00450,1,99,9,99,9","","","","","8,1,001,1,+999,9","","","SYN060AAXX  13031 31725 42498 82301 10222 20184 49955 58001 883//;",
"31725099999","2000-07-13T06:00:00","4","48.6166666","133.8333333","52.0","SMIDOVICH, RS","FM-12","99999","V020","180,1,N,0020,1","00420,1,9,N","020000,1,N,1","+0242,1","+0195,1","09954,1","","","","","","","","07,99,1,07,1,03,1,00450,1,00,1,00,1","","","","","4,1,000,1,+999,9","","","SYN060AAXX  13061 31725 42498 71802 10242 20195 49954 54000 87300;",
"31725099999","2000-07-13T09:00:00","4","48.6166666","133.8333333","52.0","SMIDOVICH, RS","FM-12","99999","V020","320,1,N,0020,1","09000,1,9,N","020000,1,N,1","+0240,1","+0193,1","09955,1","","","","","","","","05,99,1,02,1,03,1,00450,1,04,1,01,1","","","999,M,+0242,1","","3,1,001,1,+999,9","","","SYN070AAXX  13091 31725 /2498 53202 10240 20193 49955 53001 82341 333 10242;",
"31725099999","2000-07-13T12:00:00","4","48.6166666","133.8333333","52.0","SMIDOVICH, RS","FM-12","99999","V020","050,1,N,0020,1","03600,1,9,N","020000,1,N,1","+0203,1","+0179,1","09979,1","00,0007,9,1","","","","","","","05,99,1,03,1,03,1,00450,1,04,1,00,1","","","999,M,+0242,1","99999,9,09918,1","2,1,023,1,+999,9","","","SYN082AAXX  13121 31725 12498 50502 10203 20179 39918 49979 52023 69900 83340 333 10242;",
"31725099999","2000-07-13T15:00:00","4","48.6166666","133.8333333","52.0","SMIDOVICH, RS","FM-12","99999","V020","050,1,N,0010,1","00420,1,9,N","020000,1,N,1","+0184,1","+0165,1","09977,1","","","","","","","","07,99,1,07,1,03,1,00450,1,00,1,00,1","","","","","8,1,003,1,+999,9","","","SYN060AAXX  13151 31725 42498 70501 10184 20165 49977 58003 87300;",
"31725099999","2000-07-13T18:00:00","4","48.6166666","133.8333333","52.0","SMIDOVICH, RS","FM-12","99999","V020","050,1,N,0010,1","00420,1,9,N","020000,1,N,1","+0168,1","+0156,1","09982,1","","","","","","","","08,99,1,08,1,03,1,00450,1,99,9,99,9","","","","","3,1,005,1,+999,9","","","SYN060AAXX  13181 31725 42498 80501 10168 20156 49982 53005 883//;",
"31725099999","2000-07-13T21:00:00","4","48.6166666","133.8333333","52.0","SMIDOVICH, RS","FM-12","99999","V020","360,1,N,0010,1","00420,1,9,N","020000,1,N,1","+0162,1","+0146,1","09992,1","99,0000,9,1","","","","","","","08,99,1,08,1,03,1,00450,1,99,9,99,9","","","","","2,1,010,1,+999,9","","","SYN060AAXX  13211 31725 32498 83601 10162 20146 49992 52010 883//;","Q01  00002PRCP99"
"31725099999","2000-07-14T00:00:00","4","48.6166666","133.8333333","52.0","SMIDOVICH, RS","FM-12","99999","V020","070,1,N,0010,1","00420,1,9,N","020000,1,N,1","+0178,1","+0154,1","10002,1","99,0000,9,1","","","","","","","08,99,1,07,1,03,1,00450,1,04,1,99,9","","","999,N,+0153,1","99999,9,09940,1","2,1,010,1,+999,9","","","SYN076AAXX  14001 31725 32498 80701 10178 20154 39940 40002 52010 8734/ 333 20153;","Q01  00002PRCP99"
"31725099999","2000-07-14T03:00:00","4","48.6166666","133.8333333","52.0","SMIDOVICH, RS","FM-12","99999","V020","999,9,C,0000,1","03600,1,9,N","020000,1,N,1","+0238,1","+0183,1","09997,1","","","","","","","","07,99,1,03,1,05,1,00450,1,04,1,00,1","","","","","8,1,003,1,+999,9","","","SYN060AAXX  14031 31725 42498 70000 10238 20183 49997 58003 83540;",
"31725099999","2000-07-14T06:00:00","4","48.6166666","133.8333333","52.0","SMIDOVICH, RS","FM-12","99999","V020","140,1,N,0010,1","22000,1,9,N","020000,1,N,1","+0260,1","+0176,1","09991,1","","","","","","","","03,99,1,01,1,04,1,00450,1,04,1,00,1","","","","","7,1,006,1,+999,9","","","SYN060AAXX  14061 31725 42498 31401 10260 20176 49991 57006 81440;",
"31725099999","2000-07-14T09:00:00","4","48.6166666","133.8333333","52.0","SMIDOVICH, RS","FM-12","99999","V020","020,1,N,0030,1","09000,1,9,N","020000,1,N,1","+0233,1","+0148,1","09998,1","99,0000,9,1","","","","","","","06,99,1,04,1,03,1,00450,1,00,1,02,1","","","999,M,+0263,1","","3,1,007,1,+999,9","","","SYN070AAXX  14091 31725 32498 60203 10233 20148 49998 53007 84302 333 10263;","Q01  00002PRCP99"
"31725099999","2000-07-14T12:00:00","4","48.6166666","133.8333333","52.0","SMIDOVICH, RS","FM-12","99999","V020","050,1,N,0010,1","00420,1,9,N","020000,1,N,1","+0182,1","+0165,1","10021,1","99,0000,9,1","","","9,1,06,1","8,1,06,1","","","06,99,1,06,1,03,1,00450,1,00,1,00,1","","","999,M,+0263,1","99999,9,09960,1","2,1,022,1,+999,9","29,1","","SYN082AAXX  14121 31725 31498 60501 10182 20165 39960 40021 52022 72998 86300 333 10263;","Q01  00002PRCP99"
"31725099999","2000-07-14T15:00:00","4","48.6166666","133.8333333","52.0","SMIDOVICH, RS","FM-12","99999","V020","360,1,N,0010,1","00420,1,9,N","020000,1,N,1","+0175,1","+0160,1","10017,1","","","","","","","","06,99,1,06,1,03,1,00450,1,00,1,00,1","","","","","8,1,004,1,+999,9","","","SYN060AAXX  14151 31725 42498 63601 10175 20160 40017 58004 86300;",
"31725099999","2000-07-14T18:00:00","4","48.6166666","133.8333333","52.0","SMIDOVICH, RS","FM-12","99999","V020","999,9,C,0000,1","00420,1,9,N","020000,1,N,1","+0164,1","+0151,1","10031,1","","","","","","","","07,99,1,07,1,03,1,00450,1,00,1,00,1","","","","","3,1,013,1,+999,9","","","SYN060AAXX  14181 31725 42498 70000 10164 20151 40031 53013 87300;",
"31725099999","2000-07-14T21:00:00","4","48.6166666","133.8333333","52.0","SMIDOVICH, RS","FM-12","99999","V020","320,1,N,0010,1","22000,1,9,N","020000,1,N,1","+0171,1","+0156,1","10036,1","","","","","","","","01,99,1,01,1,04,1,00800,1,00,1,00,1","","","","","2,1,005,1,+999,9","","","SYN060AAXX  14211 31725 /2598 13201 10171 20156 40036 52005 81400;",
"31725099999","2000-07-15T00:00:00","4","48.6166666","133.8333333","52.0","SMIDOVICH, RS","FM-12","99999","V020","320,1,N,0030,1","00420,1,9,N","020000,1,N,1","+0207,1","+0173,1","10049,1","00,0099,9,1","","","","","","","08,99,1,07,1,05,1,00450,1,99,9,99,9","","","999,N,+0157,1","99999,9,09988,1","2,1,014,1,+999,9","","","SYN082AAXX  15001 31725 12498 83203 10207 20173 39988 40049 52014 60100 875// 333 20157;",
"31725099999","2000-07-15T03:00:00","4","48.6166666","133.8333333","52.0","SMIDOVICH, RS","FM-12","99999","V020","230,1,N,0010,1","00420,1,9,N","020000,1,N,1","+0248,1","+0176,1","10047,1","","","","","","","","08,99,1,07,1,05,1,00450,1,99,9,99,9","","","","","8,1,002,1,+999,9","","","SYN060AAXX  15031 31725 42498 82301 10248 20176 40047 58002 875//;",
"31725099999","2000-07-15T06:00:00","4","48.6166666","133.8333333","52.0","SMIDOVICH, RS","FM-12","99999","V020","230,1,N,0010,1","22000,1,9,N","020000,1,N,1","+0270,1","+0167,1","10045,1","","","","","","","","02,99,1,02,1,05,1,00450,1,00,1,00,1","","","","","6,1,001,1,+999,9","","","SYN060AAXX  15061 31725 42498 22301 10270 20167 40045 56001 82500;",
"31725099999","2000-07-15T09:00:00","4","48.6166666","133.8333333","52.0","SMIDOVICH, RS","FM-12","99999","V020","230,1,N,0010,1","22000,1,9,N","020000,1,N,1","+0263,1","+0153,1","10047,1","99,0000,9,1","","","","","","","01,99,1,01,1,05,1,00450,1,00,1,00,1","","","999,M,+0271,1","","3,1,002,1,+999,9","","","SYN070AAXX  15091 31725 32498 12301 10263 20153 40047 53002 81500 333 10271;","Q01  00002PRCP99"
"31725099999","2000-07-15T12:00:00","4","48.6166666","133.8333333","52.0","SMIDOVICH, RS","FM-12","99999","V020","230,1,N,0010,1","22000,1,9,N","020000,1,N,1","+0214,1","+0132,1","10064,1","99,0000,9,1","","","9,1,06,1","1,1,06,1","","","04,99,1,03,1,03,1,00450,1,04,1,02,1","","","999,M,+0271,1","99999,9,10003,1","2,1,016,1,+999,9","29,1","","SYN082AAXX  15121 31725 31498 42301 10214 20132 30003 40064 52016 72991 83342 333 10271;","Q01  00002PRCP99"
"31725099999","2000-07-15T15:00:00","4","48.6166666","133.8333333","52.0","SMIDOVICH, RS","FM-12","99999","V020","230,1,N,0010,1","22000,1,9,N","020000,1,N,1","+0208,1","+0141,1","10077,1","","","","","","","","04,99,1,04,1,05,1,00450,1,00,1,00,1","","","","","2,1,013,1,+999,9","","","SYN060AAXX  15151 31725 42498 42301 10208 20141 40077 52013 84500;",
"31725099999","2000-07-15T18:00:00","4","48.6166666","133.8333333","52.0","SMIDOVICH, RS","FM-12","99999","V020","230,1,N,0010,1","22000,1,9,N","020000,1,N,1","+0160,1","+0144,1","10086,1","","","","","","","","02,99,1,02,1,00,1,99999,9,04,1,00,1","","","","","2,1,008,1,+999,9","","","SYN060AAXX  15181 31725 42998 22301 10160 20144 40086 52008 82040;",
"31725099999","2000-07-16T00:00:00","4","48.6166666","133.8333333","52.0","SMIDOVICH, RS","FM-12","99999","V020","050,1,N,0040,1","22000,1,9,N","020000,1,N,1","+0198,1","+0151,1","10090,1","99,0000,9,1","","","","","","","03,99,1,02,1,05,1,00450,1,00,1,02,1","","","999,N,+0149,1","99999,9,10029,1","3,1,003,1,+999,9","","","SYN076AAXX  16001 31725 32498 30504 10198 20151 30029 40090 53003 82502 333 20149;","Q01  00002PRCP99"
"31725099999","2000-07-16T03:00:00","4","48.6166666","133.8333333","52.0","SMIDOVICH, RS","FM-12","99999","V020","070,1,N,0020,1","00420,1,9,N","050000,1,N,1","+0229,1","+0162,1","10087,1","","","","","","","","08,99,1,08,1,03,1,00450,1,99,9,99,9","","","","","8,1,003,1,+999,9","","","SYN060AAXX  16031 31725 42499 80702 10229 20162 40087 58003 883//;",
"31725099999","2000-07-16T06:00:00","4","48.6166666","133.8333333","52.0","SMIDOVICH, RS","FM-12","99999","V020","090,1,N,0010,1","00420,1,9,N","050000,1,N,1","+0247,1","+0168,1","10077,1","","","","","","","","06,99,1,06,1,05,1,00450,1,00,1,00,1","","","","","7,1,010,1,+999,9","","","SYN060AAXX  16061 31725 42499 60901 10247 20168 40077 57010 86500;",
"31725099999","2000-07-16T09:00:00","4","48.6166666","133.8333333","52.0","SMIDOVICH, RS","FM-12","99999","V020","090,1,N,0010,1","09000,1,9,N","050000,1,N,1","+0251,1","+0165,1","10075,1","99,0000,9,1","","","","","","","05,99,1,04,1,05,1,00450,1,00,1,02,1","","","999,M,+0251,1","","6,1,002,1,+999,9","","","SYN070AAXX  16091 31725 32499 50901 10251 20165 40075 56002 84502 333 10251;","Q01  00002PRCP99"
"31725099999","2000-07-16T12:00:00","4","48.6166666","133.8333333","52.0","SMIDOVICH, RS","FM-12","99999","V020","090,1,N,0020,1","09000,1,9,N","050000,1,N,1","+0194,1","+0150,1","10083,1","99,0000,9,1","","","","","","","05,99,1,02,1,03,1,00450,1,04,1,02,1","","","999,M,+0254,1","99999,9,10022,1","3,1,008,1,+999,9","","","SYN076AAXX  16121 31725 32499 50902 10194 20150 30022 40083 53008 82342 333 10254;","Q01  00002PRCP99"
"31725099999","2000-07-16T15:00:00","4","48.6166666","133.8333333","52.0","SMIDOVICH, RS","FM-12","99999","V020","090,1,N,0020,1","09000,1,9,N","020000,1,N,1","+0179,1","+0135,1","10093,1","","","","","","","","05,99,1,02,1,03,1,00450,1,04,1,02,1","","","","","2,1,010,1,+999,9","","","SYN060AAXX  16151 31725 42498 50902 10179 20135 40093 52010 82342;",
"31725099999","2000-07-16T18:00:00","4","48.6166666","133.8333333","52.0","SMIDOVICH, RS","FM-12","99999","V020","090,1,N,0020,1","00420,1,9,N","020000,1,N,1","+0156,1","+0120,1","10095,1","","","","8,1,06,1","2,1,06,1","","","08,99,1,08,1,03,1,00450,1,99,9,99,9","","","","","1,1,001,1,+999,9","81,1","","SYN066AAXX  16181 31725 41498 80902 10156 20120 40095 51001 78182 883//;",
"31725099999","2000-07-16T21:00:00","4","48.6166666","133.8333333","52.0","SMIDOVICH, RS","FM-12","99999","V020","050,1,N,0020,1","03600,1,9,N","050000,1,N,1","+0195,1","+0111,1","10096,1","","","","","","","","08,99,1,02,1,05,1,00450,1,08,1,02,1","","","","","1,1,001,1,+999,9","","","SYN066AAXX  16211 31725 /1499 80502 10195 20111 40096 51001 82582 883//;",
"31725099999","2000-07-17T00:00:00","4","48.6166666","133.8333333","52.0","SMIDOVICH, RS","FM-12","99999","V020","050,1,N,0020,1","00420,1,9,N","020000,1,N,1","+0178,1","+0115,1","10096,1","00,0010,9,1","","","8,1,06,1","2,1,06,1","","","08,99,1,05,1,03,1,00450,1,04,1,02,1","","","999,N,+0141,1","99999,9,10035,1","1,1,001,1,+999,9","01,1","","SYN088AAXX  17001 31725 11498 80502 10178 20115 30035 40096 51001 60010 70182 85342 333 20141;",
"31725099999","2000-07-17T03:00:00","4","48.6166666","133.8333333","52.0","SMIDOVICH, RS","FM-12","99999","V020","050,1,N,0020,1","00750,1,9,N","020000,1,N,1","+0218,1","+0135,1","10081,1","","","","","","","","06,99,1,06,1,05,1,00800,1,04,1,00,1","","","","","8,1,015,1,+999,9","","","SYN060AAXX  17031 31725 42598 60502 10218 20135 40081 58015 86540;",
"31725099999","2000-07-17T06:00:00","4","48.6166666","133.8333333","52.0","SMIDOVICH, RS","FM-12","99999","V020","070,1,N,0020,1","00420,1,9,N","020000,1,N,1","+0231,1","+0132,1","10067,1","","","","","","","","06,99,1,06,1,03,1,00450,1,04,1,00,1","","","","","7,1,014,1,+999,9","","","SYN060AAXX  17061 31725 42498 60702 10231 20132 40067 57014 86340;",
"31725099999","2000-07-17T09:00:00","4","48.6166666","133.8333333","52.0","SMIDOVICH, RS","FM-12","99999","V020","070,1,N,0010,1","00750,1,9,N","050000,1,N,1","+0226,1","+0136,1","10062,1","99,0000,9,1","","","","","","","07,99,1,06,1,04,1,00800,1,04,1,00,1","","","999,M,+0236,1","","7,1,005,1,+999,9","","","SYN070AAXX  17091 31725 32599 70701 10226 20136 40062 57005 86440 333 10236;","Q01  00002PRCP99"
"31725099999","2000-07-17T12:00:00","4","48.6166666","133.8333333","52.0","SMIDOVICH, RS","FM-12","99999","V020","999,9,C,0000,1","03600,1,9,N","050000,1,N,1","+0186,1","+0131,1","10067,1","99,0000,9,1","","","","","","","05,99,1,04,1,05,1,00800,1,04,1,00,1","","","999,M,+0236,1","99999,9,10006,1","3,1,005,1,+999,9","","","SYN076AAXX  17121 31725 32599 50000 10186 20131 30006 40067 53005 84540 333 10236;","Q01  00002PRCP99"
"31725099999","2000-07-17T15:00:00","4","48.6166666","133.8333333","52.0","SMIDOVICH, RS","FM-12","99999","V020","050,1,N,0020,1","00420,1,9,N","050000,1,N,1","+0174,1","+0127,1","10078,1","","","","","","","","06,99,1,06,1,03,1,00450,1,00,1,00,1","","","","","2,1,010,1,+999,9","","","SYN060AAXX  17151 31725 42499 60502 10174 20127 40078 52010 86300;",
"31725099999","2000-07-17T18:00:00","4","48.6166666","133.8333333","52.0","SMIDOVICH, RS","FM-12","99999","V020","999,9,C,0000,1","22000,1,9,N","050000,1,N,1","+0131,1","+0102,1","10081,1","","","","","","","","02,99,1,02,1,04,1,00800,1,04,1,00,1","","","","","1,1,002,1,+999,9","","","SYN060AAXX  17181 31725 42599 20000 10131 20102 40081 51002 82440;",
"31725099999","2000-07-17T21:00:00","4","48.6166666","133.8333333","52.0","SMIDOVICH, RS","FM-12","99999","V020","070,1,N,0010,1","22000,1,9,N","050000,1,N,1","+0144,1","+0110,1","10085,1","99,0000,9,1","","","","","","","01,99,1,01,1,05,1,00800,1,00,1,00,1","","","","","3,1,004,1,+999,9","","","SYN060AAXX  17211 31725 32599 10701 10144 20110 40085 53004 81500;","Q01  00002PRCP99"
"31725099999","2000-07-18T00:00:00","4","48.6166666","133.8333333","52.0","SMIDOVICH, RS","FM-12","99999","V020","090,1,N,0040,1","22000,1,9,N","050000,1,N,1","+0191,1","+0119,1","10086,1","99,0000,9,1","","","","","","","02,99,1,02,1,05,1,00450,1,00,1,02,1","","","999,N,+0117,1","99999,9,10025,1","2,1,003,1,+999,9","","","SYN076AAXX  18001 31725 32499 20904 10191 20119 30025 40086 52003 82502 333 20117;","Q01  00002PRCP99"
"31725099999","2000-07-18T03:00:00","4","48.6166666","133.8333333","52.0","SMIDOVICH, RS","FM-12","99999","V020","090,1,N,0020,1","09000,1,9,N","050000,1,N,1","+0222,1","+0121,1","10079,1","","","","","","","","05,99,1,03,1,05,1,00450,1,00,1,02,1","","","","","8,1,007,1,+999,9","","","SYN060AAXX  18031 31725 42499 50902 10222 20121 40079 58007 83502;",
"31725099999","2000-07-18T06:00:00","4","48.6166666","133.8333333","52.0","SMIDOVICH, RS","FM-12","99999","V020","999,9,C,0000,1","00420,1,9,N","050000,1,N,1","+0238,1","+0125,1","10069,1","","","","","","","","06,99,1,06,1,05,1,00450,1,00,1,00,1","","","","","7,1,010,1,+999,9","","","SYN060AAXX  18061 31725 42499 60000 10238 20125 40069 57010 86500;",
"31725099999","2000-07-18T09:00:00","4","48.6166666","133.8333333","52.0","SMIDOVICH, RS","FM-12","99999","V020","050,1,N,0010,1","00420,1,9,N","050000,1,N,1","+0230,1","+0146,1","10065,1","99,0000,9,1","","","","","","","06,99,1,06,1,05,1,00450,1,00,1,00,1","","","999,M,+0241,1","","7,1,004,1,+999,9","","","SYN070AAXX  18091 31725 32499 60501 10230 20146 40065 57004 86500 333 10241;","Q01  00002PRCP99"
"31725099999","2000-07-18T12:00:00","4","48.6166666","133.8333333","52.0","SMIDOVICH, RS","FM-12","99999","V020","999,9,C,0000,1","00420,1,9,N","050000,1,N,1","+0198,1","+0151,1","10072,1","99,0000,9,1","","","","","","","06,99,1,06,1,03,1,00450,1,00,1,00,1","","","999,M,+0241,1","99999,9,10011,1","3,1,007,1,+999,9","","","SYN076AAXX  18121 31725 32499 60000 10198 20151 30011 40072 53007 86300 333 10241;","Q01  00002PRCP99"
"31725099999","2000-07-18T15:00:00","4","48.6166666","133.8333333","52.0","SMIDOVICH, RS","FM-12","99999","V020","090,1,N,0010,1","22000,1,9,N","050000,1,N,1","+0166,1","+0139,1","10078,1","","","","","","","","02,99,1,00,1,00,1,99999,9,00,1,02,1","","","","","2,1,005,1,+999,9","","","SYN060AAXX  18151 31725 42499 20901 10166 20139 40078 52005 80002;","Q01+004502SCOLCB"
"31725099999","2000-07-18T18:00:00","4","48.6166666","133.8333333","52.0","SMIDOVICH, RS","FM-12","99999","V020","999,9,C,0000,1","22000,1,9,N","050000,1,N,1","+0144,1","+0126,1","10083,1","","","","","","","","02,99,1,02,1,03,1,00450,1,00,1,02,1","","","","","2,1,004,1,+999,9","","","SYN060AAXX  18181 31725 42499 20000 10144 20126 40083 52004 82302;",
"31725099999","2000-07-18T21:00:00","4","48.6166666","133.8333333","52.0","SMIDOVICH, RS","FM-12","99999","V020","999,9,C,0000,1","00420,1,9,N","050000,1,N,1","+0150,1","+0126,1","10089,1","99,0000,9,1","","","","","","","07,99,1,07,1,03,1,00450,1,00,1,00,1","","","","","2,1,007,1,+999,9","","","SYN060AAXX  18211 31725 32499 70000 10150 20126 40089 52007 87300;","Q01  00002PRCP99"
"31725099999","2000-07-19T00:00:00","4","48.6166666","133.8333333","52.0","SMIDOVICH, RS","FM-12","99999","V020","999,9,C,0000,1","00420,1,9,N","020000,1,N,1","+0198,1","+0106,1","10096,1","99,0000,9,1","","","","","","","07,99,1,07,1,03,1,00450,1,00,1,00,1","","","999,N,+0138,1","99999,9,10035,1","2,1,008,1,+999,9","","","SYN076AAXX  19001 31725 32498 70000 10198 20106 30035 40096 52008 87300 333 20138;","Q01  00002PRCP99"
"31725099999","2000-07-19T03:00:00","4","48.6166666","133.8333333","52.0","SMIDOVICH, RS","FM-12","99999","V020","070,1,N,0010,1","00420,1,9,N","050000,1,N,1","+0226,1","+0128,1","10097,1","","","","","","","","07,99,1,06,1,03,1,00450,1,04,1,00,1","","","","","1,1,001,1,+999,9","","","SYN060AAXX  19031 31725 42499 70701 10226 20128 40097 51001 86340;",
"31725099999","2000-07-19T06:00:00","4","48.6166666","133.8333333","52.0","SMIDOVICH, RS","FM-12","99999","V020","090,1,N,0010,1","22000,1,9,N","050000,1,N,1","+0241,1","+0150,1","10084,1","","","","","","","","02,99,1,02,1,04,1,00800,1,00,1,00,1","","","","","3,1,013,1,+999,9","","","SYN060AAXX  19061 31725 42599 20901 10241 20150 40084 53013 82400;",
"31725099999","2000-07-19T09:00:00","4","48.6166666","133.8333333","52.0","SMIDOVICH, RS","FM-12","99999","V020","230,1,N,0020,1","22000,1,9,N","050000,1,N,1","+0243,1","+0153,1","10085,1","99,0000,9,1","","","","","","00,1,+99999,9,99,9","00,99,1,00,1,00,1,99999,9,00,1,00,1","","","999,M,+0245,1","","1,1,001,1,+999,9","","","SYN064AAXX  19091 31725 32999 02302 10243 20153 40085 51001 333 10245;","Q01  00002PRCP99"
"31725099999","2000-07-19T12:00:00","4","48.6166666","133.8333333","52.0","SMIDOVICH, RS","FM-12","99999","V020","230,1,N,0020,1","22000,1,9,N","050000,1,N,1","+0189,1","+0144,1","10087,1","99,0000,9,1","","","","","","00,1,+99999,9,99,9","00,99,1,00,1,00,1,99999,9,00,1,00,1","","","999,M,+0245,1","99999,9,10026,1","1,1,002,1,+999,9","","","SYN076AAXX  19121 31725 32999 02302 10189 20144 30026 40087 51002 82040 333 10245;","Q01  00002PRCP99"
"31725099999","2000-07-19T15:00:00","4","48.6166666","133.8333333","52.0","SMIDOVICH, RS","FM-12","99999","V020","230,1,N,0020,1","22000,1,9,N","050000,1,N,1","+0163,1","+0125,1","10089,1","","","","","","","00,1,+99999,9,99,9","00,99,1,00,1,00,1,99999,9,00,1,00,1","","","","","1,1,001,1,+999,9","","","SYN054AAXX  19151 31725 42999 02302 10163 20125 40089 51001;",
"31725099999","2000-07-19T18:00:00","4","48.6166666","133.8333333","52.0","SMIDOVICH, RS","FM-12","99999","V020","999,9,C,0000,1","22000,1,9,N","050000,1,N,1","+0142,1","+0127,1","10089,1","","","","","","","","02,99,1,02,1,00,1,99999,9,04,1,00,1","","","","","8,1,001,1,+999,9","","","SYN060AAXX  19181 31725 42999 20000 10142 20127 40089 58001 82040;",
"31725099999","2000-07-19T21:00:00","4","48.6166666","133.8333333","52.0","SMIDOVICH, RS","FM-12","99999","V020","999,9,C,0000,1","22000,1,9,N","050000,1,N,1","+0156,1","+0132,1","10084,1","99,0000,9,1","","","","","","00,1,+99999,9,99,9","00,99,1,00,1,00,1,99999,9,00,1,00,1","","","","","7,1,004,1,+999,9","","","SYN054AAXX  19211 31725 32999 00000 10156 20132 40084 57004;","Q01  00002PRCP99"
"31725099999","2000-07-20T00:00:00","4","48.6166666","133.8333333","52.0","SMIDOVICH, RS","FM-12","99999","V020","090,1,N,0020,1","22000,1,9,N","050000,1,N,1","+0227,1","+0148,1","10073,1","99,0000,9,1","","","","","","","02,99,1,01,1,00,1,99999,9,04,1,02,1","","","999,N,+0132,1","99999,9,10012,1","7,1,010,1,+999,9","","","SYN076AAXX  20001 31725 32999 20902 10227 20148 30012 40073 57010 81042 333 20132;","Q01  00002PRCP99"
"31725099999","2000-07-20T03:00:00","4","48.6166666","133.8333333","52.0","SMIDOVICH, RS","FM-12","99999","V020","140,1,N,0040,1","00420,1,9,N","020000,1,N,1","+0255,1","+0166,1","10047,1","","","","","","","","08,99,1,05,1,03,1,00450,1,04,1,99,9","","","","","7,1,026,1,+999,9","","","SYN060AAXX  20031 31725 42498 81404 10255 20166 40047 57026 8534/;",
"31725099999","2000-07-20T06:00:00","4","48.6166666","133.8333333","52.0","SMIDOVICH, RS","FM-12","99999","V020","160,1,N,0040,1","00420,1,9,N","020000,1,N,1","+0256,1","+0182,1","10021,1","","","","","","","","08,99,1,08,1,03,1,00450,1,99,9,99,9","","","","","7,1,025,1,+999,9","","","SYN060AAXX  20061 31725 42498 81604 10256 20182 40021 57025 883//;",
"31725099999","2000-07-20T09:00:00","4","48.6166666","133.8333333","52.0","SMIDOVICH, RS","FM-12","99999","V020","180,1,N,0030,1","00420,1,9,N","004000,1,N,1","+0206,1","+0187,1","10002,1","","","","8,1,03,1","2,1,03,1","","","08,99,1,08,1,03,1,00450,1,99,9,99,9","","","999,M,+0267,1","","7,1,020,1,+999,9","80,1","","SYN076AAXX  20091 31725 /1496 81803 10206 20187 40002 57020 78082 883// 333 10267;",
"31725099999","2000-07-20T12:00:00","4","48.6166666","133.8333333","52.0","SMIDOVICH, RS","FM-12","99999","V020","090,1,N,0030,1","00420,1,9,N","004000,1,N,1","+0203,1","+0189,1","09974,1","00,0020,9,1","","","8,1,06,1","8,1,06,1","","","08,99,1,08,1,03,1,00450,1,99,9,99,9","","","999,M,+0267,1","99999,9,09913,1","7,1,028,1,+999,9","81,1","","SYN088AAXX  20121 31725 11496 80903 10203 20189 39913 49974 57028 60020 78188 883// 333 10267;",
"31725099999","2000-07-20T15:00:00","4","48.6166666","133.8333333","52.0","SMIDOVICH, RS","FM-12","99999","V020","090,1,N,0040,1","00420,1,9,N","004000,1,N,1","+0197,1","+0184,1","09928,1","","","","8,1,03,1","8,1,03,1","","","08,99,1,08,1,03,1,00450,1,99,9,99,9","","","","","7,1,046,1,+999,9","81,1","","SYN066AAXX  20151 31725 41496 80904 10197 20184 49928 57046 78188 883//;",
"31725099999","2000-07-20T18:00:00","4","48.6166666","133.8333333","52.0","SMIDOVICH, RS","FM-12","99999","V020","999,9,C,0000,1","00420,1,9,N","020000,1,N,1","+0200,1","+0190,1","09922,1","","","","8,1,06,1","2,1,06,1","","","08,99,1,08,1,03,1,00450,1,99,9,99,9","","","","","7,1,006,1,+999,9","02,1","","SYN066AAXX  20181 31725 41498 80000 10200 20190 49922 57006 70282 883//;",
"31725099999","2000-07-20T21:00:00","4","48.6166666","133.8333333","52.0","SMIDOVICH, RS","FM-12","99999","V020","180,1,N,0010,1","00420,1,9,N","020000,1,N,1","+0188,1","+0178,1","09917,1","","","","8,1,03,1","2,1,03,1","","","08,99,1,08,1,03,1,00450,1,99,9,99,9","","","","","7,1,005,1,+999,9","25,1","","SYN066AAXX  20211 31725 /1498 81801 10188 20178 49917 57005 72582 883//;",
"31725099999","2000-07-21T00:00:00","4","48.6166666","133.8333333","52.0","SMIDOVICH, RS","FM-12","99999","V020","050,1,N,0020,1","00420,1,9,N","020000,1,N,1","+0191,1","+0180,1","09924,1","00,0361,9,1","","","8,1,06,1","5,1,06,1","","","08,99,1,08,1,03,1,00450,1,99,9,99,9","","","999,N,+0184,1","99999,9,09863,1","3,1,007,1,+999,9","01,1","","SYN088AAXX  21001 31725 11498 80502 10191 20180 39863 49924 53007 60360 70185 883// 333 20184;",
"31725099999","2000-07-21T03:00:00","4","48.6166666","133.8333333","52.0","SMIDOVICH, RS","FM-12","99999","V020","070,1,N,0030,1","00420,1,9,N","020000,1,N,1","+0228,1","+0197,1","09913,1","","","","9,1,03,1","8,1,03,1","","","07,99,1,07,1,03,1,00450,1,00,1,00,1","","","","","8,1,010,1,+999,9","02,1","","SYN066AAXX  21031 31725 41498 70703 10228 20197 49913 58010 70298 87300;",
"31725099999","2000-07-21T06:00:00","4","48.6166666","133.8333333","52.0","SMIDOVICH, RS","FM-12","99999","V020","050,1,N,0030,1","00420,1,9,N","020000,1,N,1","+0225,1","+0195,1","09902,1","","","","9,1,06,1","2,1,06,1","","","08,99,1,06,1,03,1,00450,1,04,1,99,9","","","","","7,1,011,1,+999,9","02,1","","SYN066AAXX  21061 31725 41498 80503 10225 20195 49902 57011 70292 8634/;",
"31725099999","2000-07-21T09:00:00","4","48.6166666","133.8333333","52.0","SMIDOVICH, RS","FM-12","99999","V020","050,1,N,0010,1","00420,1,9,N","004000,1,N,1","+0195,1","+0181,1","09888,1","","","","9,1,03,1","8,1,03,1","","","08,99,1,08,1,03,1,00450,1,99,9,99,9","","","999,M,+0243,1","","7,1,015,1,+999,9","95,1","","SYN076AAXX  21091 31725 /1496 80501 10195 20181 49888 57015 79598 883// 333 10243;",
"31725099999","2000-07-21T12:00:00","4","48.6166666","133.8333333","52.0","SMIDOVICH, RS","FM-12","99999","V020","050,1,N,0010,1","00420,1,9,N","020000,1,N,1","+0185,1","+0174,1","09876,1","00,0191,9,1","","","9,1,06,1","8,1,06,1","","","08,99,1,08,1,03,1,00450,1,99,9,99,9","","","999,M,+0243,1","99999,9,09815,1","7,1,012,1,+999,9","01,1","","SYN088AAXX  21121 31725 11498 80501 10185 20174 39815 49876 57012 60190 70198 883// 333 10243;",
"31725099999","2000-07-21T15:00:00","4","48.6166666","133.8333333","52.0","SMIDOVICH, RS","FM-12","99999","V020","050,1,N,0010,1","00420,1,9,N","020000,1,N,1","+0182,1","+0172,1","09860,1","","","","","","","","08,99,1,08,1,03,1,00450,1,99,9,99,9","","","","","7,1,016,1,+999,9","","","SYN060AAXX  21151 31725 42498 80501 10182 20172 49860 57016 883//;",
"31725099999","2000-07-21T18:00:00","4","48.6166666","133.8333333","52.0","SMIDOVICH, RS","FM-12","99999","V020","230,1,N,0020,1","00420,1,9,N","020000,1,N,1","+0198,1","+0178,1","09847,1","","","","","","","","07,99,1,06,1,03,1,00450,1,04,1,00,1","","","","","7,1,013,1,+999,9","","","SYN060AAXX  21181 31725 42498 72302 10198 20178 49847 57013 86340;",
"31725099999","2000-07-21T21:00:00","4","48.6166666","133.8333333","52.0","SMIDOVICH, RS","FM-12","99999","V020","270,1,N,0030,1","00420,1,9,N","020000,1,N,1","+0177,1","+0167,1","09842,1","","","","","","","","08,99,1,08,1,03,1,00450,1,99,9,99,9","","","","","7,1,005,1,+999,9","","","SYN060AAXX  21211 31725 /2498 82703 10177 20167 49842 57005 883//;",
"31725099999","2000-07-22T00:00:00","4","48.6166666","133.8333333","52.0","SMIDOVICH, RS","FM-12","99999","V020","230,1,N,0010,1","00420,1,9,N","050000,1,N,1","+0200,1","+0172,1","09844,1","00,0061,9,1","","","","","","","08,99,1,08,1,03,1,00450,1,99,9,99,9","","","999,N,+0174,1","99999,9,09783,1","3,1,002,1,+999,9","","","SYN082AAXX  22001 31725 12499 82301 10200 20172 39783 49844 53002 60060 883// 333 20174;",
"31725099999","2000-07-22T03:00:00","4","48.6166666","133.8333333","52.0","SMIDOVICH, RS","FM-12","99999","V020","230,1,N,0030,1","00420,1,9,N","020000,1,N,1","+0215,1","+0169,1","09841,1","","","","","","","","08,99,1,08,1,03,1,00450,1,99,9,99,9","","","","","8,1,003,1,+999,9","","","SYN060AAXX  22031 31725 42498 82303 10215 20169 49841 58003 883//;",
"31725099999","2000-07-22T06:00:00","4","48.6166666","133.8333333","52.0","SMIDOVICH, RS","FM-12","99999","V020","230,1,N,0020,1","00420,1,9,N","020000,1,N,1","+0233,1","+0175,1","09833,1","","","","","","","","08,99,1,08,1,03,1,00450,1,99,9,99,9","","","","","7,1,007,1,+999,9","","","SYN060AAXX  22061 31725 42498 82302 10233 20175 49833 57007 883//;",
"31725099999","2000-07-22T09:00:00","4","48.6166666","133.8333333","52.0","SMIDOVICH, RS","FM-12","99999","V020","230,1,N,0020,1","00420,1,9,N","020000,1,N,1","+0226,1","+0178,1","09833,1","99,0000,9,1","","","","","","","07,99,1,99,9,03,1,00450,1,00,1,00,1","","","999,M,+0245,1","","4,1,000,1,+999,9","","","SYN070AAXX  22091 31725 32498 72302 10226 20178 49833 54000 86300 333 10245;","Q01+000062SCOTLCQ02  00002PRCP99"
"31725099999","2000-07-22T12:00:00","4","48.6166666","133.8333333","52.0","SMIDOVICH, RS","FM-12","99999","V020","999,9,C,0000,1","03600,1,9,N","020000,1,N,1","+0181,1","+0169,1","09848,1","99,0000,9,1","","","8,1,06,1","2,1,06,1","","","06,99,1,02,1,03,1,00450,1,04,1,02,1","","","999,M,+0245,1","99999,9,09787,1","3,1,014,1,+999,9","01,1","","SYN082AAXX  22121 31725 31498 60000 10181 20169 39787 49848 53014 70182 82342 333 10245;","Q01  00002PRCP99"
"31725099999","2000-07-22T15:00:00","4","48.6166666","133.8333333","52.0","SMIDOVICH, RS","FM-12","99999","V020","999,9,C,0000,1","03600,1,9,N","020000,1,N,1","+9999,9","+9999,9","09849,1","","","","","","","","06,99,1,02,1,05,1,00450,1,04,1,02,1","","","","","1,1,001,1,+999,9","","","SYN054AAXX  22151 31725 42498 60000 20167 49849 51001 82542;",
"31725099999","2000-07-22T18:00:00","4","48.6166666","133.8333333","52.0","SMIDOVICH, RS","FM-12","99999","V020","999,9,C,0000,1","00420,1,9,N","020000,1,N,1","+0170,1","+0160,1","09850,1","","","","","","","","08,99,1,06,1,03,1,00450,1,00,1,02,1","","","","","4,1,000,1,+999,9","","","SYN060AAXX  22181 31725 42498 80000 10170 20160 49850 54000 86302;",
"31725099999","2000-07-22T21:00:00","4","48.6166666","133.8333333","52.0","SMIDOVICH, RS","FM-12","99999","V020","999,9,C,0000,1","00420,1,9,N","004000,1,N,1","+0184,1","+0171,1","09853,1","","","","8,1,03,1","2,1,03,1","","","08,99,1,08,1,03,1,00450,1,99,9,99,9","","","","","3,1,004,1,+999,9","80,1","","SYN066AAXX  22211 31725 /1496 80000 10184 20171 49853 53004 78082 883//;",
"31725099999","2000-07-23T00:00:00","4","48.6166666","133.8333333","52.0","SMIDOVICH, RS","FM-12","99999","V020","230,1,N,0030,1","00420,1,9,N","020000,1,N,1","+0209,1","+0185,1","09860,1","00,0030,9,1","","","8,1,06,1","2,1,06,1","","","08,99,1,08,1,03,1,00450,1,99,9,99,9","","","999,N,+0164,1","99999,9,99999,9","2,1,007,1,+999,9","01,1","","SYN088AAXX  23001 31725 11498 82303 10209 20185 37999 49860 52007 60030 70182 883// 333 20164;","Q01 079993APOSP "
"31725099999","2000-07-23T03:00:00","4","48.6166666","133.8333333","52.0","SMIDOVICH, RS","FM-12","99999","V020","230,1,N,0030,1","00420,1,9,N","020000,1,N,1","+0228,1","+0174,1","09868,1","","","","","","","","08,99,1,06,1,03,1,00450,1,04,1,02,1","","","","","2,1,009,1,+999,9","","","SYN060AAXX  23031 31725 42498 82303 10228 20174 49868 52009 86342;",
"31725099999","2000-07-23T06:00:00","4","48.6166666","133.8333333","52.0","SMIDOVICH, RS","FM-12","99999","V020","230,1,N,0020,1","00420,1,9,N","020000,1,N,1","+0251,1","+0181,1","09871,1","","","","8,1,06,1","2,1,06,1","","","08,99,1,06,1,03,1,00450,1,00,1,02,1","","","","","2,1,003,1,+999,9","02,1","","SYN066AAXX  23061 31725 41498 82302 10251 20181 49871 52003 70282 86302;",
"31725099999","2000-07-23T09:00:00","4","48.6166666","133.8333333","52.0","SMIDOVICH, RS","FM-12","99999","V020","230,1,N,0020,1","00420,1,9,N","004000,1,N,1","+0215,1","+0185,1","09887,1","","","","8,1,03,1","2,1,03,1","","","08,99,1,06,1,03,1,00450,1,00,1,02,1","","","999,M,+0253,1","","2,1,015,1,+999,9","81,1","","SYN076AAXX  23091 31725 /1496 82302 10215 20185 49887 52015 78182 86302 333 10253;",
"31725099999","2000-07-23T12:00:00","4","48.6166666","133.8333333","52.0","SMIDOVICH, RS","FM-12","99999","V020","230,1,N,0020,1","22000,1,9,N","020000,1,N,1","+0186,1","+0173,1","09898,1","00,0051,9,1","","","8,1,06,1","1,1,06,1","","","03,99,1,03,1,05,1,00450,1,00,1,00,1","","","999,M,+0253,1","99999,9,09837,1","2,1,011,1,+999,9","01,1","","SYN088AAXX  23121 31725 11498 32302 10186 20173 39837 49898 52011 60050 70181 83500 333 10253;",
"31725099999","2000-07-23T15:00:00","4","48.6166666","133.8333333","52.0","SMIDOVICH, RS","FM-12","99999","V020","230,1,N,0010,1","22000,1,9,N","020000,1,N,1","+0163,1","+0146,1","09909,1","","","","","","","","03,99,1,03,1,05,1,00450,1,00,1,00,1","","","","","2,1,010,1,+999,9","","","SYN060AAXX  23151 31725 42498 32301 10163 20146 49909 52010 83500;",
"31725099999","2000-07-23T18:00:00","4","48.6166666","133.8333333","52.0","SMIDOVICH, RS","FM-12","99999","V020","999,9,C,0000,1","00420,1,9,N","004000,1,N,1","+0176,1","+0166,1","09913,1","","","","2,1,06,1","2,1,06,1","","","08,99,1,07,1,05,1,00450,1,99,9,99,9","","","","","2,1,004,1,+999,9","10,1","","SYN066AAXX  23181 31725 41496 80000 10176 20166 49913 52004 71022 875//;",
"31725099999","2000-07-23T21:00:00","4","48.6166666","133.8333333","52.0","SMIDOVICH, RS","FM-12","99999","V020","999,9,C,0000,1","00420,1,9,N","000500,1,N,1","+0171,1","+0163,1","09920,1","","","","4,1,03,1","2,1,03,1","","","08,99,1,07,1,05,1,00450,1,99,9,99,9","","","","","2,1,007,1,+999,9","44,1","","SYN066AAXX  23211 31725 /1493 80000 10171 20163 49920 52007 74442 875//;",
"31725099999","2000-07-24T03:00:00","4","48.6166666","133.8333333","52.0","SMIDOVICH, RS","FM-12","99999","V020","230,1,N,0030,1","09000,1,9,N","020000,1,N,1","+0239,1","+0184,1","09945,1","","","","","","","","07,99,1,03,1,03,1,00450,1,00,1,02,1","","","","","2,1,010,1,+999,9","","","SYN060AAXX  24031 31725 42498 72303 10239 20184 49945 52010 83302;",
"31725099999","2000-07-24T06:00:00","4","48.6166666","133.8333333","52.0","SMIDOVICH, RS","FM-12","99999","V020","170,1,N,0010,1","22000,1,9,N","020000,1,N,1","+0203,1","+0182,1","09956,1","","","","9,1,06,1","8,1,06,1","","","04,99,1,99,9,03,1,00450,1,00,1,00,1","","","","","2,1,010,1,+999,9","29,1","","SYN066AAXX  24061 31725 41498 41701 10203 20182 49956 52010 72998 87300;","Q01+000072SCOTLC"
"31725099999","2000-07-24T09:00:00","4","48.6166666","133.8333333","52.0","SMIDOVICH, RS","FM-12","99999","V020","180,1,N,0010,1","00420,1,9,N","020000,1,N,1","+0224,1","+0191,1","09954,1","","","","","","","","06,99,1,06,1,03,1,00450,1,00,1,00,1","","","999,M,+0257,1","","8,1,002,1,+999,9","","","SYN070AAXX  24091 31725 /2498 61801 10224 20191 49954 58002 86300 333 10257;",
"31725099999","2000-07-24T12:00:00","4","48.6166666","133.8333333","52.0","SMIDOVICH, RS","FM-12","99999","V020","999,9,C,0000,1","99999,9,9,N","000500,1,N,1","+0182,1","+0170,1","09970,1","00,0150,9,1","","","4,1,06,1","2,1,06,1","","","06,99,1,99,9,00,1,00450,1,04,1,00,1","","","999,M,+0257,1","99999,9,09908,1","3,1,015,1,+999,9","44,1","","SYN088AAXX  24121 31725 11493 60000 10182 20170 39908 49970 53015 60150 74442 85040 333 10257;","Q01+000052SCOTLC"
"31725099999","2000-07-24T15:00:00","4","48.6166666","133.8333333","52.0","SMIDOVICH, RS","FM-12","99999","V020","999,9,C,0000,1","22000,1,9,N","020000,1,N,1","+0169,1","+0157,1","09979,1","","","","","","","","02,99,1,02,1,05,1,00800,1,00,1,00,1","","","","","2,1,009,1,+999,9","","","SYN060AAXX  24151 31725 42598 20000 10169 20157 49979 52009 82500;",
"31725099999","2000-07-24T18:00:00","4","48.6166666","133.8333333","52.0","SMIDOVICH, RS","FM-12","99999","V020","999,9,C,0000,1","00420,1,9,N","004000,1,N,1","+0170,1","+0162,1","09979,1","","","","1,1,06,1","1,1,06,1","","","05,99,1,05,1,03,1,00450,1,00,1,00,1","","","","","4,1,000,1,+999,9","10,1","","SYN066AAXX  24181 31725 41496 50000 10170 20162 49979 54000 71011 85300;",
"31725099999","2000-07-24T21:00:00","4","48.6166666","133.8333333","52.0","SMIDOVICH, RS","FM-12","99999","V020","999,9,C,0000,1","00420,1,9,N","004000,1,N,1","+0178,1","+0168,1","09992,1","","","","8,1,03,1","4,1,03,1","","","08,99,1,08,1,03,1,00450,1,99,9,99,9","","","","","3,1,013,1,+999,9","80,1","","SYN066AAXX  24211 31725 /1496 80000 10178 20168 49992 53013 78084 883//;",
"31725099999","2000-07-25T00:00:00","4","48.6166666","133.8333333","52.0","SMIDOVICH, RS","FM-12","99999","V020","999,9,C,0000,1","00420,1,9,N","020000,1,N,1","+0186,1","+0168,1","10001,1","00,0005,9,1","","","","","","","08,99,1,08,1,03,1,00450,1,99,9,99,9","","","999,N,+0164,1","99999,9,09940,1","2,1,010,1,+999,9","","","SYN082AAXX  25001 31725 11498 82300 10186 20168 39940 40001 52010 69940 883// 333 20164;",
"31725099999","2000-07-25T03:00:00","4","48.6166666","133.8333333","52.0","SMIDOVICH, RS","FM-12","99999","V020","140,1,N,0010,1","00420,1,9,N","020000,1,N,1","+0224,1","+0154,1","10001,1","","","","","","","","07,99,1,07,1,03,1,00450,1,04,1,00,1","","","","","4,1,000,1,+999,9","","","SYN060AAXX  25031 31725 42498 71401 10224 20154 40001 54000 87340;",
"31725099999","2000-07-25T06:00:00","4","48.6166666","133.8333333","52.0","SMIDOVICH, RS","FM-12","99999","V020","250,1,N,0030,1","00420,1,9,N","020000,1,N,1","+0240,1","+0170,1","10000,1","","","","","","","","06,99,1,06,1,03,1,00450,1,00,1,00,1","","","","","4,1,000,1,+999,9","","","SYN060AAXX  25061 31725 42498 62503 10240 20170 40000 54000 86300;",
"31725099999","2000-07-25T09:00:00","4","48.6166666","133.8333333","52.0","SMIDOVICH, RS","FM-12","99999","V020","230,1,N,0020,1","22000,1,9,N","020000,1,N,1","+0236,1","+0153,1","09996,1","","","","","","","","04,99,1,04,1,03,1,00450,1,00,1,00,1","","","999,M,+0252,1","","4,1,000,1,+999,9","","","SYN070AAXX  25091 31725 /2498 42302 10236 20153 49996 54000 84300 333 10252;",
"31725099999","2000-07-25T12:00:00","4","48.6166666","133.8333333","52.0","SMIDOVICH, RS","FM-12","99999","V020","999,9,C,0000,1","00420,1,9,N","010000,1,N,1","+0201,1","+0174,1","10013,1","00,0008,9,1","","","2,1,06,1","2,1,06,1","","","07,99,1,07,1,03,1,00450,1,00,1,00,1","","","999,M,+0252,1","99999,9,09952,1","3,1,016,1,+999,9","80,1","","SYN088AAXX  25121 31725 11497 70000 10201 20174 39952 40013 53016 69980 78022 87300 333 10252;",
"31725099999","2000-07-25T15:00:00","4","48.6166666","133.8333333","52.0","SMIDOVICH, RS","FM-12","99999","V020","999,9,C,0000,1","00420,1,9,N","020000,1,N,1","+0182,1","+0159,1","10013,1","","","","8,1,03,1","2,1,03,1","","","08,99,1,08,1,03,1,00450,1,99,9,99,9","","","","","4,1,000,1,+999,9","02,1","","SYN066AAXX  25151 31725 41498 80000 10182 20159 40013 54000 70282 883//;",
"31725099999","2000-07-25T18:00:00","4","48.6166666","133.8333333","52.0","SMIDOVICH, RS","FM-12","99999","V020","999,9,C,0000,1","03600,1,9,N","020000,1,N,1","+0171,1","+0159,1","99999,9","","","","8,1,06,1","2,1,06,1","","","08,99,1,03,1,05,1,00450,1,04,1,99,9","","","","","3,1,001,1,+999,9","01,1","","SYN066AAXX  25181 31725 41498 80000 10171 20159 40085 53001 70182 8354/;","Q01+100853APOSLP"
"31725099999","2000-07-25T21:00:00","4","48.6166666","133.8333333","52.0","SMIDOVICH, RS","FM-12","99999","V020","999,9,C,0000,1","00420,1,9,N","020000,1,N,1","+0173,1","+0159,1","10023,1","","","","","","","","08,99,1,08,1,03,1,00450,1,99,9,99,9","","","","","2,1,008,1,+999,9","","","SYN060AAXX  25211 31725 /2498 80000 10173 20159 40023 52008 883//;",
"31725099999","2000-07-26T00:00:00","4","48.6166666","133.8333333","52.0","SMIDOVICH, RS","FM-12","99999","V020","230,1,N,0010,1","00420,1,9,N","050000,1,N,1","+0204,1","+0175,1","10025,1","00,0007,9,1","","","","","","","08,99,1,08,1,03,1,00450,1,99,9,99,9","","","999,N,+0167,1","99999,9,09964,1","2,1,003,1,+999,9","","","SYN082AAXX  26001 31725 12499 82301 10204 20175 39964 40025 52003 69900 883// 333 20167;",
"31725099999","2000-07-26T03:00:00","4","48.6166666","133.8333333","52.0","SMIDOVICH, RS","FM-12","99999","V020","230,1,N,0010,1","00420,1,9,N","050000,1,N,1","+0234,1","+0164,1","10023,1","","","","","","","","08,99,1,07,1,05,1,00450,1,00,1,02,1","","","","","8,1,002,1,+999,9","","","SYN060AAXX  26031 31725 42499 82301 10234 20164 40023 58002 87502;",
"31725099999","2000-07-26T06:00:00","4","48.6166666","133.8333333","52.0","SMIDOVICH, RS","FM-12","99999","V020","230,1,N,0010,1","00420,1,9,N","050000,1,N,1","+0217,1","+0146,1","10017,1","","","","","","","","07,99,1,07,1,03,1,00450,1,00,1,00,1","","","","","7,1,006,1,+999,9","","","SYN060AAXX  26061 31725 42499 72301 10217 20146 40017 57006 87300;",
"31725099999","2000-07-26T09:00:00","4","48.6166666","133.8333333","52.0","SMIDOVICH, RS","FM-12","99999","V020","999,9,C,0000,1","00420,1,9,N","010000,1,N,1","+0204,1","+0185,1","10020,1","","","","8,1,03,1","5,1,03,1","","","07,99,1,07,1,03,1,00450,1,00,1,00,1","","","999,M,+0252,1","","3,1,003,1,+999,9","50,1","","SYN076AAXX  26091 31725 /1497 70000 10204 20185 40020 53003 75085 87300 333 10252;",
"31725099999","2000-07-26T12:00:00","4","48.6166666","133.8333333","52.0","SMIDOVICH, RS","FM-12","99999","V020","999,9,C,0000,1","00420,1,9,N","020000,1,N,1","+0198,1","+0167,1","10027,1","00,0061,9,1","","","8,1,06,1","2,1,06,1","","","06,99,1,05,1,03,1,00450,1,04,1,00,1","","","999,M,+0252,1","99999,9,09966,1","2,1,007,1,+999,9","01,1","","SYN088AAXX  26121 31725 12498 60000 10198 20167 39966 40027 52007 60060 70182 85340 333 10252;",
"31725099999","2000-07-26T15:00:00","4","48.6166666","133.8333333","52.0","SMIDOVICH, RS","FM-12","99999","V020","999,9,C,0000,1","22000,1,9,N","020000,1,N,1","+0178,1","+0164,1","10032,1","","","","","","","","03,99,1,02,1,05,1,00450,1,04,1,00,1","","","","","2,1,005,1,+999,9","","","SYN060AAXX  26151 31725 42498 30000 10178 20164 40032 52005 82540;",
"31725099999","2000-07-26T18:00:00","4","48.6166666","133.8333333","52.0","SMIDOVICH, RS","FM-12","99999","V020","999,9,C,0000,1","03600,1,9,N","020000,1,N,1","+0169,1","+0157,1","10034,1","","","","","","","","06,99,1,02,1,05,1,00450,1,04,1,02,1","","","","","1,1,001,1,+999,9","","","SYN060AAXX  26181 31725 42498 60000 10169 20157 40034 51001 82542;",
"31725099999","2000-07-26T21:00:00","4","48.6166666","133.8333333","52.0","SMIDOVICH, RS","FM-12","99999","V020","999,9,C,0000,1","09000,1,9,N","020000,1,N,1","+0164,1","+0152,1","10046,1","99,0000,2,1","","","","","","","05,99,1,02,1,03,1,00450,1,04,1,02,1","","","","","3,1,012,1,+999,9","","","SYN060AAXX  26211 31725 32498 50000 10164 20152 40046 53012 82342;",
"31725099999","2000-07-27T00:00:00","4","48.6166666","133.8333333","52.0","SMIDOVICH, RS","FM-12","99999","V020","160,1,N,0010,1","22000,1,9,N","020000,1,N,1","+0223,1","+0178,1","10046,1","99,0000,9,1","","","","","","","03,99,1,01,1,03,1,00450,1,04,1,02,1","","","999,N,+0163,1","99999,9,09985,1","1,1,001,1,+999,9","","","SYN076AAXX  27001 31725 32498 31601 10223 20178 39985 40046 51001 81342 333 20163;","Q01  00002PRCP99"
"31725099999","2000-07-27T03:00:00","4","48.6166666","133.8333333","52.0","SMIDOVICH, RS","FM-12","99999","V020","200,1,N,0010,1","00420,1,9,N","020000,1,N,1","+0254,1","+0117,1","10042,1","","","","","","","","06,99,1,06,1,03,1,00450,1,04,1,00,1","","","","","8,1,004,1,+999,9","","","SYN060AAXX  27031 31725 42498 62001 10254 20117 40042 58004 86340;",
"31725099999","2000-07-27T06:00:00","4","48.6166666","133.8333333","52.0","SMIDOVICH, RS","FM-12","99999","V020","320,1,N,0010,1","00420,1,9,N","020000,1,N,1","+0253,1","+0186,1","10043,1","","","","9,1,06,1","8,1,06,1","","","06,99,1,06,1,09,1,00450,1,00,1,00,1","","","","","3,1,001,1,+999,9","25,1","","SYN066AAXX  27061 31725 41498 63201 10253 20186 40043 53001 72598 86900;",
"31725099999","2000-07-27T09:00:00","4","48.6166666","133.8333333","52.0","SMIDOVICH, RS","FM-12","99999","V020","999,9,C,0000,1","00420,1,9,N","004000,1,N,1","+0189,1","+0177,1","10048,1","","","","9,1,03,1","8,1,03,1","","","07,99,1,07,1,03,1,00450,1,00,1,00,1","","","999,M,+0263,1","","2,1,005,1,+999,9","80,1","","SYN076AAXX  27091 31725 /1496 70000 10189 20177 40048 52005 78098 87300 333 10263;",
"31725099999","2000-07-27T12:00:00","4","48.6166666","133.8333333","52.0","SMIDOVICH, RS","FM-12","99999","V020","999,9,C,0000,1","00420,1,9,N","010000,1,N,1","+0188,1","+0174,1","10061,1","00,0201,9,1","","","","","","","06,99,1,06,1,03,1,00450,1,00,1,00,1","","","999,M,+0263,1","99999,9,10000,1","2,1,013,1,+999,9","","","SYN082AAXX  27121 31725 12497 60000 10188 20174 30000 40061 52013 60200 86300 333 10263;",
"31725099999","2000-07-27T15:00:00","4","48.6166666","133.8333333","52.0","SMIDOVICH, RS","FM-12","99999","V020","110,1,N,0010,1","22000,1,9,N","020000,1,N,1","+0176,1","+0145,1","10061,1","","","","","","","","02,99,1,02,1,03,1,00450,1,00,1,00,1","","","","","4,1,000,1,+999,9","","","SYN060AAXX  27151 31725 42498 21101 10176 20145 40061 51000 82300;","Q01+000012APCTEN"
"31725099999","2000-07-27T18:00:00","4","48.6166666","133.8333333","52.0","SMIDOVICH, RS","FM-12","99999","V020","340,1,N,0010,1","00420,1,9,N","020000,1,N,1","+0173,1","+0148,1","10058,1","","","","9,1,06,1","8,1,06,1","","","07,99,1,07,1,03,1,00450,1,00,1,00,1","","","","","8,1,004,1,+999,9","17,1","","SYN066AAXX  27181 31725 41498 73401 10173 20148 40058 58004 71798 87300;",
"31725099999","2000-07-27T21:00:00","4","48.6166666","133.8333333","52.0","SMIDOVICH, RS","FM-12","99999","V020","070,1,N,0010,1","00420,1,9,N","020000,1,N,1","+0174,1","+0145,1","10059,1","","","","9,1,03,1","8,1,03,1","","","07,99,1,07,1,03,1,00450,1,00,1,00,1","","","","","6,1,001,1,+999,9","02,1","","SYN066AAXX  27211 31725 /1498 70701 10174 20145 40059 56001 70298 87300;",
"31725099999","2000-07-28T00:00:00","4","48.6166666","133.8333333","52.0","SMIDOVICH, RS","FM-12","99999","V020","090,1,N,0040,1","03600,1,9,N","020000,1,N,1","+0209,1","+0178,1","10053,1","00,0071,9,1","","","9,1,06,1","2,1,06,1","","","07,99,1,02,1,05,1,00450,1,04,1,02,1","","","999,N,+0168,1","99999,9,09992,1","8,1,005,1,+999,9","01,1","","SYN088AAXX  28001 31725 11498 70904 10209 20178 39992 40053 58005 60070 70192 82542 333 20168;",
"31725099999","2000-07-28T03:00:00","4","48.6166666","133.8333333","52.0","SMIDOVICH, RS","FM-12","99999","V020","180,1,N,0050,1","00420,1,9,N","020000,1,N,1","+0223,1","+0153,1","10051,1","","","","","","","","08,99,1,08,1,03,1,00450,1,99,9,99,9","","","","","6,1,002,1,+999,9","","","SYN060AAXX  28031 31725 42498 81805 10223 20153 40051 56002 883//;",
"31725099999","2000-07-28T06:00:00","4","48.6166666","133.8333333","52.0","SMIDOVICH, RS","FM-12","99999","V020","180,1,N,0040,1","00420,1,9,N","020000,1,N,1","+0200,1","+0181,1","10040,1","","","","8,1,06,1","2,1,06,1","","","08,99,1,08,1,03,1,00450,1,99,9,99,9","","","","","8,1,011,1,+999,9","25,1","","SYN066AAXX  28061 31725 41498 81804 10200 20181 40040 58011 72582 883//;",
"31725099999","2000-07-28T09:00:00","4","48.6166666","133.8333333","52.0","SMIDOVICH, RS","FM-12","99999","V020","180,1,N,0050,1","00420,1,9,N","020000,1,N,1","+0198,1","+0158,1","10029,1","","","","","","","","08,99,1,06,1,03,1,00450,1,04,1,99,9","","","999,M,+0248,1","","7,1,011,1,+999,9","","","SYN070AAXX  28091 31725 /2498 81805 10198 20158 40029 57011 8634/ 333 10248;",
"31725099999","2000-07-28T12:00:00","4","48.6166666","133.8333333","52.0","SMIDOVICH, RS","FM-12","99999","V020","140,1,N,0050,1","00420,1,9,N","020000,1,N,1","+0181,1","+0163,1","10018,1","00,0020,9,1","","","9,1,06,1","8,1,06,1","","","08,99,1,06,1,03,1,00450,1,04,1,99,9","","","999,M,+0248,1","99999,9,09957,1","7,1,011,1,+999,9","17,1","","SYN088AAXX  28121 31725 11498 81405 10181 20163 39957 40018 57011 60020 71798 8634/ 333 10248;",
"31725099999","2000-07-28T15:00:00","4","48.6166666","133.8333333","52.0","SMIDOVICH, RS","FM-12","99999","V020","140,1,N,0050,1","00420,1,9,N","020000,1,N,1","+0180,1","+0170,1","10010,1","","","","9,1,03,1","8,1,03,1","","","08,99,1,08,1,03,1,00450,1,99,9,99,9","","","","","7,1,008,1,+999,9","29,1","","SYN066AAXX  28151 31725 41498 81405 10180 20170 40010 57090 72998 883//;","Q01+000902APC3  "
"31725099999","2000-07-28T18:00:00","4","48.6166666","133.8333333","52.0","SMIDOVICH, RS","FM-12","99999","V020","180,1,N,0010,1","00420,1,9,N","020000,1,N,1","+0182,1","+0172,1","10002,1","","","","9,1,06,1","8,1,06,1","","","08,99,1,08,1,03,1,00450,1,99,9,99,9","","","","","7,1,008,1,+999,9","02,1","","SYN066AAXX  28181 31725 41498 81801 10182 20172 40002 57008 70298 883//;",
"31725099999","2000-07-29T00:00:00","4","48.6166666","133.8333333","52.0","SMIDOVICH, RS","FM-12","99999","V020","230,1,N,0020,1","00420,1,9,N","020000,1,N,1","+0198,1","+0181,1","10014,1","00,0109,9,1","","","","","","","08,99,1,08,1,03,1,00450,1,99,9,99,9","","","999,N,+0174,1","99999,9,09953,1","2,1,004,1,+999,9","","","SYN082AAXX  29001 31725 12498 82302 10198 20181 39953 40014 52004 60110 883// 333 20174;",
"31725099999","2000-07-29T03:00:00","4","48.6166666","133.8333333","52.0","SMIDOVICH, RS","FM-12","99999","V020","180,1,N,0020,1","09000,1,9,N","020000,1,N,1","+0246,1","+0183,1","10020,1","","","","","","","","08,99,1,04,1,05,1,00450,1,00,1,02,1","","","","","2,1,006,1,+999,9","","","SYN060AAXX  29031 31725 42498 81802 10246 20183 40020 52006 84502;",
"31725099999","2000-07-29T06:00:00","4","48.6166666","133.8333333","52.0","SMIDOVICH, RS","FM-12","99999","V020","180,1,N,0010,1","09000,1,9,N","020000,1,N,1","+0260,1","+0232,1","10020,1","","","","","","","","08,99,1,02,1,05,1,00450,1,00,1,02,1","","","","","4,1,000,1,+999,9","","","SYN060AAXX  29061 31725 42498 81801 10260 20232 40020 54000 82502;",
"31725099999","2000-07-29T09:00:00","4","48.6166666","133.8333333","52.0","SMIDOVICH, RS","FM-12","99999","V020","180,1,N,0040,1","09000,1,9,N","020000,1,N,1","+0237,1","+0183,1","10016,1","99,0000,9,1","","","","","","","08,99,1,02,1,05,1,00450,1,00,1,02,1","","","999,M,+0260,1","","8,1,004,1,+999,9","","","SYN070AAXX  29091 31725 32498 81804 10237 20183 40016 58004 82502 333 10260;","Q01  00002PRCP99"
"31725099999","2000-07-29T12:00:00","4","48.6166666","133.8333333","52.0","SMIDOVICH, RS","FM-12","99999","V020","180,1,N,0020,1","03600,1,9,N","020000,1,N,1","+0200,1","+0181,1","10016,1","99,0000,9,1","","","","","","","08,99,1,02,1,05,1,00450,1,04,1,02,1","","","120,M,+0260,1","99999,9,09955,1","4,1,000,1,+999,9","","","SYN086AAXX  29121 31725 32498 81802 10200 20181 39955 40016 54000 82542 333 10260 555 12019;","Q01  00002PRCP99"
"31725099999","2000-07-29T15:00:00","4","48.6166666","133.8333333","52.0","SMIDOVICH, RS","FM-12","99999","V020","999,9,C,0000,1","99999,9,9,N","004000,1,N,1","+0193,1","+0180,1","10016,1","","","","2,1,03,1","2,1,03,1","","","08,99,1,05,1,00,1,99999,9,04,1,02,1","","","","","4,1,000,1,+999,9","10,1","","SYN066AAXX  29151 31725 41996 80000 10193 20180 40016 54000 71022 85042;",
"31725099999","2000-07-29T18:00:00","4","48.6166666","133.8333333","52.0","SMIDOVICH, RS","FM-12","99999","V020","999,9,C,0000,1","00420,1,9,N","004000,1,N,1","+0191,1","+0178,1","10002,1","","","","2,1,06,1","2,1,06,1","","","08,99,1,06,1,05,1,00450,1,04,1,99,9","","","","","8,1,014,1,+999,9","10,1","","SYN066AAXX  29181 31725 42496 80000 10191 20178 40002 58014 71022 8654/;",
"31725099999","2000-07-29T21:00:00","4","48.6166666","133.8333333","52.0","SMIDOVICH, RS","FM-12","99999","V020","090,1,N,0030,1","00420,1,9,N","004000,1,N,1","+0191,1","+0178,1","09988,1","","","","6,1,03,1","6,1,03,1","","","08,99,1,07,1,00,1,00450,1,02,1,99,9","","","","","7,1,014,1,+999,9","61,1","","SYN066AAXX  29211 31725 /1496 80903 10191 20178 49988 57014 76166 8702/;",
"31725099999","2000-07-30T00:00:00","4","48.6166666","133.8333333","52.0","SMIDOVICH, RS","FM-12","99999","V020","090,1,N,0040,1","00420,1,9,N","004000,1,N,1","+0195,1","+9999,9","09967,1","00,0010,9,1","","","6,1,06,1","2,1,06,1","","","08,99,1,07,1,00,1,00450,1,02,1,99,9","","","999,N,+0188,1","99999,9,09906,1","7,1,021,1,+999,9","61,1","","SYN082AAXX  30001 31725 11496 80904 10195 39906 49967 57021 60010 76162 8702/ 333 20188;",
"31725099999","2000-07-30T03:00:00","4","48.6166666","133.8333333","52.0","SMIDOVICH, RS","FM-12","99999","V020","050,1,N,0040,1","00420,1,9,N","002000,1,N,1","+0190,1","+0174,1","09951,1","","","","6,1,03,1","6,1,03,1","","","08,99,1,99,9,07,1,00450,1,02,1,99,9","","","","","7,1,016,1,+999,9","63,1","","SYN066AAXX  30031 31725 41495 80504 10190 20174 49951 57016 76366 8872/;","Q01+000082SCOTLC"
"31725099999","2000-07-30T06:00:00","4","48.6166666","133.8333333","52.0","SMIDOVICH, RS","FM-12","99999","V020","140,1,N,0020,1","00420,1,9,N","004000,1,N,1","+0188,1","+0177,1","09938,1","","","","6,1,06,1","6,1,06,1","","","08,99,1,05,1,00,1,00450,1,02,1,99,9","","","","","7,1,013,1,+999,9","63,1","","SYN066AAXX  30061 31725 41496 81402 10188 20177 49938 57013 76366 8502/;",
"31725099999","2000-07-30T09:00:00","4","48.6166666","133.8333333","52.0","SMIDOVICH, RS","FM-12","99999","V020","180,1,N,0010,1","00420,1,9,N","020000,1,N,1","+0205,1","+0189,1","09930,1","","","","8,1,03,1","2,1,03,1","","","07,99,1,05,1,03,1,00450,1,04,1,00,1","","","999,N,+0210,1","","7,1,008,1,+999,9","21,1","","SYN076AAXX  30091 31725 /1498 71801 10205 20189 49930 57008 72182 85340 333 20210;",
"31725099999","2000-07-30T12:00:00","4","48.6166666","133.8333333","52.0","SMIDOVICH, RS","FM-12","99999","V020","180,1,N,0020,1","00420,1,9,N","020000,1,N,1","+0190,1","+0175,1","09950,1","00,0191,9,1","","","6,1,06,1","2,1,06,1","","","06,99,1,06,1,05,1,00450,1,00,1,00,1","","","999,M,+0210,1","99999,9,09889,1","3,1,020,1,+999,9","03,1","","SYN088AAXX  30121 31725 11498 61802 10190 20175 39889 49950 53020 60190 70362 86500 333 10210;",
"31725099999","2000-07-30T15:00:00","4","48.6166666","133.8333333","52.0","SMIDOVICH, RS","FM-12","99999","V020","230,1,N,0030,1","22000,1,9,N","020000,1,N,1","+0181,1","+0169,1","09964,1","","","","","","","","02,99,1,02,1,05,1,00800,1,00,1,00,1","","","","","2,1,013,1,+999,9","","","SYN060AAXX  30151 31725 42598 22303 10181 20169 49964 52013 82500;",
"31725099999","2000-07-30T18:00:00","4","48.6166666","133.8333333","52.0","SMIDOVICH, RS","FM-12","99999","V020","020,1,N,9999,9","00750,1,9,N","999999,9,N,1","+0171,1","+0164,1","09980,1","","","","","","","","08,99,1,99,9,05,1,00800,1,00,1,00,1","","","","","2,1,016,1,+999,9","","","SYN060AAXX  30181 31725 4259/ 85202 10171 20164 49980 52016 85500;","Q01+010201WOSPD Q02+000052SCOTLC"
"31725099999","2000-07-30T21:00:00","4","48.6166666","133.8333333","52.0","SMIDOVICH, RS","FM-12","99999","V020","200,1,N,0020,1","00420,1,9,N","020000,1,N,1","+0180,1","+0169,1","09986,1","99,0000,2,1","","","","","","","08,99,1,06,1,03,1,00450,1,04,1,99,9","","","","","2,1,007,1,+999,9","","","SYN060AAXX  30211 31725 32498 82002 10180 20169 49986 52007 8634/;",
"31725099999","2000-07-31T00:00:00","4","48.6166666","133.8333333","52.0","SMIDOVICH, RS","FM-12","99999","V020","230,1,N,0030,1","09000,1,9,N","020000,1,N,1","+0204,1","+0163,1","09995,1","99,0000,9,1","","","","","","","05,99,1,02,1,03,1,00450,1,04,1,02,1","","","999,N,+0167,1","99999,9,09934,1","2,1,009,1,+999,9","","","SYN076AAXX  31001 31725 32498 52303 10204 20163 39934 49995 52009 82342 333 20167;","Q01  00002PRCP99"
"31725099999","2000-07-31T03:00:00","4","48.6166666","133.8333333","52.0","SMIDOVICH, RS","FM-12","99999","V020","230,1,N,0030,1","00420,1,9,N","010000,1,N,1","+0221,1","+0165,1","09998,1","","","","","","","","08,99,1,07,1,03,1,00450,1,02,1,99,9","","","","","2,1,003,1,+999,9","","","SYN060AAXX  31031 31725 42497 82303 10221 20165 49998 52003 8732/;",
"31725099999","2000-07-31T06:00:00","4","48.6166666","133.8333333","52.0","SMIDOVICH, RS","FM-12","99999","V020","230,1,N,0020,1","00420,1,9,N","020000,1,N,1","+0224,1","+0167,1","10012,1","","","","","","","","07,99,1,07,1,03,1,00450,1,00,1,00,1","","","","","2,1,014,1,+999,9","","","SYN060AAXX  31061 31725 42498 72302 10224 20167 40012 52014 87300;",
"31725099999","2000-07-31T09:00:00","4","48.6166666","133.8333333","52.0","SMIDOVICH, RS","FM-12","99999","V020","230,1,N,0010,1","03600,1,9,N","020000,1,N,1","+0225,1","+0181,1","10022,1","99,0000,9,1","","","","","","","08,99,1,02,1,05,1,00450,1,04,1,02,1","","","999,M,+0240,1","","2,1,010,1,+999,9","","","SYN070AAXX  31091 31725 32498 82301 10225 20181 40022 52010 82542 333 10240;","Q01  00002PRCP99"
"31725099999","2000-07-31T12:00:00","4","48.6166666","133.8333333","52.0","SMIDOVICH, RS","FM-12","99999","V020","230,1,N,0010,1","99999,9,9,N","020000,1,N,1","+0194,1","+0176,1","10035,1","99,0000,9,1","","","","","","","07,99,1,05,1,00,1,99999,9,04,1,02,1","","","999,M,+0240,1","99999,9,09974,1","2,1,013,1,+999,9","","","SYN076AAXX  31121 31725 32998 72301 10194 20176 39974 40035 52013 85042 333 10240;","Q01  00002PRCP99"
"31725099999","2000-07-31T15:00:00","4","48.6166666","133.8333333","52.0","SMIDOVICH, RS","FM-12","99999","V020","230,1,N,0010,1","00420,1,9,N","020000,1,N,1","+0190,1","+0175,1","10045,1","","","","","","","","08,99,1,06,1,05,1,00450,1,04,1,99,9","","","","","2,1,010,1,+999,9","","","SYN060AAXX  31151 31725 42498 82301 10190 20175 40045 52010 8654/;",
"31725099999","2000-07-31T18:00:00","4","48.6166666","133.8333333","52.0","SMIDOVICH, RS","FM-12","99999","V020","999,9,C,0000,1","00030,1,9,N","000500,1,N,1","+0175,1","+0165,1","10046,1","","","","4,1,06,1","4,1,06,1","","09,1,+99999,9,99,9","09,99,1,09,1,99,9,99999,9,99,9,99,9","","","","","1,1,001,1,+999,9","45,1","","SYN060AAXX  31181 31725 41/93 90000 10175 20165 40046 51001 74544;",
"31725099999","2000-07-31T21:00:00","4","48.6166666","133.8333333","52.0","SMIDOVICH, RS","FM-12","99999","V020","999,9,C,0000,1","00030,1,9,N","000500,1,N,1","+0182,1","+0174,1","10046,1","99,0000,9,1","","","4,1,03,1","4,1,03,1","","09,1,+99999,9,99,9","09,99,1,09,1,99,9,99999,9,99,9,99,9","","","","","4,1,000,1,+999,9","45,1","","SYN060AAXX  31211 31725 31/93 90000 10182 20174 40046 54000 74544;","Q01  00002PRCP99"
"31725099999","2000-08-01T00:00:00","4","48.6166666","133.8333333","52.0","SMIDOVICH, RS","FM-12","99999","V020","050,1,N,0010,1","00060,1,9,N","001000,1,N,1","+0193,1","+0180,1","10062,1","99,0000,9,1","","","4,1,06,1","4,1,06,1","","09,1,+99999,9,99,9","09,99,1,09,1,99,9,99999,9,99,9,99,9","","","999,N,+0162,1","99999,9,10001,1","3,1,016,1,+999,9","43,1","","SYN076AAXX  01001 31725 31/94 90501 10193 20180 30001 40062 53016 74344 333 20162;","Q01  00002PRCP99"
"31725099999","2000-08-01T03:00:00","4","48.6166666","133.8333333","52.0","SMIDOVICH, RS","FM-12","99999","V020","360,1,N,0020,1","00420,1,9,N","020000,1,N,1","+0226,1","+0185,1","10057,1","","","","4,1,03,1","2,1,03,1","","","06,99,1,06,1,03,1,00450,1,00,1,00,1","","","","","8,1,005,1,+999,9","01,1","","SYN066AAXX  01031 31725 41498 63602 10226 20185 40057 58005 70142 86300;",
"31725099999","2000-08-01T06:00:00","4","48.6166666","133.8333333","52.0","SMIDOVICH, RS","FM-12","99999","V020","020,1,N,0020,1","00420,1,9,N","020000,1,N,1","+0251,1","+0178,1","10056,1","","","","4,1,06,1","2,1,06,1","","","06,99,1,05,1,05,1,00450,1,00,1,02,1","","","","","6,1,001,1,+999,9","02,1","","SYN066AAXX  01061 31725 41498 60202 10251 20178 40056 56001 70242 85502;",
"31725099999","2000-08-01T09:00:00","4","48.6166666","133.8333333","52.0","SMIDOVICH, RS","FM-12","99999","V020","050,1,N,0020,1","22000,1,9,N","050000,1,N,1","+0250,1","+0168,1","10057,1","99,0000,9,1","","","","","","","02,99,1,02,1,05,1,00450,1,00,1,02,1","","","999,M,+0254,1","","3,1,001,1,+999,9","","","SYN070AAXX  01091 31725 32499 20502 10250 20168 40057 53001 82502 333 10254;","Q01  00002PRCP99"
"31725099999","2000-08-01T12:00:00","4","48.6166666","133.8333333","52.0","SMIDOVICH, RS","FM-12","99999","V020","999,9,C,0000,1","22000,1,9,N","020000,1,N,1","+0215,1","+0173,1","10077,1","99,0000,9,1","","","","","","","02,99,1,02,1,05,1,00450,1,00,1,02,1","","","999,M,+0254,1","99999,9,10016,1","2,1,020,1,+999,9","","","SYN076AAXX  01121 31725 32498 20000 10215 20173 30016 40077 52020 82502 333 10254;","Q01  00002PRCP99"
"31725099999","2000-08-01T15:00:00","4","48.6166666","133.8333333","52.0","SMIDOVICH, RS","FM-12","99999","V020","999,9,C,0000,1","22000,1,9,N","020000,1,N,1","+0184,1","+0159,1","10089,1","","","","","","","00,1,+99999,9,99,9","00,99,1,00,1,00,1,99999,9,00,1,00,1","","","","","2,1,012,1,+999,9","","","SYN054AAXX  01151 31725 42998 00000 10184 20159 40089 52012;",
"31725099999","2000-08-01T18:00:00","4","48.6166666","133.8333333","52.0","SMIDOVICH, RS","FM-12","99999","V020","999,9,C,0000,1","22000,1,9,N","020000,1,N,1","+0167,1","+0153,1","10093,1","","","","","","","","02,99,1,02,1,00,1,99999,9,04,1,00,1","","","","","2,1,003,1,+999,9","","","SYN060AAXX  01181 31725 42998 20000 10167 20153 40093 52003 82040;",
"31725099999","2000-08-01T21:00:00","4","48.6166666","133.8333333","52.0","SMIDOVICH, RS","FM-12","99999","V020","999,9,C,0000,1","22000,1,9,N","020000,1,N,1","+0166,1","+0154,1","10106,1","99,0000,9,1","","","0,1,03,1","0,1,03,1","","","03,99,1,02,1,05,1,00450,1,04,1,02,1","","","","","2,1,013,1,+999,9","12,1","","SYN066AAXX  01211 31725 31498 30000 10166 20154 40106 52013 71200 82542;","Q01  00002PRCP99"
"31725099999","2000-08-02T00:00:00","4","48.6166666","133.8333333","52.0","SMIDOVICH, RS","FM-12","99999","V020","999,9,C,0000,1","03600,1,9,N","050000,1,N,1","+0212,1","+0181,1","10111,1","99,0000,9,1","","","","","","","07,99,1,04,1,05,1,00450,1,04,1,00,1","","","999,N,+0155,1","99999,9,10050,1","2,1,006,1,+999,9","","","SYN076AAXX  02001 31725 32499 70000 10212 20181 30050 40111 52006 84540 333 20155;","Q01  00002PRCP99"
"31725099999","2000-08-02T03:00:00","4","48.6166666","133.8333333","52.0","SMIDOVICH, RS","FM-12","99999","V020","250,1,N,0010,1","22000,1,9,N","050000,1,N,1","+0260,1","+0260,1","10113,1","","","","","","","","02,99,1,01,1,05,1,00800,1,04,1,00,1","","","","","2,1,003,1,+999,9","","","SYN060AAXX  02031 31725 42599 22501 10260 20260 40113 52003 81540;",
"31725099999","2000-08-02T06:00:00","4","48.6166666","133.8333333","52.0","SMIDOVICH, RS","FM-12","99999","V020","250,1,N,0030,1","22000,1,9,N","050000,1,N,1","+0266,1","+0182,1","10092,1","","","","","","","","04,99,1,03,1,05,1,00800,1,04,1,00,1","","","","","8,1,021,1,+999,9","","","SYN060AAXX  02061 31725 42599 42503 10266 20182 40092 58021 83540;",
"31725099999","2000-08-02T09:00:00","4","48.6166666","133.8333333","52.0","SMIDOVICH, RS","FM-12","99999","V020","290,1,N,0030,1","00420,1,9,N","050000,1,N,1","+0234,1","+0185,1","10104,1","99,0000,9,1","","","","","","","07,99,1,07,1,03,1,00450,1,00,1,00,1","","","120,M,+0281,1","","3,1,011,1,+999,9","","","SYN074AAXX  02091 31725 32499 72903 10234 20185 40104 53011 87300 333 10281 555;","Q01  00002PRCP99"
"31725099999","2000-08-02T12:00:00","4","48.6166666","133.8333333","52.0","SMIDOVICH, RS","FM-12","99999","V020","270,1,N,0010,1","22000,1,9,N","050000,1,N,1","+0205,1","+0177,1","10102,1","99,0000,9,1","","","","","","","03,99,1,03,1,05,1,00800,1,00,1,00,1","","","999,M,+0281,1","99999,9,10041,1","1,1,002,1,+999,9","","","SYN076AAXX  02121 31725 32599 32701 10205 20177 30041 40102 51002 83500 333 10281;","Q01  00002PRCP99"
"31725099999","2000-08-02T15:00:00","4","48.6166666","133.8333333","52.0","SMIDOVICH, RS","FM-12","99999","V020","270,1,N,0010,1","22000,1,9,N","050000,1,N,1","+0184,1","+0165,1","10108,1","","","","","","","00,1,+99999,9,99,9","00,99,1,00,1,00,1,99999,9,00,1,00,1","","","","","2,1,006,1,+999,9","","","SYN054AAXX  02151 31725 42999 02701 10184 20165 40108 52006;",
"31725099999","2000-08-02T18:00:00","4","48.6166666","133.8333333","52.0","SMIDOVICH, RS","FM-12","99999","V020","999,9,C,0000,1","22000,1,9,N","050000,1,N,1","+0167,1","+0155,1","10114,1","","","","","","","","01,99,1,99,9,01,1,99999,9,05,1,00,1","","","","","2,1,005,1,+999,9","","","SYN060AAXX  02181 31725 42999 10000 10167 20155 40114 52005 80150;","Q01+000002SCOTLC"
"31725099999","2000-08-02T21:00:00","4","48.6166666","133.8333333","52.0","SMIDOVICH, RS","FM-12","99999","V020","999,9,C,0000,1","22000,1,9,N","020000,1,N,1","+0162,1","+0150,1","10130,1","99,0000,9,1","","","","","","00,1,+99999,9,99,9","00,99,1,00,1,00,1,99999,9,00,1,00,1","","","","","2,1,016,1,+999,9","","","SYN054AAXX  02211 31725 32998 00000 10162 20150 40130 52016;","Q01  00002PRCP99"
"31725099999","2000-08-03T00:00:00","4","48.6166666","133.8333333","52.0","SMIDOVICH, RS","FM-12","99999","V020","230,1,N,0010,1","22000,1,9,N","020000,1,N,1","+0237,1","+0185,1","10126,1","99,0000,9,1","","","","","","00,1,+99999,9,99,9","00,99,1,00,1,00,1,99999,9,00,1,00,1","","","999,N,+0153,1","99999,9,10065,1","8,1,003,1,+999,9","","","SYN070AAXX  03001 31725 32998 02301 10237 20185 30065 40126 58003 333 20153;","Q01  00002PRCP99"
"31725099999","2000-08-03T03:00:00","4","48.6166666","133.8333333","52.0","SMIDOVICH, RS","FM-12","99999","V020","230,1,N,0020,1","22000,1,9,N","020000,1,N,1","+0267,1","+0206,1","10124,1","","","","","","","","02,99,1,02,1,05,1,00800,1,00,1,00,1","","","","","6,1,001,1,+999,9","","","SYN060AAXX  03031 31725 41598 22302 10267 20206 40124 56001 82500;",
"31725099999","2000-08-03T06:00:00","4","48.6166666","133.8333333","52.0","SMIDOVICH, RS","FM-12","99999","V020","230,1,N,0020,1","00750,1,9,N","020000,1,N,1","+0291,1","+0186,1","10112,1","","","","","","","","05,99,1,05,1,05,1,00800,1,00,1,00,1","","","","","3,1,003,1,+999,9","","","SYN060AAXX  03061 31725 42598 52302 10291 20186 40112 53003 85500;",
"31725099999","2000-08-03T09:00:00","4","48.6166666","133.8333333","52.0","SMIDOVICH, RS","FM-12","99999","V020","230,1,N,0010,1","03600,1,9,N","020000,1,N,1","+0275,1","+0184,1","10124,1","99,0000,9,1","","","","","","","06,99,1,03,1,03,1,00450,1,04,1,02,1","","","999,M,+0298,1","","2,1,007,1,+999,9","","","SYN070AAXX  03091 31725 32498 62301 10275 20184 40124 52007 83342 333 10298;","Q01  00002PRCP99"
"31725099999","2000-08-03T12:00:00","4","48.6166666","133.8333333","52.0","SMIDOVICH, RS","FM-12","99999","V020","999,9,C,0000,1","22000,1,9,N","020000,1,N,1","+0232,1","+0181,1","10031,2","99,0000,9,1","","","","","","","02,99,1,02,1,00,1,99999,9,04,1,00,1","","","999,M,+0298,1","99999,9,09970,1","2,1,006,1,+999,9","","","SYN076AAXX  03121 31725 32998 20000 10232 20181 39970 40031 52006 82040 333 10298;","Q01+100313APOSLPQ02  00002PRCP99"
"31725099999","2000-08-03T15:00:00","4","48.6166666","133.8333333","52.0","SMIDOVICH, RS","FM-12","99999","V020","999,9,9,9999,9","22000,1,9,N","020000,1,N,1","+0212,1","+0175,1","10035,1","","","","","","","00,1,+99999,9,99,9","00,99,1,00,1,00,1,99999,9,00,1,00,1","","","","","2,1,004,1,+999,9","","","SYN054AAXX  03151 31725 42998 0000/ 10212 20175 40035 52004;",
"31725099999","2000-08-03T18:00:00","4","48.6166666","133.8333333","52.0","SMIDOVICH, RS","FM-12","99999","V020","999,9,C,0000,1","22000,1,9,N","020000,1,N,1","+0186,1","+0171,1","10036,1","","","","","","","00,1,+99999,9,99,9","00,99,1,00,1,00,1,99999,9,00,1,00,1","","","","","4,1,000,1,+999,9","","","SYN054AAXX  03181 31725 42998 00000 10186 20171 40036 54001;",
"31725099999","2000-08-03T21:00:00","4","48.6166666","133.8333333","52.0","SMIDOVICH, RS","FM-12","99999","V020","230,1,N,0010,1","22000,1,9,N","020000,1,N,1","+0182,1","+0162,1","10053,1","99,0000,9,1","","","","","","00,1,+99999,9,99,9","00,99,1,00,1,00,1,99999,9,00,1,00,1","","","","","3,1,017,1,+999,9","","","SYN054AAXX  03211 31725 32998 02301 10182 20162 40053 53017;","Q01  00002PRCP99"
"31725099999","2000-08-04T00:00:00","4","48.6166666","133.8333333","52.0","SMIDOVICH, RS","FM-12","99999","V020","050,1,N,0010,1","22000,1,9,N","050000,1,N,1","+0240,1","+0193,1","10155,2","99,0000,9,1","","","","","","00,1,+99999,9,99,9","00,99,1,00,1,00,1,99999,9,00,1,00,1","","","999,N,+0167,1","99999,9,10094,1","1,1,002,1,+999,9","","","SYN070AAXX  04001 31725 32999 00501 10240 20193 30094 40155 51002 333 20167;","Q01+101553APOSLPQ02  00002PRCP99"
"31725099999","2000-08-04T03:00:00","4","48.6166666","133.8333333","52.0","SMIDOVICH, RS","FM-12","99999","V020","320,1,N,0010,1","22000,1,9,N","050000,1,N,1","+0274,1","+0192,1","10149,1","","","","","","","","01,99,1,01,1,05,1,00450,1,00,1,00,1","","","","","8,1,005,1,+999,9","","","SYN060AAXX  04031 31725 42499 13201 10274 20192 40149 58005 81500;",
"31725099999","2000-08-04T06:00:00","4","48.6166666","133.8333333","52.0","SMIDOVICH, RS","FM-12","99999","V020","270,1,N,0010,1","22000,1,9,N","050000,1,N,1","+0295,1","+0174,1","10141,1","","","","","","","","03,99,1,02,1,05,1,00450,1,00,1,02,1","","","","","7,1,008,1,+999,9","","","SYN060AAXX  04061 31725 42499 32701 10295 20174 40141 57008 82502;",
"31725099999","2000-08-04T09:00:00","4","48.6166666","133.8333333","52.0","SMIDOVICH, RS","FM-12","99999","V020","270,1,N,0010,1","22000,1,9,N","050000,1,N,1","+0291,1","+0187,1","10133,1","99,0000,9,1","","","","","","","03,99,1,01,1,05,1,00450,1,00,1,02,1","","","999,M,+0300,1","","7,1,008,1,+999,9","","","SYN070AAXX  04091 31725 32499 32701 10291 20187 40133 57008 81502 333 10300;","Q01  00002PRCP99"
"31725099999","2000-08-04T12:00:00","4","48.6166666","133.8333333","52.0","SMIDOVICH, RS","FM-12","99999","V020","999,9,C,0000,1","22000,1,9,N","050000,1,N,1","+0229,1","+0203,1","10139,1","99,0000,9,1","","","","","","","02,99,1,01,1,00,1,99999,9,04,1,02,1","","","999,M,+0300,1","99999,9,10078,1","3,1,005,1,+999,9","","","SYN076AAXX  04121 31725 32999 20000 10229 20203 30078 40139 53005 81042 333 10300;","Q01  00002PRCP99"
"31725099999","2000-08-04T15:00:00","4","48.6166666","133.8333333","52.0","SMIDOVICH, RS","FM-12","99999","V020","999,9,C,0000,1","22000,1,9,N","050000,1,N,1","+0206,1","+0187,1","10141,1","","","","","","","00,1,+99999,9,99,9","00,99,1,00,1,00,1,99999,9,00,1,00,1","","","","","1,1,002,1,+999,9","","","SYN054AAXX  04151 31725 42999 00000 10206 20187 40141 51002;",
"31725099999","2000-08-04T18:00:00","4","48.6166666","133.8333333","52.0","SMIDOVICH, RS","FM-12","99999","V020","999,9,C,0000,1","22000,1,9,N","020000,1,N,1","+0194,1","+0181,1","10139,1","","","","","","","00,1,+99999,9,99,9","00,99,1,00,1,00,1,99999,9,00,1,00,1","","","","","8,1,002,1,+999,9","","","SYN054AAXX  04181 31725 42998 00000 10194 20181 40139 58002;",
"31725099999","2000-08-04T21:00:00","4","48.6166666","133.8333333","52.0","SMIDOVICH, RS","FM-12","99999","V020","999,9,C,0000,1","22000,1,9,N","000500,1,N,1","+0177,1","+0167,1","99999,9","99,0000,9,1","","","4,1,03,1","0,1,03,1","","00,1,+99999,9,99,9","00,99,1,00,1,00,1,99999,9,00,1,00,1","","","","","3,1,001,1,+999,9","44,1","","SYN060AAXX  04211 31725 31993 00000 10177 20167 40040 53001 74540;","Q01+100403APOSLPQ02+000452PRSWM1Q03  00002PRCP99"
"31725099999","2000-08-05T00:00:00","4","48.6166666","133.8333333","52.0","SMIDOVICH, RS","FM-12","99999","V020","230,1,N,0020,1","22000,1,9,N","020000,1,N,1","+0260,1","+0215,1","10147,1","99,0000,9,1","","","4,1,06,1","0,1,06,1","","","02,99,1,02,1,05,1,00800,1,00,1,00,1","","","999,N,+0168,1","99999,9,10087,1","2,1,008,1,+999,9","02,1","","SYN082AAXX  05001 31725 31598 22302 10260 20215 30087 40147 52008 70240 82500 333 20168;","Q01  00002PRCP99"
"31725099999","2000-08-05T09:00:00","4","48.6166666","133.8333333","52.0","SMIDOVICH, RS","FM-12","99999","V020","230,1,N,0020,1","99999,9,9,N","020000,1,N,1","+0262,1","+0162,1","10115,1","","","","","","","","08,99,1,03,1,00,1,99999,9,04,1,02,1","","","999,M,+0297,1","","7,1,005,1,+999,9","","","SYN070AAXX  05091 31725 /2998 82302 10262 20162 40115 57005 83042 333 10297;",
"31725099999","2000-08-05T15:00:00","4","48.6166666","133.8333333","52.0","SMIDOVICH, RS","FM-12","99999","V020","999,9,C,0000,1","22000,1,9,N","020000,1,N,1","+0184,1","+0169,1","10120,1","","","","0,1,03,1","0,1,03,1","","","03,99,1,03,1,03,1,00450,1,00,1,00,1","","","","","1,1,002,1,+999,9","13,1","","SYN066AAXX  05151 31725 41498 30000 10184 20169 40120 51002 71300 83300;",
"31725099999","2000-08-05T18:00:00","4","48.6166666","133.8333333","52.0","SMIDOVICH, RS","FM-12","99999","V020","999,9,C,0000,1","22000,1,9,N","020000,1,N,1","+0180,1","+0165,1","10117,1","","","","","","","00,1,+99999,9,99,9","00,99,1,00,1,00,1,99999,9,00,1,00,1","","","","","8,1,003,1,+999,9","","","SYN054AAXX  05181 31725 42998 00000 10180 20165 40117 58003;",
"31725099999","2000-08-05T21:00:00","4","48.6166666","133.8333333","52.0","SMIDOVICH, RS","FM-12","99999","V020","999,9,C,0000,1","22000,1,9,N","020000,1,N,1","+0186,1","+0171,1","10119,1","99,0000,9,1","","","","","","00,1,+99999,9,99,9","00,99,1,00,1,00,1,99999,9,00,1,00,1","","","","","3,1,002,1,+999,9","","","SYN054AAXX  05211 31725 32998 00000 10186 20171 40119 53002;","Q01  00002PRCP99"
"31725099999","2000-08-06T00:00:00","4","48.6166666","133.8333333","52.0","SMIDOVICH, RS","FM-12","99999","V020","230,1,N,0020,1","22000,1,9,N","020000,1,N,1","+0245,1","+0204,1","10119,1","99,0000,9,1","","","","","","00,1,+99999,9,99,9","00,99,1,00,1,00,1,99999,9,00,1,00,1","","","999,N,+0172,1","99999,9,10058,1","4,1,000,1,+999,9","","","SYN070AAXX  06001 31725 32998 02302 10245 20204 30058 40119 54000 333 20172;","Q01  00002PRCP99"
"31725099999","2000-08-06T06:00:00","4","48.6166666","133.8333333","52.0","SMIDOVICH, RS","FM-12","99999","V020","230,1,N,0020,1","22000,1,9,N","020000,1,N,1","+0290,1","+0209,1","10091,1","","","","","","","","02,99,1,02,1,05,1,00450,1,00,1,00,1","","","","","7,1,016,1,+999,9","","","SYN060AAXX  06061 31725 42498 22302 10290 20209 40091 57016 82500;",
"31725099999","2000-08-06T09:00:00","4","48.6166666","133.8333333","52.0","SMIDOVICH, RS","FM-12","99999","V020","230,1,N,0020,1","03600,1,9,N","020000,1,N,1","+0260,1","+0214,1","10094,1","99,0000,9,1","","","","","","","08,99,1,03,1,03,1,00450,1,04,1,02,1","","","999,M,+0296,1","","3,1,003,1,+999,9","","","SYN070AAXX  06091 31725 32498 82302 10260 20214 40094 53003 83342 333 10296;","Q01  00002PRCP99"
"31725099999","2000-08-06T12:00:00","4","48.6166666","133.8333333","52.0","SMIDOVICH, RS","FM-12","99999","V020","230,1,N,0010,1","99999,9,9,N","020000,1,N,1","+0225,1","+0206,1","10105,1","99,0000,9,1","","","1,1,06,1","1,1,06,1","","","06,99,1,99,9,03,1,00450,1,99,9,99,9","","","999,M,+0296,1","99999,9,10044,1","2,1,010,1,+999,9","13,1","","SYN082AAXX  06121 31725 31498 62301 10225 20206 30044 40105 52010 71311 873// 333 10296;","Q01+000072SCOTLCQ02  00002PRCP99"
"31725099999","2000-08-06T15:00:00","4","48.6166666","133.8333333","52.0","SMIDOVICH, RS","FM-12","99999","V020","230,1,N,0020,1","00420,1,9,N","020000,1,N,1","+0203,1","+0192,1","10105,1","","","","9,1,03,1","8,1,03,1","","","08,99,1,08,1,03,1,00450,1,99,9,99,9","","","","","8,1,002,1,+999,9","29,1","","SYN066AAXX  06151 31725 41498 82302 10203 20192 40105 58002 72998 883//;",
"31725099999","2000-08-06T18:00:00","4","48.6166666","133.8333333","52.0","SMIDOVICH, RS","FM-12","99999","V020","999,9,C,0000,1","22000,1,9,N","020000,1,N,1","+0204,1","+0190,1","10099,1","","","","9,1,06,1","8,1,06,1","","","02,99,1,02,1,00,1,00450,1,04,1,00,1","","","","","7,1,001,1,+999,9","01,1","","SYN066AAXX  06181 31725 41498 20000 10204 20190 40099 57001 70198 82040;",
"31725099999","2000-08-06T21:00:00","4","48.6166666","133.8333333","52.0","SMIDOVICH, RS","FM-12","99999","V020","999,9,C,0000,1","22000,1,9,N","004000,1,N,1","+0184,1","+0174,1","10102,1","","","","0,1,03,1","0,1,03,1","","","03,99,1,03,1,00,1,99999,9,04,1,00,1","","","","","3,1,003,1,+999,9","10,1","","SYN066AAXX  06211 31725 /1996 30000 10184 20174 40102 53003 71000 83040;",
"31725099999","2000-08-07T00:00:00","4","48.6166666","133.8333333","52.0","SMIDOVICH, RS","FM-12","99999","V020","250,1,N,0010,1","03600,1,9,N","010000,1,N,1","+0234,1","+0206,1","10114,1","00,0089,9,1","","","","","","","06,99,1,04,1,03,1,00450,1,04,1,00,1","","","999,N,+0178,1","99999,9,10053,1","2,1,012,1,+999,9","","","SYN082AAXX  07001 31725 12497 62501 10234 20206 30053 40114 52012 60090 84340 333 20178;",
"31725099999","2000-08-07T03:00:00","4","48.6166666","133.8333333","52.0","SMIDOVICH, RS","FM-12","99999","V020","320,1,N,0010,1","22000,1,9,N","020000,1,N,1","+0282,1","+0186,1","10098,1","","","","","","","","01,99,1,01,1,05,1,00800,1,00,1,00,1","","","","","8,1,015,1,+999,9","","","SYN060AAXX  07031 31725 42598 13201 10282 20186 40098 58015 81500;",
"31725099999","2000-08-07T06:00:00","4","48.6166666","133.8333333","52.0","SMIDOVICH, RS","FM-12","99999","V020","320,1,N,0030,1","03600,1,9,N","020000,1,N,1","+0308,1","+0181,1","10091,1","","","","","","","","06,99,1,03,1,03,1,00450,1,04,1,02,1","","","","","7,1,007,1,+999,9","","","SYN060AAXX  07061 31725 42498 63203 10308 20181 40091 57007 83342;",
"31725099999","2000-08-07T09:00:00","4","48.6166666","133.8333333","52.0","SMIDOVICH, RS","FM-12","99999","V020","090,1,N,0010,1","99999,9,9,N","020000,1,N,1","+0290,1","+0224,1","10101,1","99,0000,9,1","","","","","","","06,99,1,99,9,03,1,00450,1,00,1,00,1","","","120,M,+0313,1","","3,1,010,1,+999,9","","","SYN074AAXX  07091 31725 32498 60901 10290 20224 40101 53010 82300 333 10313 555;","Q01+000022SCOTLCQ02  00002PRCP99"
"31725099999","2000-08-07T12:00:00","4","48.6166666","133.8333333","52.0","SMIDOVICH, RS","FM-12","99999","V020","999,9,C,0000,1","00420,1,9,N","020000,1,N,1","+0262,1","+0225,1","10103,1","99,0000,9,1","","","","","","","07,99,1,99,9,03,1,00450,1,00,1,00,1","","","999,M,+0313,1","99999,9,10043,1","1,1,002,1,+999,9","","","SYN076AAXX  07121 31725 32498 70000 10262 20225 30043 40103 51002 86300 333 10313;","Q01+000062SCOTLCQ02  00002PRCP99"
"31725099999","2000-08-07T15:00:00","4","48.6166666","133.8333333","52.0","SMIDOVICH, RS","FM-12","99999","V020","020,1,N,0030,1","22000,1,9,N","999999,9,N,1","+0225,1","+0190,1","10138,1","","","","","","","","01,99,1,01,1,05,1,99999,9,00,1,00,1","","","","","2,1,034,1,+999,9","","","SYN060AAXX  07151 31725 4298/ 10203 10225 20190 40138 52034 81500;",
"31725099999","2000-08-07T18:00:00","4","48.6166666","133.8333333","52.0","SMIDOVICH, RS","FM-12","99999","V020","320,1,N,0030,1","22000,1,9,N","020000,1,N,1","+0205,1","+0184,1","10148,1","","","","","","","","01,99,1,01,1,05,1,00800,1,00,1,00,1","","","","","2,1,010,1,+999,9","","","SYN060AAXX  07181 31725 42598 13203 10205 20184 40148 52010 81500;",
"31725099999","2000-08-07T21:00:00","4","48.6166666","133.8333333","52.0","SMIDOVICH, RS","FM-12","99999","V020","360,1,N,0030,1","22000,1,9,N","050000,1,N,1","+0196,1","+0174,1","10205,1","99,0000,9,1","","","","","","","03,99,1,03,1,03,1,00450,1,00,1,00,1","","","","","2,1,057,1,+999,9","","","SYN060AAXX  07211 31725 32499 33603 10196 20174 40205 52057 83300;","Q01  00002PRCP99"
"31725099999","2000-08-08T00:00:00","4","48.6166666","133.8333333","52.0","SMIDOVICH, RS","FM-12","99999","V020","360,1,N,0020,1","03600,1,9,N","020000,1,N,1","+0231,1","+0160,1","10155,1","99,0000,9,1","","","","","","","05,99,1,03,1,05,1,00800,1,04,1,00,1","","","999,N,+0183,1","99999,9,10094,1","4,1,000,1,+999,9","","","SYN076AAXX  08001 31725 32598 53602 10231 20160 30094 40155 54000 83540 333 20183;","Q01  00002PRCP99"
"31725099999","2000-08-08T03:00:00","4","48.6166666","133.8333333","52.0","SMIDOVICH, RS","FM-12","99999","V020","050,1,N,0030,1","22000,1,9,N","020000,1,N,1","+0261,1","+0152,1","10155,1","","","","","","","","03,99,1,03,1,00,1,99999,9,04,1,02,1","","","","","4,1,000,1,+999,9","","","SYN060AAXX  08031 31725 42998 30503 10261 20152 40155 54000 83042;",
"31725099999","2000-08-08T06:00:00","4","48.6166666","133.8333333","52.0","SMIDOVICH, RS","FM-12","99999","V020","050,1,N,0020,1","22000,1,9,N","020000,1,N,1","+0266,1","+0149,1","10138,1","","","","","","","","03,99,1,03,1,00,1,99999,9,04,1,02,1","","","","","8,1,016,1,+999,9","","","SYN060AAXX  08061 31725 42998 30502 10266 20149 40138 58016 83042;",
"31725099999","2000-08-08T09:00:00","4","48.6166666","133.8333333","52.0","SMIDOVICH, RS","FM-12","99999","V020","999,9,C,0000,1","99999,9,9,N","020000,1,N,1","+0266,1","+0177,1","10129,1","99,0000,9,1","","","","","","","05,99,1,00,1,00,1,99999,9,00,1,02,1","","","999,M,+0279,1","","7,1,009,1,+999,9","","","SYN070AAXX  08091 31725 32998 50000 10266 20177 40129 57009 80002 333 10279;","Q01  00002PRCP99"
"31725099999","2000-08-08T12:00:00","4","48.6166666","133.8333333","52.0","SMIDOVICH, RS","FM-12","99999","V020","999,9,C,0000,1","03600,1,9,N","020000,1,N,1","+0226,1","+0181,1","10130,1","99,0000,9,1","","","","","","","08,99,1,02,1,03,1,00450,1,04,1,01,1","","","999,M,+0279,1","99999,9,10069,1","4,1,000,1,+999,9","","","SYN076AAXX  08121 31725 32498 80000 10226 20181 30069 40130 54000 82341 333 10279;","Q01  00002PRCP99"
"31725099999","2000-08-08T15:00:00","4","48.6166666","133.8333333","52.0","SMIDOVICH, RS","FM-12","99999","V020","999,9,C,0000,1","99999,9,9,N","020000,1,N,1","+0208,1","+0184,1","10130,1","","","","","","","","08,99,1,05,1,00,1,99999,9,04,1,02,1","","","","","4,1,000,1,+999,9","","","SYN060AAXX  08151 31725 42998 80000 10208 20184 40130 54000 85042;",
"31725099999","2000-08-08T18:00:00","4","48.6166666","133.8333333","52.0","SMIDOVICH, RS","FM-12","99999","V020","999,9,C,0000,1","00420,1,9,N","020000,1,N,1","+0205,1","+0170,1","10119,1","","","","2,1,06,1","2,1,06,1","","","08,99,1,05,1,03,1,00450,1,04,1,01,1","","","","","8,1,011,1,+999,9","13,1","","SYN066AAXX  08181 31725 41498 80000 10205 20170 40119 58011 71322 85341;",
"31725099999","2000-08-08T21:00:00","4","48.6166666","133.8333333","52.0","SMIDOVICH, RS","FM-12","99999","V020","050,1,N,0010,1","00420,1,9,N","020000,1,N,1","+0200,1","+0172,1","10119,1","99,0000,9,1","","","9,1,03,1","2,1,03,1","","","08,99,1,08,1,03,1,00450,1,99,9,99,9","","","","","4,1,000,1,+999,9","17,1","","SYN066AAXX  08211 31725 31498 80501 10200 20172 40119 54000 71792 883//;","Q01  00002PRCP99"
"31725099999","2000-08-09T00:00:00","4","48.6166666","133.8333333","52.0","SMIDOVICH, RS","FM-12","99999","V020","140,1,N,0010,1","99999,9,9,N","020000,1,N,1","+0222,1","+0194,1","10107,1","","","","9,1,06,1","8,1,06,1","","09,1,+99999,9,99,9","09,99,1,09,1,99,9,99999,9,99,9,99,9","","","999,N,+0189,1","99999,9,09946,1","8,1,012,1,+999,9","01,1","","SYN082AAXX  09001 31725 11498 91401 10222 20194 39946 40107 58012 70198 85302 333 20189;",
"31725099999","2000-08-09T03:00:00","4","48.6166666","133.8333333","52.0","SMIDOVICH, RS","FM-12","99999","V020","230,1,N,0020,1","99999,9,9,N","020000,1,N,1","+0282,1","+0212,1","10090,1","","","","","","","09,1,+99999,9,99,9","09,99,1,09,1,99,9,99999,9,99,9,99,9","","","","","7,1,016,1,+999,9","","","SYN060AAXX  09031 31725 42498 92302 10282 20212 40090 57016 82502;",
"31725099999","2000-08-09T06:00:00","4","48.6166666","133.8333333","52.0","SMIDOVICH, RS","FM-12","99999","V020","230,1,N,0020,1","99999,9,9,N","020000,1,N,1","+0288,1","+0220,1","10071,1","","","","","","","09,1,+99999,9,99,9","09,99,1,09,1,99,9,99999,9,99,9,99,9","","","","","7,1,019,1,+999,9","","","SYN060AAXX  09061 31725 42498 92302 10288 20220 40071 57019 8254/;",
"31725099999","2000-08-09T09:00:00","4","48.6166666","133.8333333","52.0","SMIDOVICH, RS","FM-12","99999","V020","200,1,N,0020,1","00420,1,9,N","020000,1,N,1","+0278,1","+0244,1","10052,1","","","","","","","","08,99,1,08,1,03,1,00450,1,99,9,99,9","","","999,M,+0288,1","","7,1,019,1,+999,9","","","SYN070AAXX  09091 31725 /2498 82002 10278 20244 40052 57019 883// 333 10288;",
"31725099999","2000-08-09T12:00:00","4","48.6166666","133.8333333","52.0","SMIDOVICH, RS","FM-12","99999","V020","230,1,N,0010,1","00420,1,9,N","010000,1,N,1","+0237,1","+0211,1","10058,1","00,0010,9,1","","","9,1,06,1","8,1,06,1","","","08,99,1,08,1,03,1,00450,1,99,9,99,9","","","999,M,+0288,1","99999,9,09997,1","3,1,005,1,+999,9","95,1","","SYN088AAXX  09121 31725 11497 82301 10237 20211 39997 40058 53005 60010 79598 883// 333 10288;",
"31725099999","2000-08-09T15:00:00","4","48.6166666","133.8333333","52.0","SMIDOVICH, RS","FM-12","99999","V020","999,9,C,0000,1","99999,9,9,N","065000,1,N,1","+0220,1","+0204,1","10059,1","","","29,1","","","9,1,03,1","","08,99,1,99,9,03,1,99999,9,00,1,00,1","","","","","1,1,001,1,+999,9","","","SYN066AAXX  09151 31725 44987 80000 10220 20204 40059 51001 72998 87300;","Q01+000072SCOTLC"
"31725099999","2000-08-09T18:00:00","4","48.6166666","133.8333333","52.0","SMIDOVICH, RS","FM-12","99999","V020","999,9,C,0000,1","00420,1,9,N","020000,1,N,1","+0201,1","+0190,1","10046,1","","","","9,1,06,1","8,1,06,1","","","08,99,1,08,1,03,1,00450,1,99,9,99,9","","","","","8,1,003,1,+999,9","02,1","","SYN066AAXX  09181 31725 41498 80000 10201 20190 40046 58003 70298 883//;",
"31725099999","2000-08-09T21:00:00","4","48.6166666","133.8333333","52.0","SMIDOVICH, RS","FM-12","99999","V020","250,1,N,0010,1","00420,1,9,N","020000,1,N,1","+0196,1","+0183,1","10043,1","","","","","","","","08,99,1,06,1,03,1,00450,1,04,1,99,9","","","","","7,1,003,1,+999,9","","","SYN060AAXX  09211 31725 /2498 82501 10196 20183 40043 57003 8634/;",
"31725099999","2000-08-10T00:00:00","4","48.6166666","133.8333333","52.0","SMIDOVICH, RS","FM-12","99999","V020","250,1,N,0030,1","03600,1,9,N","020000,1,N,1","+0238,1","+0201,1","10039,1","00,0041,9,1","","","","","","","06,99,1,03,1,03,1,00450,1,04,1,00,1","","","999,N,+0189,1","99999,9,09978,1","7,1,004,1,+999,9","","","SYN082AAXX  10001 31725 12498 62503 10238 20201 39978 40039 57004 60040 83340 333 20189;",
"31725099999","2000-08-10T03:00:00","4","48.6166666","133.8333333","52.0","SMIDOVICH, RS","FM-12","99999","V020","340,1,N,0010,1","03600,1,9,N","020000,1,N,1","+0272,1","+0214,1","10025,1","","","","","","","","07,99,1,03,1,03,1,00450,1,04,1,00,1","","","","","7,1,013,1,+999,9","","","SYN060AAXX  10031 31725 42498 73401 10272 20214 40025 57013 83340;",
"31725099999","2000-08-10T06:00:00","4","48.6166666","133.8333333","52.0","SMIDOVICH, RS","FM-12","99999","V020","270,1,N,0030,1","22000,1,9,N","020000,1,N,1","+0292,1","+0212,1","10003,1","","","","","","","","03,99,1,99,9,03,1,00450,1,00,1,00,1","","","","","7,1,021,1,+999,9","","","SYN060AAXX  10061 31725 42498 32703 10292 20212 40003 57021 84300;","Q01+000042SCOTLC"
"31725099999","2000-08-10T09:00:00","4","48.6166666","133.8333333","52.0","SMIDOVICH, RS","FM-12","99999","V020","230,1,N,0020,1","22000,1,9,N","020000,1,N,1","+0275,1","+0224,1","09997,1","99,0000,9,1","","","","","","","01,99,1,01,1,05,1,00450,1,00,1,00,1","","","999,M,+0293,1","","7,1,006,1,+999,9","","","SYN070AAXX  10091 31725 32498 12302 10275 20224 49997 57006 81500 333 10293;","Q01  00002PRCP99"
"31725099999","2000-08-10T12:00:00","4","48.6166666","133.8333333","52.0","SMIDOVICH, RS","FM-12","99999","V020","230,1,N,0010,1","00420,1,9,N","020000,1,N,1","+0212,1","+0180,1","10012,1","99,0000,9,1","","","9,1,06,1","8,1,06,1","","","06,99,1,06,1,03,1,00450,1,00,1,00,1","","","999,M,+0293,1","99999,9,09951,1","3,1,013,1,+999,9","17,1","","SYN082AAXX  10121 31725 31498 62301 10212 20180 39951 40012 53013 71798 86300 333 10293;","Q01  00002PRCP99"
"31725099999","2000-08-10T15:00:00","4","48.6166666","133.8333333","52.0","SMIDOVICH, RS","FM-12","99999","V020","999,9,C,0000,1","22000,1,9,N","020000,1,N,1","+0204,1","+0175,1","10033,1","","","","9,1,03,1","1,1,03,1","","","02,99,1,02,1,00,1,99999,9,04,1,00,1","","","","","2,1,021,1,+999,9","01,1","","SYN066AAXX  10151 31725 41998 20000 10204 20175 40033 52021 70191 82040;",
"31725099999","2000-08-10T18:00:00","4","48.6166666","133.8333333","52.0","SMIDOVICH, RS","FM-12","99999","V020","999,9,C,0000,1","22000,1,9,N","020000,1,N,1","+0180,1","+0154,1","10038,1","","","","9,1,06,1","1,1,06,1","","00,1,+99999,9,99,9","00,99,1,00,1,00,1,99999,9,00,1,00,1","","","","","2,1,005,1,+999,9","01,1","","SYN060AAXX  10181 31725 41998 00000 10180 20154 40038 52005 70191;",
"31725099999","2000-08-10T21:00:00","4","48.6166666","133.8333333","52.0","SMIDOVICH, RS","FM-12","99999","V020","999,9,C,0000,1","22000,1,9,N","020000,1,N,1","+0174,1","+0153,1","10051,1","","","","","","","00,1,+99999,9,99,9","00,99,1,00,1,00,1,99999,9,00,1,00,1","","","","","2,1,012,1,+999,9","","","SYN054AAXX  10211 31725 /2998 00000 10174 20153 40051 52012;",
"31725099999","2000-08-11T00:00:00","4","48.6166666","133.8333333","52.0","SMIDOVICH, RS","FM-12","99999","V020","999,9,C,0000,1","22000,1,9,N","050000,1,N,1","+0235,1","+0167,1","10058,1","00,0020,9,1","","","","","","00,1,+99999,9,99,9","00,99,1,00,1,00,1,99999,9,00,1,00,1","09,9","999,+0160,9","120,N,+0161,1","99999,9,09997,1","2,1,008,1,+999,9","","","SYN088AAXX  11001 31725 12999 00000 10235 20167 39997 40058 52008 60020 333 20161 31016 7002/;",
"31725099999","2000-08-11T03:00:00","4","48.6166666","133.8333333","52.0","SMIDOVICH, RS","FM-12","99999","V020","999,9,C,0000,1","22000,1,9,N","050000,1,N,1","+0269,1","+0157,1","10058,1","","","","","","","","02,99,1,02,1,05,1,00800,1,00,1,00,1","","","","","1,1,001,1,+999,9","","","SYN060AAXX  11031 31725 42599 20000 10269 20157 40058 51001 82500;",
"31725099999","2000-08-11T06:00:00","4","48.6166666","133.8333333","52.0","SMIDOVICH, RS","FM-12","99999","V020","999,9,C,0000,1","00420,1,9,N","050000,1,N,1","+0284,1","+0150,1","10058,1","","","","","","","","05,99,1,05,1,03,1,00450,1,00,1,00,1","","","","","4,1,000,1,+999,9","","","SYN060AAXX  11061 31725 42499 50000 10284 20150 40058 54000 85300;",
"31725099999","2000-08-11T09:00:00","4","48.6166666","133.8333333","52.0","SMIDOVICH, RS","FM-12","99999","V020","230,1,N,0010,1","22000,1,9,N","050000,1,N,1","+0266,1","+0176,1","10062,1","99,0000,9,1","","","","","","00,1,+99999,9,99,9","00,99,1,00,1,00,1,99999,9,00,1,00,1","","","999,M,+0287,1","","3,1,004,1,+999,9","","","SYN064AAXX  11091 31725 32999 02301 10266 20176 40062 53004 333 10287;","Q01  00002PRCP99"
"31725099999","2000-08-11T12:00:00","4","48.6166666","133.8333333","52.0","SMIDOVICH, RS","FM-12","99999","V020","230,1,N,0010,1","22000,1,9,N","050000,1,N,1","+0208,1","+0170,1","10067,1","99,0000,9,1","","","","","","00,1,+99999,9,99,9","00,99,1,00,1,00,1,99999,9,00,1,00,1","","","999,M,+0287,1","99999,9,10006,1","2,1,004,1,+999,9","","","SYN070AAXX  11121 31725 32999 02301 10208 20170 30006 40067 52004 333 10287;","Q01  00002PRCP99"
"31725099999","2000-08-11T15:00:00","4","48.6166666","133.8333333","52.0","SMIDOVICH, RS","FM-12","99999","V020","999,9,9,9999,9","22000,1,9,N","050000,1,N,1","+0184,1","+0165,1","10063,1","","","","","","","00,1,+99999,9,99,9","00,99,1,00,1,00,1,99999,9,00,1,00,1","","","","","8,1,004,1,+999,9","","","SYN054AAXX  11151 31725 42999 0000/ 10184 20165 40063 58004;",
"31725099999","2000-08-11T18:00:00","4","48.6166666","133.8333333","52.0","SMIDOVICH, RS","FM-12","99999","V020","270,1,N,0020,1","22000,1,9,N","020000,1,N,1","+0181,1","+0161,1","10070,1","","","","","","","00,1,+99999,9,99,9","00,99,1,00,1,00,1,99999,9,00,1,00,1","","","","","3,1,007,1,+999,9","","","SYN054AAXX  11181 31725 42998 02702 10181 20161 40070 53007;",
"31725099999","2000-08-11T21:00:00","4","48.6166666","133.8333333","52.0","SMIDOVICH, RS","FM-12","99999","V020","270,1,N,0020,1","22000,1,9,N","050000,1,N,1","+0195,1","+0159,1","10070,1","99,0000,9,1","","","","","","00,1,+99999,9,99,9","00,99,1,00,1,00,1,99999,9,00,1,00,1","","","","","4,1,000,1,+999,9","","","SYN054AAXX  11211 31725 32999 02702 10195 20159 40070 54000;","Q01  00002PRCP99"
"31725099999","2000-08-12T00:00:00","4","48.6166666","133.8333333","52.0","SMIDOVICH, RS","FM-12","99999","V020","290,1,N,0020,1","22000,1,9,N","050000,1,N,1","+0252,1","+0179,1","10075,1","99,0000,9,1","","","","","","00,1,+99999,9,99,9","00,99,1,00,1,00,1,99999,9,00,1,00,1","","","999,N,+0173,1","99999,9,10014,1","3,1,005,1,+999,9","","","SYN070AAXX  12001 31725 32999 02902 10252 20179 30014 40075 53005 333 20173;","Q01  00002PRCP99"
"31725099999","2000-08-12T03:00:00","4","48.6166666","133.8333333","52.0","SMIDOVICH, RS","FM-12","99999","V020","290,1,N,0020,1","22000,1,9,N","020000,1,N,1","+0298,1","+0180,1","10072,1","","","","","","","00,1,+99999,9,99,9","00,99,1,00,1,00,1,99999,9,00,1,00,1","","","","","8,1,002,1,+999,9","","","SYN054AAXX  12031 31725 42998 02902 10298 20180 40072 58002;",
"31725099999","2000-08-12T09:00:00","4","48.6166666","133.8333333","52.0","SMIDOVICH, RS","FM-12","99999","V020","270,1,N,0010,1","22000,1,9,N","020000,1,N,1","+0296,1","+0214,1","10061,1","99,0000,9,1","","","","","","00,1,+99999,9,99,9","00,99,1,00,1,00,1,99999,9,00,1,00,1","","","999,M,+0323,1","","7,1,004,1,+999,9","","","SYN064AAXX  12091 31725 32998 02701 10296 20214 40061 57004 333 10323;","Q01  00002PRCP99"
"31725099999","2000-08-12T12:00:00","4","48.6166666","133.8333333","52.0","SMIDOVICH, RS","FM-12","99999","V020","999,9,C,0000,1","22000,1,9,N","020000,1,N,1","+0226,1","+0198,1","10065,1","99,0000,9,1","","","","","","","01,99,1,00,1,00,1,99999,9,00,1,02,1","","","999,M,+0323,1","99999,9,10004,1","3,1,003,1,+999,9","","","SYN076AAXX  12121 31725 32998 10000 10226 20198 30004 40065 53003 80002 333 10323;","Q01  00002PRCP99"
"31725099999","2000-08-12T15:00:00","4","48.6166666","133.8333333","52.0","SMIDOVICH, RS","FM-12","99999","V020","270,1,N,0010,1","22000,1,9,N","020000,1,N,1","+0208,1","+0186,1","10066,1","","","","","","","","01,99,1,00,1,00,1,99999,9,00,1,02,1","","","","","1,1,001,1,+999,9","","","SYN060AAXX  12151 31725 42998 12701 10208 20186 40066 51001 80002;",
"31725099999","2000-08-12T18:00:00","4","48.6166666","133.8333333","52.0","SMIDOVICH, RS","FM-12","99999","V020","999,9,C,0000,1","22000,1,9,N","020000,1,N,1","+0189,1","+0173,1","10067,1","","","","","","","00,1,+99999,9,99,9","00,99,1,00,1,00,1,99999,9,00,1,00,1","","","","","1,1,001,1,+999,9","","","SYN054AAXX  12181 31725 42998 00000 10189 20173 40067 51001;",
"31725099999","2000-08-13T00:00:00","4","48.6166666","133.8333333","52.0","SMIDOVICH, RS","FM-12","99999","V020","230,1,N,0010,1","22000,1,9,N","020000,1,N,1","+0262,1","+0204,1","10071,1","99,0000,9,1","","","","","","00,1,+99999,9,99,9","00,99,1,00,1,00,1,99999,9,00,1,00,1","","","999,N,+0177,1","99999,9,10011,1","1,1,002,1,+999,9","","","SYN070AAXX  13001 31725 32998 02301 10262 20204 30011 40071 51002 333 20177;","Q01  00002PRCP99"
"31725099999","2000-08-13T06:00:00","4","48.6166666","133.8333333","52.0","SMIDOVICH, RS","FM-12","99999","V020","230,1,N,0030,1","99999,9,9,N","020000,1,N,1","+0312,1","+0204,1","10053,1","","","","","","","","08,99,1,00,1,00,1,99999,9,00,1,02,1","","","","","7,1,013,1,+999,9","","","SYN060AAXX  13061 31725 42998 82303 10312 20204 40053 57013 80002;",
"31725099999","2000-08-13T09:00:00","4","48.6166666","133.8333333","52.0","SMIDOVICH, RS","FM-12","99999","V020","230,1,N,0030,1","99999,9,9,N","020000,1,N,1","+0292,1","+0213,1","10045,1","99,0000,9,1","","","","","","","08,99,1,00,1,00,1,99999,9,00,1,02,1","","","999,M,+0315,1","","7,1,008,1,+999,9","","","SYN070AAXX  13091 31725 32998 82303 10292 20213 40045 57008 80002 333 10315;","Q01  00002PRCP99"
"31725099999","2000-08-13T15:00:00","4","48.6166666","133.8333333","52.0","SMIDOVICH, RS","FM-12","99999","V020","999,9,C,0000,1","22000,1,9,N","020000,1,N,1","+0202,1","+0177,1","10052,1","","","","","","","00,1,+99999,9,99,9","00,99,1,00,1,00,1,99999,9,00,1,00,1","","","","","4,1,000,1,+999,9","","","SYN054AAXX  13151 31725 42998 00000 10202 20177 40052 54000;",
"31725099999","2000-08-13T18:00:00","4","48.6166666","133.8333333","52.0","SMIDOVICH, RS","FM-12","99999","V020","999,9,C,0000,1","99999,9,9,N","020000,1,N,1","+0196,1","+0183,1","99999,9","","","","","","","","08,99,1,99,9,99,9,99999,9,99,9,99,9","","","","","","","","SYN059AAXX  13181 31725 42998 80000 10196 20183 4047 58005 82042;",
"31725099999","2000-08-13T21:00:00","4","48.6166666","133.8333333","52.0","SMIDOVICH, RS","FM-12","99999","V020","999,9,C,0000,1","99999,9,9,N","004000,1,N,1","+0179,1","+0169,1","10048,1","99,0000,9,1","","","2,1,03,1","2,1,03,1","","","08,99,1,03,1,00,1,99999,9,04,1,02,1","","","","","3,1,001,1,+999,9","10,1","","SYN066AAXX  13211 31725 31996 80000 10179 20169 40048 53001 71022 83042;","Q01  00002PRCP99"
"31725099999","2000-08-14T00:00:00","4","48.6166666","133.8333333","52.0","SMIDOVICH, RS","FM-12","99999","V020","230,1,N,0010,1","03600,1,9,N","004900,1,N,1","+0236,1","+0210,1","10051,1","99,0000,9,1","","","","","","","07,99,1,02,1,03,1,00150,1,04,1,00,1","","","999,N,+0169,1","99999,9,09990,1","2,1,003,1,+999,9","","","SYN076AAXX  14001 31725 32249 72301 10236 20210 39990 40051 52003 82340 333 20169;","Q01  00002PRCP99"
"31725099999","2000-08-14T03:00:00","4","48.6166666","133.8333333","52.0","SMIDOVICH, RS","FM-12","99999","V020","230,1,N,0030,1","03600,1,9,N","020000,1,N,1","+0263,1","+0214,1","10036,1","","","","","","","","08,99,1,04,1,03,1,00450,1,04,1,99,9","","","","","8,1,014,1,+999,9","","","SYN060AAXX  14031 31725 42498 82303 10263 20214 40036 58014 8434/;",
"31725099999","2000-08-14T06:00:00","4","48.6166666","133.8333333","52.0","SMIDOVICH, RS","FM-12","99999","V020","180,1,N,0030,1","00420,1,9,N","020000,1,N,1","+0263,1","+0214,1","10026,1","","","","","","","","08,99,1,05,1,03,1,00450,1,04,1,99,9","","","","","7,1,010,1,+999,9","","","SYN060AAXX  14061 31725 42498 81803 10263 20214 40026 57010 8534/;",
"31725099999","2000-08-14T09:00:00","4","48.6166666","133.8333333","52.0","SMIDOVICH, RS","FM-12","99999","V020","230,1,N,0010,1","99999,9,9,N","020000,1,N,1","+0248,1","+0221,1","10026,1","99,0000,9,1","","","","","","","08,99,1,00,1,00,1,99999,9,04,1,99,9","","","120,M,+0273,1","","6,1,001,1,+999,9","","","SYN074AAXX  14091 31725 32998 82301 10248 20221 40026 56001 8004/ 333 10273 555;","Q01  00002PRCP99"
"31725099999","2000-08-14T12:00:00","4","48.6166666","133.8333333","52.0","SMIDOVICH, RS","FM-12","99999","V020","999,9,C,0000,1","03600,1,9,N","020000,1,N,1","+0226,1","+0202,1","10024,1","99,0000,9,1","","","","","","","08,99,1,04,1,03,1,00450,1,04,1,99,9","","","999,M,+0273,1","99999,9,09963,1","6,1,002,1,+999,9","","","SYN076AAXX  14121 31725 32498 80000 10226 20202 39963 40024 56002 8434/ 333 10273;","Q01  00002PRCP99"
"31725099999","2000-08-14T15:00:00","4","48.6166666","133.8333333","52.0","SMIDOVICH, RS","FM-12","99999","V020","110,1,N,0030,1","03600,1,9,N","020000,1,N,1","+0214,1","+0182,1","10024,1","","","","8,1,03,1","2,1,03,1","","","08,99,1,04,1,03,1,00450,1,04,1,99,9","","","","","4,1,000,1,+999,9","02,1","","SYN066AAXX  14151 31725 42498 81103 10214 20182 40024 54000 70282 8434/;",
"31725099999","2000-08-14T18:00:00","4","48.6166666","133.8333333","52.0","SMIDOVICH, RS","FM-12","99999","V020","140,1,N,0010,1","03600,1,9,N","020000,1,N,1","+0214,1","+0184,1","10012,1","","","","","","","","08,99,1,03,1,03,1,00450,1,04,1,99,9","","","","","8,1,012,1,+999,9","","","SYN060AAXX  14181 31725 42498 81401 10214 20184 40012 58012 8334/;",
"31725099999","2000-08-14T21:00:00","4","48.6166666","133.8333333","52.0","SMIDOVICH, RS","FM-12","99999","V020","140,1,N,0050,1","00420,1,9,N","020000,1,N,1","+0194,1","+0162,1","10007,1","","","","8,1,03,1","2,1,03,1","","","08,99,1,08,1,03,1,00450,1,99,9,99,9","","","","","7,1,005,1,+999,9","81,1","","SYN066AAXX  14211 31725 /1498 81405 10194 20162 40007 57005 78182 883//;",
"31725099999","2000-08-15T00:00:00","4","48.6166666","133.8333333","52.0","SMIDOVICH, RS","FM-12","99999","V020","200,1,N,0060,1","00420,1,9,N","020000,1,N,1","+0204,1","+0188,1","10003,1","00,0061,9,1","","","8,1,06,1","2,1,06,1","","","08,99,1,08,1,03,1,00450,1,99,9,99,9","","","999,N,+0183,1","99999,9,09942,1","7,1,004,1,+999,9","02,1","","SYN088AAXX  15001 31725 11498 82006 10204 20188 39942 40003 57004 60060 70282 883// 333 20183;",
"31725099999","2000-08-15T06:00:00","4","48.6166666","133.8333333","52.0","SMIDOVICH, RS","FM-12","99999","V020","230,1,N,0040,1","00420,1,9,N","020000,1,N,1","+0243,1","+0236,1","10004,1","","","","8,1,06,1","2,1,06,1","","","08,99,1,08,1,03,1,00450,1,99,9,99,9","","","","","8,1,003,1,+999,9","02,1","","SYN066AAXX  15061 31725 41498 82304 10243 20236 40004 58003 70282 883//;",
"31725099999","2000-08-15T09:00:00","4","48.6166666","133.8333333","52.0","SMIDOVICH, RS","FM-12","99999","V020","180,1,N,0030,1","00420,1,9,N","004000,1,N,1","+0240,1","+0216,1","99999,9","","","","8,1,03,1","2,1,03,1","","","08,99,1,08,1,03,1,00450,1,99,9,99,9","","","999,M,+0257,1","","6,1,002,1,+999,9","80,1","","SYN076AAXX  15091 31725 /1496 81803 10240 20216 4/002 56002 78082 883// 333 10257;",
"31725099999","2000-08-15T12:00:00","4","48.6166666","133.8333333","52.0","SMIDOVICH, RS","FM-12","99999","V020","180,1,N,0020,1","00420,1,9,N","004000,1,N,1","+0224,1","+0206,1","99999,9","00,0099,9,1","","","9,1,06,1","8,1,06,1","","","08,99,1,08,1,03,1,00450,1,99,9,99,9","","","999,M,+0257,1","99999,9,09951,1","3,1,009,1,+999,9","95,1","","SYN088AAXX  15121 31725 11496 81802 10224 20206 39951 4012/ 53009 60100 79598 883// 333 10257;","Q01+101203APOSLP"
"31725099999","2000-08-15T15:00:00","4","48.6166666","133.8333333","52.0","SMIDOVICH, RS","FM-12","99999","V020","230,1,N,0020,1","00420,1,9,N","020000,1,N,1","+0220,1","+0206,1","10015,1","","","","9,1,03,1","8,1,03,1","","","07,99,1,07,1,03,1,00450,1,00,1,00,1","","","","","2,1,003,1,+999,9","01,1","","SYN066AAXX  15151 31725 41498 72302 10220 20206 40015 52003 70198 87300;",
"31725099999","2000-08-15T18:00:00","4","48.6166666","133.8333333","52.0","SMIDOVICH, RS","FM-12","99999","V020","999,9,C,0000,1","00420,1,9,N","020000,1,N,1","+0217,1","+0205,1","10016,1","","","","9,1,06,1","8,1,06,1","","","07,99,1,07,1,03,1,00450,1,00,1,00,1","","","","","1,1,001,1,+999,9","02,1","","SYN066AAXX  15181 31725 41498 70000 10217 20205 40016 51001 70298 87300;",
"31725099999","2000-08-15T21:00:00","4","48.6166666","133.8333333","52.0","SMIDOVICH, RS","FM-12","99999","V020","999,9,C,0000,1","99999,9,9,N","020000,1,N,1","+0220,1","+0208,1","10027,1","","","","","","","","08,99,1,08,1,00,1,99999,9,04,1,99,9","","","","","3,1,011,1,+999,9","","","SYN060AAXX  15211 31725 /2998 80000 10220 20208 40027 53011 8804/;",
"31725099999","2000-08-16T00:00:00","4","48.6166666","133.8333333","52.0","SMIDOVICH, RS","FM-12","99999","V020","200,1,N,0020,1","00420,1,9,N","020000,1,N,1","+0241,1","+0217,1","10034,1","00,0030,9,1","","","","","","","08,99,1,08,1,03,1,00450,1,99,9,99,9","","","999,N,+0210,1","99999,9,09973,1","2,1,007,1,+999,9","","","SYN082AAXX  16001 31725 12498 82002 10241 20217 39973 40034 52007 60030 883// 333 20210;",
"31725099999","2000-08-16T03:00:00","4","48.6166666","133.8333333","52.0","SMIDOVICH, RS","FM-12","99999","V020","230,1,N,0030,1","00420,1,9,N","004000,1,N,1","+0240,1","+0225,1","10039,1","","","","9,1,03,1","8,1,03,1","","","08,99,1,08,1,03,1,00450,1,99,9,99,9","","","","","2,1,005,1,+999,9","95,1","","SYN066AAXX  16031 31725 41496 82303 10240 20225 40039 52005 79598 883//;",
"31725099999","2000-08-16T06:00:00","4","48.6166666","133.8333333","52.0","SMIDOVICH, RS","FM-12","99999","V020","230,1,N,0020,1","00420,1,9,N","004000,1,N,1","+0242,1","+0224,1","10040,1","","","","9,1,06,1","8,1,06,1","","","08,99,1,08,1,03,1,00450,1,99,9,99,9","","","","","1,1,001,1,+999,9","81,1","","SYN066AAXX  16061 31725 41496 82302 10242 20224 40040 51001 78198 883//;",
"31725099999","2000-08-16T09:00:00","4","48.6166666","133.8333333","52.0","SMIDOVICH, RS","FM-12","99999","V020","230,1,N,0010,1","00420,1,9,N","010000,1,N,1","+0234,1","+0220,1","10040,1","","","","8,1,03,1","2,1,03,1","","","08,99,1,08,1,03,1,00450,1,99,9,99,9","","","999,M,+0252,1","","4,1,000,1,+999,9","80,1","","SYN076AAXX  16091 31725 /1497 82301 10234 20220 40040 54000 78082 883// 333 10252;",
"31725099999","2000-08-16T15:00:00","4","48.6166666","133.8333333","52.0","SMIDOVICH, RS","FM-12","99999","V020","999,9,C,0000,1","99999,9,9,N","000200,1,N,1","+0212,1","+0202,1","10058,1","","","","4,1,03,1","2,1,03,1","","","06,99,1,06,1,00,1,00450,1,04,1,00,1","","","","","2,1,011,1,+999,9","46,1","","SYN066AAXX  16151 31725 41492 60000 10212 20202 40058 52011 74642 86040;",
"31725099999","2000-08-16T18:00:00","4","48.6166666","133.8333333","52.0","SMIDOVICH, RS","FM-12","99999","V020","999,9,C,0000,1","22000,1,9,N","000500,1,N,1","+0217,1","+0211,1","10066,1","","","","4,1,06,1","2,1,06,1","","","04,99,1,04,1,03,1,00450,1,04,1,00,1","","","","","2,1,008,1,+999,9","44,1","","SYN066AAXX  16181 31725 41493 40000 10217 20211 40066 52008 74442 84340;",
"31725099999","2000-08-16T21:00:00","4","48.6166666","133.8333333","52.0","SMIDOVICH, RS","FM-12","99999","V020","999,9,C,0000,1","00030,1,9,N","000200,1,N,1","+0216,1","+0207,1","10064,1","","","","4,1,03,1","4,1,03,1","","09,1,+99999,9,99,9","09,99,1,09,1,99,9,99999,9,99,9,99,9","","","","","8,1,002,1,+999,9","45,1","","SYN060AAXX  16211 31725 /1/92 90000 10216 20207 40064 58002 74544;",
"31725099999","2000-08-17T06:00:00","4","48.6166666","133.8333333","52.0","SMIDOVICH, RS","FM-12","99999","V020","230,1,N,0010,1","99999,9,9,N","001000,1,N,1","+0230,1","+0225,1","10068,1","00,0020,9,1","","","4,1,06,1","2,1,06,1","","","08,99,1,08,1,00,1,99999,9,04,1,99,9","","","999,N,+0210,1","99999,9,10007,1","3,1,004,1,+999,9","44,1","","SYN088AAXX  17061 31725 11994 82301 10230 20225 30007 40068 53004 60020 74442 8804/ 333 20210;",
"31725099999","2000-08-17T09:00:00","4","48.6166666","133.8333333","52.0","SMIDOVICH, RS","FM-12","99999","V020","230,1,N,0030,1","00420,1,9,N","020000,1,N,1","+0271,1","+0219,1","10068,1","","","","","","","","06,99,1,06,1,03,1,00450,1,00,1,00,1","","","","","1,1,001,1,+999,9","","","SYN060AAXX  17091 31725 42498 62303 10271 20219 40068 51001 86300;",
"31725099999","2000-08-17T18:00:00","4","48.6166666","133.8333333","52.0","SMIDOVICH, RS","FM-12","99999","V020","999,9,C,0000,1","99999,9,9,N","020000,1,N,1","+0152,1","+0137,1","10106,1","","","","","","","","08,99,1,05,1,00,1,99999,9,04,1,02,1","","","","","2,1,011,1,+999,9","","","SYN060AAXX  17181 31725 42998 80000 10152 20137 40106 52011 85042;",
"31725099999","2000-08-17T21:00:00","4","48.6166666","133.8333333","52.0","SMIDOVICH, RS","FM-12","99999","V020","999,9,C,0000,1","03600,1,9,N","050000,1,N,1","+0139,1","+0126,1","10110,1","99,0000,9,1","","","","","","","08,99,1,02,1,03,1,00450,1,04,1,02,1","","","","","2,1,003,1,+999,9","","","SYN060AAXX  17211 31725 32499 80000 10139 20126 40110 52003 82342;","Q01  00002PRCP99"
"31725099999","2000-08-18T06:00:00","4","48.6166666","133.8333333","52.0","SMIDOVICH, RS","FM-12","99999","V020","320,1,N,0010,1","99999,9,9,N","050000,1,N,1","+0217,1","+0144,1","10112,1","99,0000,9,1","","","","","","","08,99,1,03,1,00,1,99999,9,04,1,02,1","","","999,N,+0138,1","99999,9,10051,1","2,1,004,1,+999,9","","","SYN076AAXX  18061 31725 32999 83201 10217 20144 30051 40112 52004 83042 333 20138;","Q01  00002PRCP99"
"31725099999","2000-08-18T09:00:00","4","48.6166666","133.8333333","52.0","SMIDOVICH, RS","FM-12","99999","V020","270,1,N,0010,1","22000,1,9,N","050000,1,N,1","+0250,1","+0129,1","10102,1","99,0000,9,1","","","","","","","02,99,1,02,1,05,1,00450,1,00,1,00,1","","","999,M,+0268,1","","6,1,002,1,+999,9","","","SYN070AAXX  18091 31725 32499 22701 10250 20129 40102 56002 82500 333 10268;","Q01  00002PRCP99"
"31725099999","2000-08-18T18:00:00","4","48.6166666","133.8333333","52.0","SMIDOVICH, RS","FM-12","99999","V020","999,9,C,0000,1","22000,1,9,N","050000,1,N,1","+0192,1","+9999,9","10106,1","99,0000,9,1","","","","","","00,1,+99999,9,99,9","00,99,1,00,1,00,1,99999,9,00,1,00,1","","","999,M,+0268,1","99999,9,10045,1","3,1,004,1,+999,9","","","SYN070AAXX  18181 31725 32999 00000 10192 20251 30045 40106 53004 333 10268;","Q01  00002PRCP99"
"31725099999","2000-08-18T21:00:00","4","48.6166666","133.8333333","52.0","SMIDOVICH, RS","FM-12","99999","V020","999,9,C,0000,1","22000,1,9,N","050000,1,N,1","+0148,1","+0133,1","10104,1","","","","","","","","03,99,1,03,1,00,1,99999,9,04,1,00,1","","","","","8,1,003,1,+999,9","","","SYN060AAXX  18211 31725 42999 30000 10148 20133 40104 58003 83040;",
"31725099999","2000-08-19T06:00:00","4","48.6166666","133.8333333","52.0","SMIDOVICH, RS","FM-12","99999","V020","320,1,N,0010,1","22000,1,9,N","050000,1,N,1","+0214,1","+0161,1","10098,1","99,0000,9,1","","","","","","","02,99,1,02,1,00,1,99999,9,04,1,02,1","","","999,N,+0133,1","99999,9,10037,1","8,1,005,1,+999,9","","","SYN076AAXX  19061 31725 32999 23201 10214 20161 30037 40098 58005 82042 333 20133;","Q01  00002PRCP99"
"31725099999","2000-08-19T09:00:00","4","48.6166666","133.8333333","52.0","SMIDOVICH, RS","FM-12","99999","V020","999,9,C,0000,1","03600,1,9,N","050000,1,N,1","+0244,1","+0174,1","10089,1","99,0000,9,1","","","","","","","07,99,1,01,1,03,1,00450,1,04,1,00,1","","","120,M,+0265,1","","7,1,009,1,+999,9","","","SYN074AAXX  19091 31725 32499 70000 10244 20174 40089 56000 81340 333 10265 555;","Q01+000062APCTENQ02+000002APC3  Q03  00002PRCP99"
"31725099999","2000-08-19T21:00:00","4","48.6166666","133.8333333","52.0","SMIDOVICH, RS","FM-12","99999","V020","999,9,C,0000,1","22000,1,9,N","020000,1,N,1","+0135,1","+0126,1","10097,1","","","","0,1,03,1","0,1,03,1","","","02,99,1,02,1,00,1,99999,9,04,1,02,1","","","","","4,1,000,1,+999,9","12,1","","SYN066AAXX  19211 31725 41998 20000 10135 20126 40097 54002 71200 82042;",
"31725099999","2000-08-20T09:00:00","4","48.6166666","133.8333333","52.0","SMIDOVICH, RS","FM-12","99999","V020","230,1,N,0010,1","03600,1,9,N","050000,1,N,1","+0258,1","+0162,1","10097,1","99,0000,9,1","","","","","","","08,99,1,02,1,03,1,00450,1,04,1,02,1","","","999,M,+0273,1","","7,1,003,1,+999,9","","","SYN070AAXX  20091 31725 32499 82301 10258 20162 40097 57003 82342 333 10273;","Q01  00002PRCP99"
"31725099999","2000-08-20T21:00:00","4","48.6166666","133.8333333","52.0","SMIDOVICH, RS","FM-12","99999","V020","999,9,C,0000,1","03600,1,9,N","020000,1,N,1","+0182,1","+0162,1","10107,1","99,0000,9,1","","","","","","","08,99,1,02,1,03,1,00450,1,04,1,02,1","","","","","4,1,000,1,+999,9","","","SYN060AAXX  20211 31725 32498 80000 10182 20162 40107 54000 82342;","Q01  00002PRCP99"
"31725099999","2000-08-21T09:00:00","4","48.6166666","133.8333333","52.0","SMIDOVICH, RS","FM-12","99999","V020","180,1,N,0010,1","03600,1,9,N","020000,1,N,1","+0225,1","+0164,1","10102,1","99,0000,9,1","","","","","","","08,99,1,02,1,03,1,00450,1,04,1,01,1","","","999,M,+0255,1","","4,1,000,1,+999,9","","","SYN070AAXX  21091 31725 32498 81801 10225 20164 40102 54000 82341 333 10255;","Q01  00002PRCP99"
"31725099999","2000-08-21T21:00:00","4","48.6166666","133.8333333","52.0","SMIDOVICH, RS","FM-12","99999","V020","999,9,C,0000,1","00420,1,9,N","020000,1,N,1","+0188,1","+0159,1","10087,1","99,0000,9,1","","","","","","","08,99,1,06,1,03,1,00450,1,04,1,99,9","","","","","6,1,002,1,+999,9","","","SYN060AAXX  21211 31725 32498 80000 10188 20159 40087 56002 8634/;","Q01  00002PRCP99"
"31725099999","2000-08-22T09:00:00","4","48.6166666","133.8333333","52.0","SMIDOVICH, RS","FM-12","99999","V020","360,1,N,0020,1","00420,1,9,N","050000,1,N,1","+0199,1","+0181,1","10074,1","","","","","","","","08,99,1,08,1,03,1,00450,1,99,9,99,9","","","999,M,+0216,1","","6,1,002,1,+999,9","","","SYN070AAXX  22091 31725 /2499 83602 10199 20181 40074 56002 883// 333 10216;",
"31725099999","2000-08-22T21:00:00","4","48.6166666","133.8333333","52.0","SMIDOVICH, RS","FM-12","99999","V020","999,9,C,0000,1","00420,1,9,N","020000,1,N,1","+0183,1","+0168,1","10089,1","99,0000,9,1","","","","","","","08,99,1,08,1,03,1,00450,1,99,9,99,9","","","","","3,1,007,1,+999,9","","","SYN060AAXX  22211 31725 32498 80000 10183 20168 40089 53007 883//;","Q01  00002PRCP99"
"31725099999","2000-08-23T09:00:00","4","48.6166666","133.8333333","52.0","SMIDOVICH, RS","FM-12","99999","V020","340,1,N,0030,1","00420,1,9,N","050000,1,N,1","+0230,1","+0186,1","10086,1","99,0000,9,1","","","","","","","08,99,1,08,1,03,1,00450,1,99,9,99,9","","","","","6,1,001,1,+999,9","","","SYN060AAXX  23091 31725 32499 83403 10230 20186 40086 56001 883//;","Q01  00002PRCP99"
"31725099999","2000-08-23T18:00:00","4","48.6166666","133.8333333","52.0","SMIDOVICH, RS","FM-12","99999","V020","050,1,N,0010,1","00420,1,9,N","020000,1,N,1","+0198,1","+0161,1","10021,1","00,0005,9,1","","","8,1,06,1","5,1,06,1","","","08,99,1,08,1,03,1,00450,1,99,9,99,9","","","999,N,+0173,1","99999,9,10021,1","8,1,013,1,+999,9","81,1","","SYN088AAXX  23181 31725 11498 80501 10198 20161 30021 40021 58013 69960 78185 883// 333 20173;",
"31725099999","2000-08-23T21:00:00","4","48.6166666","133.8333333","52.0","SMIDOVICH, RS","FM-12","99999","V020","050,1,N,0010,1","00420,1,9,N","020000,1,N,1","+0198,1","+0161,1","10021,1","00,0005,9,1","","","8,1,03,1","5,1,03,1","","","08,99,1,08,1,03,1,00450,1,99,9,99,9","","","999,N,+0173,1","99999,9,10021,1","8,1,013,1,+999,9","81,1","","SYN088AAXX  23211 31725 11498 80501 10198 20161 30021 40021 58013 69960 78185 883// 333 20173;",
"31725099999","2000-08-24T09:00:00","4","48.6166666","133.8333333","52.0","SMIDOVICH, RS","FM-12","99999","V020","360,1,N,0030,1","00420,1,9,N","001000,1,N,1","+0178,1","+0166,1","10060,1","","","","6,1,03,1","6,1,03,1","","","08,99,1,99,9,07,1,00450,1,02,1,99,9","","","999,M,+0186,1","","7,1,005,1,+999,9","63,1","","SYN076AAXX  24091 31725 /1494 83603 10178 20166 40060 57005 76366 8872/ 333 10186;","Q01+000082SCOTLC"
"31725099999","2000-08-24T21:00:00","4","48.6166666","133.8333333","52.0","SMIDOVICH, RS","FM-12","99999","V020","360,1,N,0020,1","00420,1,9,N","020000,1,N,1","+0155,1","+0143,1","10061,1","","","","","","","","08,99,1,07,1,07,1,00450,1,02,1,99,9","","","","","1,1,001,1,+999,9","","","SYN060AAXX  24211 31725 /2498 83602 10155 20143 40061 51001 8772/;",
"31725099999","2000-08-25T09:00:00","4","48.6166666","133.8333333","52.0","SMIDOVICH, RS","FM-12","99999","V020","050,1,N,0010,1","00420,1,9,N","020000,1,N,1","+0181,1","+0161,1","10063,1","","","","","","","","08,99,1,07,1,07,1,00450,1,02,1,99,9","","","999,M,+0183,1","","3,1,002,1,+999,9","","","SYN070AAXX  25091 31725 /2498 80501 10181 20161 40063 53002 8772/ 333 10183;",
"31725099999","2000-08-25T21:00:00","4","48.6166666","133.8333333","52.0","SMIDOVICH, RS","FM-12","99999","V020","050,1,N,0030,1","00420,1,9,N","020000,1,N,1","+0151,1","+0135,1","10088,1","12,0000,9,1","","","6,1,03,1","2,1,03,1","","","08,99,1,07,1,07,1,00450,1,02,1,99,9","","","120,N,+0143,1","","3,1,004,1,+999,9","03,1","","SYN088AAXX  25211 31725 /1498 80503 10151 20135 40088 53004 70362 8772/ 333 20143 60002 7004/;",
"31725099999","2000-08-26T09:00:00","4","48.6166666","133.8333333","52.0","SMIDOVICH, RS","FM-12","99999","V020","360,1,N,0010,1","03600,1,9,N","020000,1,N,1","+0192,1","+0146,1","10124,1","99,0000,9,1","","","","","","","08,99,1,02,1,05,1,00450,1,04,1,02,1","","","999,M,+0213,1","","3,1,014,1,+999,9","","","SYN070AAXX  26091 31725 32498 83601 10192 20146 40124 53014 82542 333 10213;","Q01  00002PRCP99"
"31725099999","2000-08-26T21:00:00","4","48.6166666","133.8333333","52.0","SMIDOVICH, RS","FM-12","99999","V020","999,9,C,0000,1","22000,1,9,N","050000,1,N,1","+0112,1","+0100,1","10178,1","99,0000,9,1","","","","","","00,1,+99999,9,99,9","00,99,1,00,1,00,1,99999,9,00,1,00,1","","","","","2,1,003,1,+999,9","","","SYN054AAXX  26211 31725 32999 00000 10112 20100 40178 52003;","Q01  00002PRCP99"
"31725099999","2000-08-27T09:00:00","4","48.6166666","133.8333333","52.0","SMIDOVICH, RS","FM-12","99999","V020","999,9,C,0000,1","22000,1,9,N","050000,1,N,1","+0228,1","+0135,1","10162,1","99,0000,9,1","","","","","","","01,99,1,01,1,05,1,00800,1,00,1,00,1","","","120,M,+0237,1","","8,1,015,1,+999,9","","","SYN074AAXX  27091 31725 32599 10000 10228 20135 40162 58015 81500 333 10237 555;","Q01  00002PRCP99"
"31725099999","2000-08-27T21:00:00","4","48.6166666","133.8333333","52.0","SMIDOVICH, RS","FM-12","99999","V020","270,1,N,0010,1","22000,1,9,N","050000,1,N,1","+0113,1","+0102,1","10161,1","99,0000,9,1","","","","","","00,1,+99999,9,99,9","00,99,1,00,1,00,1,99999,9,00,1,00,1","","","","","8,1,003,1,+999,9","","","SYN054AAXX  27211 31725 32999 02701 10113 20102 40161 58003;","Q01  00002PRCP99"
"31725099999","2000-08-28T09:00:00","4","48.6166666","133.8333333","52.0","SMIDOVICH, RS","FM-12","99999","V020","999,9,C,0000,1","22000,1,9,N","050000,1,N,1","+0261,1","+0144,1","10136,1","99,0000,9,1","","","","","","","02,99,1,01,1,05,1,00450,1,00,1,02,1","","","999,M,+0272,1","","7,1,004,1,+999,9","","","SYN070AAXX  28091 31725 32499 20000 10261 20144 40136 57004 81502 333 10272;","Q01  00002PRCP99"
"31725099999","2000-08-28T21:00:00","4","48.6166666","133.8333333","52.0","SMIDOVICH, RS","FM-12","99999","V020","999,9,C,0000,1","99999,9,9,N","020000,1,N,1","+0143,1","+0132,1","10168,1","99,0000,9,1","","","","","","","06,99,1,06,1,00,1,99999,9,04,1,00,1","","","","","2,1,008,1,+999,9","","","SYN060AAXX  28211 31725 32998 60000 10143 20132 40168 52008 86040;","Q01  00002PRCP99"
"31725099999","2000-08-29T09:00:00","4","48.6166666","133.8333333","52.0","SMIDOVICH, RS","FM-12","99999","V020","180,1,N,0020,1","03600,1,9,N","020000,1,N,1","+0231,1","+0169,1","10128,1","99,0000,9,1","","","","","","","08,99,1,02,1,03,1,00450,1,04,1,02,1","","","999,M,+0253,1","","7,1,012,1,+999,9","","","SYN070AAXX  29091 31725 32498 81802 10231 20169 40128 57012 82342 333 10253;","Q01  00002PRCP99"
"31725099999","2000-08-29T21:00:00","4","48.6166666","133.8333333","52.0","SMIDOVICH, RS","FM-12","99999","V020","180,1,N,0040,1","00420,1,9,N","020000,1,N,1","+0200,1","+0184,1","10075,1","","","","8,1,03,1","2,1,03,1","","","08,99,1,08,1,03,1,00450,1,99,9,99,9","","","","","7,1,013,1,+999,9","02,1","","SYN066AAXX  29211 31725 /1498 81804 10200 20184 40075 57013 70282 883//;",
"31725099999","2000-08-30T09:00:00","4","48.6166666","133.8333333","52.0","SMIDOVICH, RS","FM-12","99999","V020","230,1,N,0010,1","22000,1,9,N","020000,1,N,1","+0256,1","+0191,1","10077,1","","","","","","","","03,99,1,01,1,03,1,00450,1,00,1,02,1","","","999,M,+0273,1","","1,1,002,1,+999,9","","","SYN070AAXX  30091 31725 /2498 32301 10256 20191 40077 51002 81302 333 10273;",
"31725099999","2000-08-30T21:00:00","4","48.6166666","133.8333333","52.0","SMIDOVICH, RS","FM-12","99999","V020","999,9,C,0000,1","22000,1,9,N","020000,1,N,1","+0158,1","+0144,1","10112,1","99,0000,9,1","","","0,1,03,1","2,1,03,1","","","02,99,1,99,9,99,9,99999,9,99,9,99,9","","","","","2,1,009,1,+999,9","00,1","","SYN060AAXX  30211 31725 32998 20000 10158 20144 40112 52009 70002;","Q01  00002PRCP99"
"31725099999","2000-08-31T09:00:00","4","48.6166666","133.8333333","52.0","SMIDOVICH, RS","FM-12","99999","V020","999,9,C,0000,1","99999,9,9,N","020000,1,N,1","+0257,1","+0220,1","10093,1","99,0000,9,1","","","","","","","07,99,1,07,1,00,1,00450,1,04,1,99,9","","","999,M,+0284,1","","7,1,005,1,+999,9","","","SYN070AAXX  31091 31725 32498 70000 10257 20220 40093 57005 8704/ 333 10284;","Q01  00002PRCP99"
"31725099999","2000-08-31T21:00:00","4","48.6166666","133.8333333","52.0","SMIDOVICH, RS","FM-12","99999","V020","250,1,N,0010,1","03600,1,9,N","020000,1,N,1","+0191,1","+0173,1","10077,1","99,0000,9,1","","","","","","","08,99,1,04,1,03,1,00450,1,04,1,99,9","","","","","7,1,008,1,+999,9","","","SYN060AAXX  31211 31725 32498 82501 10191 20173 40077 57008 8434/;","Q01  00002PRCP99"
"31725099999","2000-09-01T09:00:00","4","48.6166666","133.8333333","52.0","SMIDOVICH, RS","FM-12","99999","V020","320,1,N,0010,1","03600,1,9,N","020000,1,N,1","+0232,1","+0198,1","10042,1","99,0000,9,1","","","","","","","06,99,1,01,1,05,1,00800,1,04,1,02,1","","","120,M,+0271,1","","7,1,007,1,+999,9","","","SYN074AAXX  01091 31725 32598 63201 10232 20198 40042 57007 81542 333 10271 555;","Q01  00002PRCP99"
"31725099999","2000-09-01T21:00:00","4","48.6166666","133.8333333","52.0","SMIDOVICH, RS","FM-12","99999","V020","320,1,N,0010,1","22000,1,9,N","020000,1,N,1","+0172,1","+0159,1","10061,1","99,0000,9,1","","","","","","","02,99,1,02,1,05,1,00800,1,00,1,00,1","","","","","2,1,012,1,+999,9","","","SYN060AAXX  01211 31725 32598 23201 10172 20159 40061 52012 82500;","Q01  00002PRCP99"
"31725099999","2000-09-02T09:00:00","4","48.6166666","133.8333333","52.0","SMIDOVICH, RS","FM-12","99999","V020","320,1,N,0010,1","22000,1,9,N","020000,1,N,1","+0289,1","+0166,1","10084,1","99,0000,9,1","","","","","","00,1,+99999,9,99,9","00,99,1,00,1,00,1,99999,9,00,1,00,1","","","999,M,+0298,1","","2,1,005,1,+999,9","","","SYN064AAXX  02091 31725 32998 03201 10289 20166 40084 52005 333 10298;","Q01  00002PRCP99"
"31725099999","2000-09-02T21:00:00","4","48.6166666","133.8333333","52.0","SMIDOVICH, RS","FM-12","99999","V020","999,9,C,0000,1","22000,1,9,N","020000,1,N,1","+0162,1","+0150,1","10121,1","99,0000,9,1","","","0,1,03,1","0,1,03,1","","00,1,+99999,9,99,9","00,99,1,00,1,00,1,99999,9,00,1,00,1","","","","","1,1,012,1,+999,9","12,1","","SYN060AAXX  02211 31725 31998 00000 10162 20150 40121 51012 71200;","Q01  00002PRCP99"
"31725099999","2000-09-03T09:00:00","4","48.6166666","133.8333333","52.0","SMIDOVICH, RS","FM-12","99999","V020","999,9,C,0000,1","22000,1,9,N","020000,1,N,1","+0278,1","+0209,1","10118,1","99,0000,9,1","","","","","","00,1,+99999,9,99,9","00,99,1,00,1,00,1,99999,9,00,1,00,1","","","999,M,+0300,1","","4,1,000,1,+999,9","","","SYN064AAXX  03091 31725 32998 00000 10278 20209 40118 54000 333 10300;","Q01  00002PRCP99"
"31725099999","2000-09-03T21:00:00","4","48.6166666","133.8333333","52.0","SMIDOVICH, RS","FM-12","99999","V020","999,9,C,0000,1","22000,1,9,N","000100,1,N,1","+0155,1","+0150,1","10107,1","99,0000,9,1","","","4,1,03,1","0,1,03,1","","00,1,+99999,9,99,9","00,99,1,00,1,00,1,99999,9,00,1,00,1","","","","","3,1,001,1,+999,9","44,1","","SYN060AAXX  03211 31725 31991 00000 10155 20150 40107 53001 74440;","Q01  00002PRCP99"
"31725099999","2000-09-04T09:00:00","4","48.6166666","133.8333333","52.0","SMIDOVICH, RS","FM-12","99999","V020","180,1,N,0040,1","00420,1,9,N","020000,1,N,1","+0254,1","+0205,1","10037,1","99,0000,9,1","","","","","","","08,99,1,06,1,03,1,00450,1,00,1,02,1","","","999,M,+0292,1","","7,1,012,1,+999,9","","","SYN070AAXX  04091 31725 32498 81804 10254 20205 40037 57012 86302 333 10292;","Q01  00002PRCP99"
"31725099999","2000-09-04T21:00:00","4","48.6166666","133.8333333","52.0","SMIDOVICH, RS","FM-12","99999","V020","320,1,N,0030,1","00420,1,9,N","020000,1,N,1","+0154,1","+0109,1","10062,1","","","","8,1,03,1","2,1,03,1","","","08,99,1,06,1,03,1,00450,1,04,1,99,9","","","","","2,1,009,1,+999,9","01,1","","SYN066AAXX  04211 31725 /1498 83203 10154 20109 40062 52009 70182 8634/;",
"31725099999","2000-09-05T09:00:00","4","48.6166666","133.8333333","52.0","SMIDOVICH, RS","FM-12","99999","V020","200,1,N,0030,1","00420,1,9,N","050000,1,N,1","+0157,1","+0102,1","10082,1","99,0000,9,1","","","","","","","08,99,1,06,1,03,1,00450,1,04,1,99,9","","","120,M,+0178,1","","3,1,003,1,+999,9","","","SYN074AAXX  05091 31725 32499 82003 10157 20102 40082 53003 8634/ 333 10178 555;","Q01  00002PRCP99"
"31725099999","2000-09-05T21:00:00","4","48.6166666","133.8333333","52.0","SMIDOVICH, RS","FM-12","99999","V020","320,1,N,0010,1","00420,1,9,N","050000,1,N,1","+0106,1","+0068,1","10103,1","99,0000,9,1","","","","","","","08,99,1,06,1,03,1,00450,1,04,1,99,9","","","","","4,1,000,1,+999,9","","","SYN060AAXX  05211 31725 32499 83201 10106 20068 40103 54000 8634/;","Q01  00002PRCP99"
"31725099999","2000-09-06T09:00:00","4","48.6166666","133.8333333","52.0","SMIDOVICH, RS","FM-12","99999","V020","360,1,N,0010,1","22000,1,9,N","050000,1,N,1","+0181,1","+0050,1","10088,1","99,0000,9,1","","","","","","","02,99,1,02,1,03,1,00450,1,04,1,00,1","","","999,M,+0200,1","","7,1,004,1,+999,9","","","SYN070AAXX  06091 31725 32499 23601 10181 20050 40088 57004 82340 333 10200;","Q01  00002PRCP99"
"31725099999","2000-09-06T21:00:00","4","48.6166666","133.8333333","52.0","SMIDOVICH, RS","FM-12","99999","V020","320,1,N,0010,1","00420,1,9,N","004000,1,N,1","+0102,1","+0100,1","10107,1","","","","8,1,03,1","9,1,03,1","","","08,99,1,08,1,03,1,00450,1,99,9,99,9","","","","","3,1,010,1,+999,9","81,1","","SYN066AAXX  06211 31725 /1496 83201 10102 20100 40107 53010 78189 883//;",
"31725099999","2000-09-07T09:00:00","4","48.6166666","133.8333333","52.0","SMIDOVICH, RS","FM-12","99999","V020","050,1,N,0010,1","00420,1,9,N","050000,1,N,1","+0151,1","+0093,1","10141,1","","","","8,1,03,1","2,1,03,1","","","06,99,1,06,1,03,1,00450,1,00,1,00,1","","","999,M,+0203,1","","3,1,029,1,+999,9","03,1","","SYN076AAXX  07091 31725 /1499 60501 10151 20093 40141 53029 70382 86300 333 10203;",
"31725099999","2000-09-07T21:00:00","4","48.6166666","133.8333333","52.0","SMIDOVICH, RS","FM-12","99999","V020","999,9,C,0000,1","22000,1,9,N","050000,1,N,1","+0062,1","+0053,1","10229,1","99,0000,9,1","","","","","","00,1,+99999,9,99,9","00,99,1,00,1,00,1,99999,9,00,1,00,1","","","","","2,1,017,1,+999,9","","","SYN054AAXX  07211 31725 32999 00000 10062 20053 40229 52017;","Q01  00002PRCP99"
"31725099999","2000-09-08T09:00:00","4","48.6166666","133.8333333","52.0","SMIDOVICH, RS","FM-12","99999","V020","070,1,N,0010,1","22000,1,9,N","050000,1,N,1","+0160,1","+0040,1","10231,1","99,0000,9,1","","","","","","00,1,+99999,9,99,9","00,99,1,00,1,00,1,99999,9,00,1,00,1","","","999,M,+0183,1","","7,1,064,2,+999,9","","","SYN064AAXX  08091 31725 32999 00701 10160 20040 40231 57064 333 10183;","Q01+000642APC3  Q02  00002PRCP99"
"31725099999","2000-09-08T15:00:00","4","48.6166666","133.8333333","52.0","SMIDOVICH, RS","FM-12","99999","V020","999,9,C,0000,1","22000,1,9,N","050000,1,N,1","+0062,1","+0053,1","10229,1","99,0000,9,1","","","","","","00,1,+99999,9,99,9","00,99,1,00,1,00,1,99999,9,00,1,00,1","","","","","2,1,017,1,+999,9","","","SYN054AAXX  08151 31725 32999 00000 10062 20053 40229 52017;","Q01  00002PRCP99"
"31725099999","2000-09-08T21:00:00","4","48.6166666","133.8333333","52.0","SMIDOVICH, RS","FM-12","99999","V020","999,9,C,0000,1","22000,1,9,N","020000,1,N,1","+0061,1","+0054,1","10226,1","99,0000,9,1","","","","","","","01,99,1,01,1,05,1,00800,1,00,1,00,1","","","","","6,1,001,1,+999,9","","","SYN060AAXX  08211 31725 32598 10000 10061 20054 40226 56001 81500;","Q01  00002PRCP99"
"31725099999","2000-09-09T09:00:00","4","48.6166666","133.8333333","52.0","SMIDOVICH, RS","FM-12","99999","V020","230,1,N,0010,1","22000,1,9,N","050000,1,N,1","+0198,1","+0117,1","10159,1","99,0000,9,1","","","","","","00,1,+99999,9,99,9","00,99,1,00,1,00,1,99999,9,00,1,00,1","","","999,M,+0222,1","","7,1,015,1,+999,9","","","SYN064AAXX  09091 31725 32999 02301 10198 20117 40159 57015 333 10222;","Q01  00002PRCP99"
"31725099999","2000-09-09T21:00:00","4","48.6166666","133.8333333","52.0","SMIDOVICH, RS","FM-12","99999","V020","999,9,C,0000,1","22000,1,9,N","050000,1,N,1","+0087,1","+0077,1","10134,1","99,0000,9,1","","","1,1,03,1","1,1,03,1","","00,1,+99999,9,99,9","00,99,1,00,1,00,1,99999,9,00,1,00,1","","","","","7,1,011,1,+999,9","12,1","","SYN066AAXX  09211 31725 31499 00000 10087 20077 40134 57011 71211 84302;","Q01  00002PRCP99"
"31725099999","2000-09-10T09:00:00","4","48.6166666","133.8333333","52.0","SMIDOVICH, RS","FM-12","99999","V020","230,1,N,0020,1","00420,1,9,N","020000,1,N,1","+0178,1","+0114,1","10102,1","99,0000,9,1","","","9,1,03,1","2,1,03,1","","","06,99,1,06,1,03,1,00450,1,00,1,00,1","","","999,M,+0230,1","","7,1,003,1,+999,9","17,1","","SYN076AAXX  10091 31725 31498 62302 10178 20114 40102 57003 71792 86300 333 10230;","Q01  00002PRCP99"
"31725099999","2000-09-10T21:00:00","4","48.6166666","133.8333333","52.0","SMIDOVICH, RS","FM-12","99999","V020","320,1,N,0020,1","00420,1,9,N","020000,1,N,1","+0111,1","+0102,1","10128,1","99,0000,9,1","","","2,1,03,1","2,1,03,1","","","08,99,1,06,1,03,1,00450,1,04,1,99,9","","","","","3,1,006,1,+999,9","12,1","","SYN066AAXX  10211 31725 31498 83202 10111 20102 40128 53006 71222 8634/;","Q01  00002PRCP99"
"31725099999","2000-09-11T09:00:00","4","48.6166666","133.8333333","52.0","SMIDOVICH, RS","FM-12","99999","V020","999,9,C,0000,1","00420,1,9,N","050000,1,N,1","+0146,1","+0102,1","10144,1","","","","","","","","06,99,1,06,1,03,1,00450,1,00,1,00,1","","","999,M,+0176,1","","3,1,005,1,+999,9","","","SYN070AAXX  11091 31725 /2499 60000 10146 20102 40144 53005 86300 333 10176;",
"31725099999","2000-09-11T21:00:00","4","48.6166666","133.8333333","52.0","SMIDOVICH, RS","FM-12","99999","V020","270,1,N,0020,1","00015,1,9,N","000100,1,N,1","+0075,1","+0068,1","10158,1","","","","4,1,03,1","4,1,03,1","","09,1,+99999,9,99,9","09,99,1,09,1,99,9,99999,9,99,9,99,9","","","","","4,1,000,1,+999,9","47,1","","SYN060AAXX  11211 31725 /1/91 92702 10075 20068 40158 54000 74744;",
"31725099999","2000-09-12T09:00:00","4","48.6166666","133.8333333","52.0","SMIDOVICH, RS","FM-12","99999","V020","230,1,N,0020,1","00420,1,9,N","050000,1,N,1","+0170,1","+0121,1","10143,1","99,0000,9,1","","","","","","","06,99,1,06,1,03,1,00450,1,00,1,00,1","","","999,M,+0222,1","","7,1,003,1,+999,9","","","SYN070AAXX  12091 31725 32499 62302 10170 20121 40143 57003 86300 333 10222;","Q01  00002PRCP99"
"31725099999","2000-09-12T21:00:00","4","48.6166666","133.8333333","52.0","SMIDOVICH, RS","FM-12","99999","V020","180,1,N,0010,1","22000,1,9,N","020000,1,N,1","+0080,1","+0067,1","10178,1","","","","","","","00,1,+99999,9,99,9","00,99,1,00,1,00,1,99999,9,00,1,00,1","","","","","1,1,001,1,+999,9","","","SYN054AAXX  12211 31725 /2998 01801 10080 20067 40178 51001;",
"31725099999","2000-09-13T09:00:00","4","48.6166666","133.8333333","52.0","SMIDOVICH, RS","FM-12","99999","V020","200,1,N,0030,1","22000,1,9,N","050000,1,N,1","+0216,1","+0128,1","10157,1","99,0000,9,1","","","","","","","02,99,1,02,1,00,1,99999,9,04,1,00,1","","","999,M,+0251,1","","7,1,005,1,+999,9","","","SYN070AAXX  13091 31725 32999 22003 10216 20128 40157 57005 82040 333 10251;","Q01  00002PRCP99"
"31725099999","2000-09-13T21:00:00","4","48.6166666","133.8333333","52.0","SMIDOVICH, RS","FM-12","99999","V020","270,1,N,0010,1","22000,1,9,N","020000,1,N,1","+0088,1","+0076,1","10157,1","99,0000,9,1","","","","","","","01,99,1,01,1,00,1,99999,9,04,1,00,1","","","","","8,1,003,1,+999,9","","","SYN060AAXX  13211 31725 32998 12701 10088 20076 40157 58003 81040;","Q01  00002PRCP99"
"31725099999","2000-09-14T09:00:00","4","48.6166666","133.8333333","52.0","SMIDOVICH, RS","FM-12","99999","V020","270,1,N,0010,1","22000,1,9,N","050000,1,N,1","+0210,1","+0111,1","10137,1","99,0000,9,1","","","","","","00,1,+99999,9,99,9","00,99,1,00,1,00,1,99999,9,00,1,00,1","","","999,M,+0252,1","","6,1,001,1,+999,9","","","SYN064AAXX  14091 31725 32999 02701 10210 20111 40137 56001 333 10252;","Q01  00002PRCP99"
"31725099999","2000-09-14T21:00:00","4","48.6166666","133.8333333","52.0","SMIDOVICH, RS","FM-12","99999","V020","320,1,N,0010,1","22000,1,9,N","020000,1,N,1","+0076,1","+0067,1","10143,1","99,0000,9,1","","","0,1,03,1","0,1,03,1","","","03,99,1,02,1,04,1,99999,9,02,1,99,9","","","","","4,1,000,1,+999,9","12,1","","SYN066AAXX  14211 31725 31998 33201 10076 20067 40143 54000 71200 8242/;","Q01  00002PRCP99"
"31725099999","2000-09-15T09:00:00","4","48.6166666","133.8333333","52.0","SMIDOVICH, RS","FM-12","99999","V020","999,9,C,0000,1","03600,1,9,N","050000,1,N,1","+0197,1","+0142,1","10122,1","99,0000,9,1","","","","","","","08,99,1,02,1,05,1,00450,1,04,1,02,1","","","999,M,+0238,1","","7,1,006,1,+999,9","","","SYN070AAXX  15091 31725 32499 80000 10197 20142 40122 57006 82542 333 10238;","Q01  00002PRCP99"
"31725099999","2000-09-15T21:00:00","4","48.6166666","133.8333333","52.0","SMIDOVICH, RS","FM-12","99999","V020","999,9,C,0000,1","03600,1,9,N","020000,1,N,1","+0126,1","+0114,1","10094,1","99,0000,9,1","","","2,1,03,1","2,1,03,1","","","08,99,1,03,1,03,1,00450,1,04,1,99,9","","","","","7,1,003,1,+999,9","12,1","","SYN066AAXX  15211 31725 31498 80000 10126 20114 40094 57003 71222 8334/;","Q01  00002PRCP99"
"31725099999","2000-09-16T09:00:00","4","48.6166666","133.8333333","52.0","SMIDOVICH, RS","FM-12","99999","V020","050,1,N,0010,1","00420,1,9,N","004000,1,N,1","+0149,1","+0120,1","10038,1","","","","8,1,03,1","2,1,03,1","","","08,99,1,08,1,03,1,00450,1,99,9,99,9","","","999,M,+0185,1","","7,1,023,1,+999,9","80,1","","SYN076AAXX  16091 31725 /1496 80501 10149 20120 40038 57023 78082 883// 333 10185;",
"31725099999","2000-09-16T21:00:00","4","48.6166666","133.8333333","52.0","SMIDOVICH, RS","FM-12","99999","V020","999,9,C,0000,1","00420,1,9,N","020000,1,N,1","+0130,1","-0119,1","09988,1","","","","","","","","07,99,1,07,1,03,1,00450,1,00,1,00,1","","","","","7,1,014,1,+999,9","","","SYN060AAXX  16211 31725 /2498 70000 10130 21119 49988 57014 87300;",
"31725099999","2000-09-17T09:00:00","4","48.6166666","133.8333333","52.0","SMIDOVICH, RS","FM-12","99999","V020","020,1,N,0050,1","00750,1,9,N","004000,1,N,1","+0144,1","+0127,1","09966,1","","","","8,1,03,1","8,1,03,1","","","08,99,1,08,1,05,1,00800,1,99,9,99,9","","","","","3,1,003,1,+999,9","81,1","","SYN066AAXX  17091 31725 /1596 80205 10144 20127 49966 53003 78188 885//;",
"31725099999","2000-09-17T21:00:00","4","48.6166666","133.8333333","52.0","SMIDOVICH, RS","FM-12","99999","V020","020,1,N,0070,1","00420,1,9,N","050000,1,N,1","+0114,1","+0100,1","09989,1","","","","6,1,03,1","6,1,03,1","","","08,99,1,06,1,03,1,00450,1,02,1,99,9","","","","","2,1,012,1,+999,9","61,1","","SYN072AAXX  17211 31725 /1499 80207 10114 20100 49989 52012 76166 8632/ 91010;",
"31725099999","2000-09-18T09:00:00","4","48.6166666","133.8333333","52.0","SMIDOVICH, RS","FM-12","99999","V020","340,1,N,0010,1","00420,1,9,N","004000,1,N,1","+0120,1","+0109,1","10071,1","","","","5,1,03,1","2,1,03,1","","","08,99,1,06,1,07,1,00450,1,02,1,99,9","","","999,M,+0127,1","","2,1,024,1,+999,9","51,1","","SYN076AAXX  18091 31725 /1496 83401 10120 20109 40071 52024 75152 8672/ 333 10127;",
"31725099999","2000-09-18T21:00:00","4","48.6166666","133.8333333","52.0","SMIDOVICH, RS","FM-12","99999","V020","999,9,C,0000,1","00420,1,9,N","020000,1,N,1","+0111,1","+0095,1","10136,1","","","","","","","","07,99,1,07,1,03,1,00450,1,00,1,00,1","","","","","2,1,016,1,+999,9","","","SYN060AAXX  18211 31725 /2498 70000 10111 20095 40136 52016 87300;",
"31725099999","2000-09-19T09:00:00","4","48.6166666","133.8333333","52.0","SMIDOVICH, RS","FM-12","99999","V020","999,9,C,0000,1","00420,1,9,N","050000,1,N,1","+0161,1","+0104,1","10159,1","99,0000,9,1","","","","","","","07,99,1,07,1,03,1,00450,1,00,1,00,1","","","999,M,+0178,1","","3,1,005,1,+999,9","","","SYN070AAXX  19091 31725 32499 70000 10161 20104 40159 53005 87300 333 10178;","Q01  00002PRCP99"
"31725099999","2000-09-19T21:00:00","4","48.6166666","133.8333333","52.0","SMIDOVICH, RS","FM-12","99999","V020","999,9,C,0000,1","00420,1,9,N","050000,1,N,1","+0085,1","+0078,1","10178,1","99,0000,9,1","","","","","","","07,99,1,07,1,03,1,00450,1,00,1,00,1","","","","","8,1,003,1,+999,9","","","SYN060AAXX  19211 31725 32499 70000 10085 20078 40178 58003 87300;","Q01  00002PRCP99"
"31725099999","2000-09-20T09:00:00","4","48.6166666","133.8333333","52.0","SMIDOVICH, RS","FM-12","99999","V020","270,1,N,0030,1","22000,1,9,N","020000,1,N,1","+0156,1","+0113,1","10153,1","","","","","","","","02,99,1,02,1,03,1,00450,1,00,1,00,1","","","999,M,+0163,1","","3,1,009,1,+999,9","","","SYN070AAXX  20091 31725 /2498 22703 10156 20113 40153 53009 82300 333 10163;",
"31725099999","2000-09-20T21:00:00","4","48.6166666","133.8333333","52.0","SMIDOVICH, RS","FM-12","99999","V020","270,1,N,0020,1","22000,1,9,N","050000,1,N,1","+0075,1","+0004,1","10222,1","99,0000,9,1","","","","","","00,1,+99999,9,99,9","00,99,1,00,1,00,1,99999,9,00,1,00,1","","","","","2,1,006,1,+999,9","","","SYN054AAXX  20211 31725 32999 02702 10075 20004 40222 52006;","Q01  00002PRCP99"
"31725099999","2000-09-21T09:00:00","4","48.6166666","133.8333333","52.0","SMIDOVICH, RS","FM-12","99999","V020","270,1,N,0010,1","22000,1,9,N","050000,1,N,1","+0186,1","+0074,1","10193,1","","","","","","","","02,99,1,02,1,00,1,99999,9,04,1,00,1","","","999,M,+0219,1","","7,1,016,1,+999,9","","","SYN070AAXX  21091 31725 /2999 22701 10186 20074 40193 57016 82040 333 10219;",
"31725099999","2000-09-21T21:00:00","4","48.6166666","133.8333333","52.0","SMIDOVICH, RS","FM-12","99999","V020","270,1,N,0010,1","22000,1,9,N","050000,1,N,1","+0052,1","+0040,1","10199,1","99,0000,9,1","","","","","","","02,99,1,02,1,00,1,99999,9,04,1,00,1","","","","","6,1,001,1,+999,9","","","SYN060AAXX  21211 31725 32999 22701 10052 20040 40199 56001 82040;","Q01  00002PRCP99"
"31725099999","2000-09-22T09:00:00","4","48.6166666","133.8333333","52.0","SMIDOVICH, RS","FM-12","99999","V020","999,9,C,0000,1","03600,1,9,N","020000,1,N,1","+0178,1","+0122,1","10169,1","99,0000,9,1","","","","","","","08,99,1,01,1,04,1,00800,1,04,1,02,1","","","999,M,+0228,1","","6,1,001,1,+999,9","","","SYN070AAXX  22091 31725 32598 80000 10178 20122 40169 56001 81442 333 10228;","Q01  00002PRCP99"
"31725099999","2000-09-22T21:00:00","4","48.6166666","133.8333333","52.0","SMIDOVICH, RS","FM-12","99999","V020","999,9,C,0000,1","99999,9,9,N","020000,1,N,1","+0080,1","+0070,1","10167,1","99,0000,9,1","","","","","","","08,99,1,99,9,00,1,99999,9,04,1,00,1","","","","","4,1,000,1,+999,9","","","SYN060AAXX  22211 31725 32998 80000 10080 20070 40167 54000 82040;","Q01+000022SCOTLCQ02  00002PRCP99"
"31725099999","2000-09-23T09:00:00","4","48.6166666","133.8333333","52.0","SMIDOVICH, RS","FM-12","99999","V020","999,9,C,0000,1","99999,9,9,N","020000,1,N,1","+0215,1","+0135,1","10152,1","99,0000,9,1","","","","","","","06,99,1,03,1,00,1,99999,9,04,1,02,1","","","999,M,+0246,1","","6,1,002,1,+999,9","","","SYN070AAXX  23091 31725 32998 60000 10215 20135 40152 56002 83042 333 10246;","Q01  00002PRCP99"
"31725099999","2000-09-23T21:00:00","4","48.6166666","133.8333333","52.0","SMIDOVICH, RS","FM-12","99999","V020","320,1,N,0010,1","22000,1,9,N","020000,1,N,1","+0099,1","+0089,1","10147,1","99,0000,9,1","","","","","","","01,99,1,01,1,00,1,99999,9,04,1,00,1","","","","","3,1,001,1,+999,9","","","SYN060AAXX  23211 31725 32998 13201 10099 20089 40147 53001 81040;","Q01  00002PRCP99"
"31725099999","2000-09-24T09:00:00","4","48.6166666","133.8333333","52.0","SMIDOVICH, RS","FM-12","99999","V020","140,1,N,0020,1","03600,1,9,N","020000,1,N,1","+0168,1","+0111,1","10123,1","99,0000,9,1","","","","","","","08,99,1,02,1,03,1,00450,1,04,1,02,1","","","999,M,+0222,1","","3,1,003,1,+999,9","","","SYN070AAXX  24091 31725 32498 81402 10168 20111 40123 53003 82342 333 10222;","Q01  00002PRCP99"
"31725099999","2000-09-24T21:00:00","4","48.6166666","133.8333333","52.0","SMIDOVICH, RS","FM-12","99999","V020","360,1,N,0020,1","99999,9,9,N","020000,1,N,1","+0110,1","+0097,1","10130,1","99,0000,9,1","","","","","","","07,99,1,07,1,00,1,99999,9,04,1,00,1","","","","","3,1,004,1,+999,9","","","SYN060AAXX  24211 31725 32998 73602 10110 20097 40130 53004 87040;","Q01  00002PRCP99"
"31725099999","2000-09-25T09:00:00","4","48.6166666","133.8333333","52.0","SMIDOVICH, RS","FM-12","99999","V020","999,9,C,0000,1","03600,1,9,N","050000,1,N,1","+0167,1","+0103,1","10117,1","99,0000,9,1","","","","","","","06,99,1,02,1,05,1,00800,1,04,1,02,1","","","999,M,+0210,1","","3,1,006,1,+999,9","","","SYN070AAXX  25091 31725 32599 60000 10167 20103 40117 53006 82542 333 10210;","Q01  00002PRCP99"
"31725099999","2000-09-25T21:00:00","4","48.6166666","133.8333333","52.0","SMIDOVICH, RS","FM-12","99999","V020","340,1,N,0010,1","03600,1,9,N","050000,1,N,1","+0094,1","+0080,1","10142,1","99,0000,9,1","","","","","","","06,99,1,03,1,05,1,00800,1,04,1,00,1","","","","","2,1,008,1,+999,9","","","SYN060AAXX  25211 31725 32599 63401 10094 20080 40142 52008 83540;","Q01  00002PRCP99"
"31725099999","2000-09-26T09:00:00","4","48.6166666","133.8333333","52.0","SMIDOVICH, RS","FM-12","99999","V020","999,9,C,0000,1","22000,1,9,N","020000,1,N,1","+0162,1","+0088,1","10141,1","99,0000,9,1","","","","","","","01,99,1,01,1,04,1,00800,1,00,1,00,1","","","999,M,+0201,1","","3,1,004,1,+999,9","","","SYN070AAXX  26091 31725 32598 10000 10162 20088 40141 53004 81400 333 10201;","Q01  00002PRCP99"
"31725099999","2000-09-26T21:00:00","4","48.6166666","133.8333333","52.0","SMIDOVICH, RS","FM-12","99999","V020","360,1,N,0010,1","22000,1,9,N","050000,1,N,1","+0064,1","+0050,1","10180,1","99,0000,9,1","","","","","","00,1,+99999,9,99,9","00,99,1,00,1,00,1,99999,9,00,1,00,1","","","","","2,1,008,1,+999,9","","","SYN054AAXX  26211 31725 32999 03601 10064 20050 40180 52008;","Q01  00002PRCP99"
"31725099999","2000-09-27T09:00:00","4","48.6166666","133.8333333","52.0","SMIDOVICH, RS","FM-12","99999","V020","999,9,C,0000,1","22000,1,9,N","020000,1,N,1","+0165,1","+0085,1","10175,1","99,0000,9,1","","","","","","","01,99,1,01,1,00,1,99999,9,04,1,00,1","","","999,M,+0211,1","","3,1,002,1,+999,9","","","SYN070AAXX  27091 31725 32998 10000 10165 20085 40175 53002 81040 333 10211;","Q01  00002PRCP99"
"31725099999","2000-09-27T21:00:00","4","48.6166666","133.8333333","52.0","SMIDOVICH, RS","FM-12","99999","V020","999,9,C,0000,1","22000,1,9,N","004000,1,N,1","+0055,1","+0048,1","10197,1","99,0000,9,1","","","0,1,03,1","0,1,03,1","","00,1,+99999,9,99,9","00,99,1,00,1,00,1,99999,9,00,1,00,1","","","","","4,1,000,1,+999,9","10,1","","SYN060AAXX  27211 31725 31996 00000 10055 20048 40197 54000 71000;","Q01  00002PRCP99"
"31725099999","2000-09-28T09:00:00","4","48.6166666","133.8333333","52.0","SMIDOVICH, RS","FM-12","99999","V020","230,1,N,0040,1","22000,1,9,N","020000,1,N,1","+0178,1","+0103,1","10086,1","99,0000,9,1","","","","","","00,1,+99999,9,99,9","00,99,1,00,1,00,1,99999,9,00,1,00,1","","","999,M,+0225,1","","7,1,021,1,+999,9","","","SYN064AAXX  28091 31725 32998 02304 10178 20103 40086 57021 333 10225;","Q01  00002PRCP99"
"31725099999","2000-09-28T21:00:00","4","48.6166666","133.8333333","52.0","SMIDOVICH, RS","FM-12","99999","V020","320,1,N,0010,1","22000,1,9,N","050000,1,N,1","+0052,1","+9999,9","10121,1","99,0000,9,1","","","","","","00,1,+99999,9,99,9","00,99,1,00,1,00,1,99999,9,00,1,00,1","","","","","2,1,016,1,+999,9","","","SYN048AAXX  28211 31725 32999 03201 10052 40121 52016;","Q01  00002PRCP99"
"31725099999","2000-09-29T09:00:00","4","48.6166666","133.8333333","52.0","SMIDOVICH, RS","FM-12","99999","V020","999,9,C,0000,1","00420,1,9,N","020000,1,N,1","+0115,1","+0062,1","10187,1","","","","8,1,03,1","2,1,03,1","","","08,99,1,05,1,03,1,00450,1,04,1,02,1","","","999,M,+0167,1","","4,1,000,1,+999,9","01,1","","SYN076AAXX  29091 31725 /1498 80000 10115 20062 40187 54000 70182 85342 333 10167;",
"31725099999","2000-09-29T21:00:00","4","48.6166666","133.8333333","52.0","SMIDOVICH, RS","FM-12","99999","V020","050,1,N,0010,1","03600,1,9,N","020000,1,N,1","+0058,1","+0039,1","10205,1","99,0000,9,1","","","","","","","07,99,1,02,1,03,1,00450,1,04,1,02,1","","","","","3,1,002,1,+999,9","","","SYN060AAXX  29211 31725 32498 70501 10058 20039 40205 53002 82342;","Q01  00002PRCP99"
"31725099999","2000-09-30T09:00:00","4","48.6166666","133.8333333","52.0","SMIDOVICH, RS","FM-12","99999","V020","360,1,N,0020,1","99999,9,9,N","020000,1,N,1","+0122,1","+0056,1","10172,1","99,0000,9,1","","","","","","","08,99,1,04,1,00,1,99999,9,04,1,02,1","","","999,M,+0156,1","","7,1,003,1,+999,9","","","SYN070AAXX  30091 31725 32998 83602 10122 20056 40172 57003 84042 333 10156;","Q01  00002PRCP99"
"31725099999","2000-09-30T21:00:00","4","48.6166666","133.8333333","52.0","SMIDOVICH, RS","FM-12","99999","V020","320,1,N,0010,1","00420,1,9,N","020000,1,N,1","+0068,1","+0040,1","10176,1","99,0000,9,1","","","","","","","08,99,1,05,1,03,1,00450,1,04,1,99,9","","","","","3,1,002,1,+999,9","","","SYN060AAXX  30211 31725 32498 83201 10068 20040 40176 53002 8534/;","Q01  00002PRCP99"
"31725099999","2000-10-01T09:00:00","4","48.6166666","133.8333333","52.0","SMIDOVICH, RS","FM-12","99999","V020","999,9,C,0000,1","22000,1,9,N","050000,1,N,1","+0132,1","+0058,1","10169,1","99,0000,9,1","","","","","","","03,99,1,02,1,05,1,00800,1,00,1,02,1","","","999,M,+0172,1","","3,1,002,1,+999,9","","","SYN070AAXX  01091 31725 32599 30000 10132 20058 40169 53002 82502 333 10172;","Q01  00002PRCP99"
"31725099999","2000-10-01T15:00:00","4","48.6166666","133.8333333","52.0","SMIDOVICH, RS","FM-12","99999","V020","999,9,C,0000,1","22000,1,9,N","050000,1,N,1","+0132,1","+0058,1","10169,1","99,0000,9,1","","","","","","","03,99,1,02,1,05,1,00800,1,00,1,02,1","","","999,M,+0172,1","","3,1,002,1,+999,9","","","SYN070AAXX  01151 31725 32599 30000 10132 20058 40169 53002 82502 333 10172;","Q01  00002PRCP99"
"31725099999","2000-10-01T21:00:00","4","48.6166666","133.8333333","52.0","SMIDOVICH, RS","FM-12","99999","V020","999,9,C,0000,1","22000,1,9,N","050000,1,N,1","+0027,1","+0019,1","10192,1","99,0000,9,1","","","0,1,03,1","0,1,03,1","","","01,99,1,00,1,00,1,99999,9,00,1,02,1","","","","","3,1,003,1,+999,9","11,1","","SYN066AAXX  01211 31725 31999 10000 10027 20019 40192 53003 71100 80002;","Q01  00002PRCP99"
"31725099999","2000-10-02T09:00:00","4","48.6166666","133.8333333","52.0","SMIDOVICH, RS","FM-12","99999","V020","360,1,N,0030,1","09000,1,9,N","050000,1,N,1","+0114,1","+0029,1","10145,1","99,0000,9,1","","","","","","","05,99,1,02,1,05,1,00800,1,04,1,02,1","","","999,M,+0159,1","","7,1,004,1,+999,9","","","SYN070AAXX  02091 31725 32599 53603 10114 20029 40145 57004 82542 333 10159;","Q01  00002PRCP99"
"31725099999","2000-10-02T21:00:00","4","48.6166666","133.8333333","52.0","SMIDOVICH, RS","FM-12","99999","V020","320,1,N,0010,1","00420,1,9,N","010000,1,N,1","+0066,1","+0027,1","10136,1","","","","","","","","08,99,1,08,1,03,1,00450,1,99,9,99,9","","","","","7,1,003,1,+999,9","","","SYN060AAXX  02211 31725 /1497 83201 10066 20027 40136 57003 883//;",
"31725099999","2000-10-03T09:00:00","4","48.6166666","133.8333333","52.0","SMIDOVICH, RS","FM-12","99999","V020","050,1,N,0030,1","00420,1,9,N","020000,1,N,1","+0103,1","+0043,1","10125,1","","","","","","","","08,99,1,07,1,03,1,00450,1,04,1,99,9","","","999,M,+0132,1","","3,1,005,1,+999,9","","","SYN070AAXX  03091 31725 /2498 80503 10103 20043 40125 53005 8734/ 333 10132;",
"31725099999","2000-10-03T21:00:00","4","48.6166666","133.8333333","52.0","SMIDOVICH, RS","FM-12","99999","V020","020,1,N,0010,1","00420,1,9,N","004000,1,N,1","+0063,1","+0045,1","10136,1","","","","6,1,03,1","2,1,03,1","","","08,99,1,05,1,07,1,00450,1,02,1,99,9","","","","","3,1,001,1,+999,9","61,1","","SYN066AAXX  03211 31725 /1496 80201 10063 20045 40136 53001 76162 8572/;",
"31725099999","2000-10-04T21:00:00","4","48.6166666","133.8333333","52.0","SMIDOVICH, RS","FM-12","99999","V020","340,1,N,0010,1","03600,1,9,N","020000,1,N,1","+0060,1","+0036,1","10187,1","99,0000,9,1","","","","","","","08,99,1,02,1,03,1,00450,1,04,1,99,9","","","","","2,1,010,1,+999,9","","","SYN060AAXX  04211 31725 32498 83401 10060 20036 40187 52010 8234/;","Q01  00002PRCP99"
"31725099999","2000-10-05T09:00:00","4","48.6166666","133.8333333","52.0","SMIDOVICH, RS","FM-12","99999","V020","230,1,N,0010,1","00420,1,9,N","050000,1,N,1","+0093,1","+0051,1","10203,1","99,0000,9,1","","","","","","","06,99,1,06,1,03,1,00450,1,04,1,00,1","","","999,M,+0127,1","","3,1,008,1,+999,9","","","SYN070AAXX  05091 31725 32499 62301 10093 20051 40203 53008 86340 333 10127;","Q01  00002PRCP99"
"31725099999","2000-10-05T21:00:00","4","48.6166666","133.8333333","52.0","SMIDOVICH, RS","FM-12","99999","V020","270,1,N,0010,1","00420,1,9,N","050000,1,N,1","+0024,1","+0016,1","10243,1","99,0000,9,1","","","","","","","06,99,1,06,1,03,1,00450,1,00,1,00,1","","","","","2,1,012,1,+999,9","","","SYN060AAXX  05211 31725 32499 62701 10024 20016 40243 52012 86300;","Q01  00002PRCP99"
"31725099999","2000-10-06T09:00:00","4","48.6166666","133.8333333","52.0","SMIDOVICH, RS","FM-12","99999","V020","999,9,C,0000,1","22000,1,9,N","020000,1,N,1","+0106,1","+0038,1","10237,1","99,0000,9,1","","","","","","","01,99,1,01,1,05,1,00800,1,00,1,00,1","","","999,M,+0152,1","","3,1,001,1,+999,9","","","SYN070AAXX  06091 31725 32598 10000 10106 20038 40237 53001 81500 333 10152;","Q01  00002PRCP99"
"31725099999","2000-10-06T21:00:00","4","48.6166666","133.8333333","52.0","SMIDOVICH, RS","FM-12","99999","V020","999,9,C,0000,1","22000,1,9,N","020000,1,N,1","+0009,1","+0001,1","10244,1","99,0000,9,1","","","","","","","02,99,1,01,1,05,1,00800,1,04,1,00,1","","","","","8,1,002,1,+999,9","","","SYN060AAXX  06211 31725 32598 20000 10009 20001 40244 58002 81540;","Q01  00002PRCP99"
"31725099999","2000-10-07T09:00:00","4","48.6166666","133.8333333","52.0","SMIDOVICH, RS","FM-12","99999","V020","050,1,N,0030,1","00420,1,9,N","050000,1,N,1","+0106,1","+0041,1","10168,1","99,0000,9,1","","","","","","","08,99,1,07,1,03,1,00450,1,04,1,99,9","","","999,M,+0136,1","","7,1,019,1,+999,9","","","SYN070AAXX  07091 31725 32499 80503 10106 20041 40168 57019 8734/ 333 10136;","Q01  00002PRCP99"
"31725099999","2000-10-07T21:00:00","4","48.6166666","133.8333333","52.0","SMIDOVICH, RS","FM-12","99999","V020","050,1,N,0030,1","99999,9,9,N","020000,1,N,1","+0079,1","+0050,1","10102,1","","","","","","","","08,99,1,06,1,00,1,99999,9,04,1,02,1","","","","","7,1,009,1,+999,9","","","SYN060AAXX  07211 31725 /2998 80503 10079 20050 40102 57009 86042;",
"31725099999","2000-10-08T09:00:00","4","48.6166666","133.8333333","52.0","SMIDOVICH, RS","FM-12","99999","V020","999,9,C,0000,1","00420,1,9,N","004000,1,N,1","+0077,1","+0068,1","10099,1","","","","5,1,03,1","2,1,03,1","","","08,99,1,06,1,05,1,00450,1,04,1,99,9","","","999,M,+0083,1","","3,1,002,1,+999,9","53,1","","SYN076AAXX  08091 31725 /1496 80000 10077 20068 40099 53002 75352 8654/ 333 10083;",
"31725099999","2000-10-08T21:00:00","4","48.6166666","133.8333333","52.0","SMIDOVICH, RS","FM-12","99999","V020","270,1,N,0010,1","22000,1,9,N","020000,1,N,1","+0020,1","+9999,9","10095,1","","","","","","","","03,99,1,02,1,03,1,00450,1,00,1,02,1","","","","","3,1,003,1,+999,9","","","SYN060AAXX  08211 31725 /2498 32701 10020 2012/ 40095 53003 82302;",
"31725099999","2000-10-09T09:00:00","4","48.6166666","133.8333333","52.0","SMIDOVICH, RS","FM-12","99999","V020","270,1,N,0040,1","00420,1,9,N","020000,1,N,1","+0056,1","+0005,1","10101,1","99,0000,9,1","","","","","","","08,99,1,07,1,03,1,00450,1,04,1,00,1","","","999,M,+0093,1","","3,1,007,1,+999,9","","","SYN070AAXX  09091 31725 32498 82704 10056 20005 40101 53007 87340 333 10093;","Q01  00002PRCP99"
"31725099999","2000-10-09T21:00:00","4","48.6166666","133.8333333","52.0","SMIDOVICH, RS","FM-12","99999","V020","270,1,N,0010,1","03600,1,9,N","020000,1,N,1","-0012,1","-0021,1","10142,1","99,0000,9,1","","","","","","","05,99,1,03,1,03,1,00450,1,04,1,00,1","","","","","2,1,006,1,+999,9","","","SYN060AAXX  09211 31725 32498 52701 11012 21021 40142 52006 83340;","Q01  00002PRCP99"
"31725099999","2000-10-10T09:00:00","4","48.6166666","133.8333333","52.0","SMIDOVICH, RS","FM-12","99999","V020","999,9,C,0000,1","22000,1,9,N","050000,1,N,1","+0081,1","+0017,1","10129,1","99,0000,9,1","","","","","","","01,99,1,01,1,05,1,00800,1,00,1,00,1","","","999,M,+0140,1","","3,1,002,1,+999,9","","","SYN070AAXX  10091 31725 32599 10000 10081 20017 40129 53002 81500 333 10140;","Q01  00002PRCP99"
"31725099999","2000-10-10T21:00:00","4","48.6166666","133.8333333","52.0","SMIDOVICH, RS","FM-12","99999","V020","180,1,N,0030,1","00420,1,9,N","010000,1,N,1","+0061,1","+0030,1","10032,1","","","","8,1,03,1","2,1,03,1","","","08,99,1,08,1,03,1,00450,1,99,9,99,9","","","","","7,1,035,1,+999,9","80,1","","SYN066AAXX  10211 31725 /1497 81803 10061 20030 40032 57035 78082 883//;",
"31725099999","2000-10-11T09:00:00","4","48.6166666","133.8333333","52.0","SMIDOVICH, RS","FM-12","99999","V020","230,1,N,0040,1","00420,1,9,N","020000,1,N,1","+0048,1","+0009,1","10027,1","","","","","","","","08,99,1,08,1,03,1,00450,1,99,9,99,9","","","999,M,+0098,1","","3,1,003,1,+999,9","","","SYN070AAXX  11091 31725 /3498 82304 10048 20009 40027 53003 883// 333 10098;",
"31725099999","2000-10-11T21:00:00","4","48.6166666","133.8333333","52.0","SMIDOVICH, RS","FM-12","99999","V020","320,1,N,0030,1","22000,1,9,N","050000,1,N,1","+0002,1","-0025,1","10073,1","","","","","","","","02,99,1,02,1,00,1,99999,9,04,1,00,1","","","","","2,1,012,1,+999,9","","","SYN060AAXX  11211 31725 /2999 23203 10002 21025 40073 52012 82040;",
"31725099999","2000-10-12T09:00:00","4","48.6166666","133.8333333","52.0","SMIDOVICH, RS","FM-12","99999","V020","270,1,N,0030,1","22000,1,9,N","050000,1,N,1","+0034,1","-0078,1","10079,1","99,0000,9,1","","","","","","","03,99,1,02,1,03,1,00450,1,04,1,02,1","","","999,M,+0074,1","","3,1,007,1,+999,9","","","SYN070AAXX  12091 31725 32499 32703 10034 21078 40079 53007 82342 333 10074;","Q01  00002PRCP99"
"31725099999","2000-10-12T21:00:00","4","48.6166666","133.8333333","52.0","SMIDOVICH, RS","FM-12","99999","V020","230,1,N,0020,1","00420,1,9,N","020000,1,N,1","+0015,1","-0040,1","10085,1","99,0000,9,1","","","","","","","08,99,1,08,1,03,1,00450,1,99,9,99,9","","","","","4,1,000,1,+999,9","","","SYN060AAXX  12211 31725 32498 82302 10015 21040 40085 54000 883//;","Q01  00002PRCP99"
"31725099999","2000-10-13T09:00:00","4","48.6166666","133.8333333","52.0","SMIDOVICH, RS","FM-12","99999","V020","200,1,N,0030,1","22000,1,9,N","050000,1,N,1","+0060,1","-0045,1","10071,1","99,0000,9,1","","","","","","","03,99,1,01,1,03,1,00450,1,04,1,00,1","","","999,M,+0115,1","","3,1,012,1,+999,9","","","SYN070AAXX  13091 31725 32499 32003 10060 21045 40071 53012 81340 333 10115;","Q01  00002PRCP99"
"31725099999","2000-10-13T21:00:00","4","48.6166666","133.8333333","52.0","SMIDOVICH, RS","FM-12","99999","V020","200,1,N,0030,1","22000,1,9,N","050000,1,N,1","+0060,1","-0045,1","10071,1","99,0000,9,1","","","","","","","03,99,1,01,1,03,1,00450,1,04,1,00,1","","","999,M,+0115,1","","3,1,012,1,+999,9","","","SYN070AAXX  13211 31725 32499 32003 10060 21045 40071 53012 81340 333 10115;","Q01  00002PRCP99"
"31725099999","2000-10-14T09:00:00","4","48.6166666","133.8333333","52.0","SMIDOVICH, RS","FM-12","99999","V020","230,1,N,0010,1","00420,1,9,N","020000,1,N,1","+0068,1","-0022,1","10093,1","99,0000,9,1","","","","","","","08,99,1,08,1,03,1,00450,1,99,9,99,9","","","999,M,+0113,1","","6,1,001,1,+999,9","","","SYN070AAXX  14091 31725 32498 82301 10068 21022 40093 56001 883// 333 10113;","Q01  00002PRCP99"
"31725099999","2000-10-14T21:00:00","4","48.6166666","133.8333333","52.0","SMIDOVICH, RS","FM-12","99999","V020","320,1,N,0020,1","00420,1,9,N","004000,1,N,1","+0015,1","+0007,1","10079,1","","","","8,1,03,1","2,1,03,1","","","08,99,1,08,1,03,1,00450,1,99,9,99,9","","","","","6,1,001,1,+999,9","81,1","","SYN066AAXX  14211 31725 /1496 83202 10015 20007 40079 56001 78182 883//;",
"31725099999","2000-10-15T09:00:00","4","48.6166666","133.8333333","52.0","SMIDOVICH, RS","FM-12","99999","V020","290,1,N,0060,1","22000,1,9,N","050000,1,N,1","-0038,1","-0221,1","10221,1","","","","","","","00,1,+99999,9,99,9","00,99,1,00,1,00,1,99999,9,00,1,00,1","","","999,M,+0016,1","","2,1,022,1,+999,9","","","SYN064AAXX  15091 31725 /2999 02906 11038 21221 40221 52022 333 10016;",
"31725099999","2000-10-16T09:00:00","4","48.6166666","133.8333333","52.0","SMIDOVICH, RS","FM-12","99999","V020","180,1,N,0010,1","22000,1,9,N","020000,1,N,1","+0014,1","-0107,1","10087,1","99,0000,9,1","","","","","","","02,99,1,02,1,04,1,00800,1,00,1,00,1","","","999,M,+0073,1","","7,1,019,1,+999,9","","","SYN070AAXX  16091 31725 32598 21801 10014 21107 40087 57019 82400 333 10073;","Q01  00002PRCP99"
"31725099999","2000-10-16T21:00:00","4","48.6166666","133.8333333","52.0","SMIDOVICH, RS","FM-12","99999","V020","230,1,N,0020,1","03600,1,9,N","020000,1,N,1","+0076,1","-0050,1","10021,1","99,0000,9,1","","","","","","","08,99,1,04,1,03,1,00450,1,04,1,99,9","","","","","7,1,008,1,+999,9","","","SYN060AAXX  16211 31725 32498 82302 10076 21050 40021 57008 8434/;","Q01  00002PRCP99"
"31725099999","2000-10-17T09:00:00","4","48.6166666","133.8333333","52.0","SMIDOVICH, RS","FM-12","99999","V020","340,1,N,0070,1","22000,1,9,N","020000,1,N,1","-0010,1","-0028,1","10081,1","99,0000,9,1","","","","","","","02,99,1,02,1,03,1,00450,1,00,1,00,1","","","999,M,+0081,1","","2,1,039,1,+999,9","","","SYN070AAXX  17091 31725 32498 23407 11010 21028 40081 52039 82300 333 10081;","Q01  00002PRCP99"
"31725099999","2000-10-17T21:00:00","4","48.6166666","133.8333333","52.0","SMIDOVICH, RS","FM-12","99999","V020","340,1,N,0050,1","22000,1,9,N","020000,1,N,1","-0088,1","-0097,1","10173,1","99,0000,9,1","","","","","","","02,99,1,99,9,00,1,00450,1,04,1,00,1","","","","","2,1,022,1,+999,9","","","SYN060AAXX  17211 31725 32498 23405 11088 21097 40173 52022 80040;","Q01+000002SCOTLCQ02  00002PRCP99"
"31725099999","2000-10-18T09:00:00","4","48.6166666","133.8333333","52.0","SMIDOVICH, RS","FM-12","99999","V020","230,1,N,0010,1","22000,1,9,N","020000,1,N,1","-0034,1","-0191,1","10209,1","99,0000,9,1","","","","","","","01,99,1,01,1,05,1,00800,1,00,1,00,1","","","999,M,+0001,1","","2,1,012,1,+999,9","","","SYN070AAXX  18091 31725 32598 12301 11034 21191 40209 52012 81500 333 10001;","Q01  00002PRCP99"
"31725099999","2000-10-18T21:00:00","4","48.6166666","133.8333333","52.0","SMIDOVICH, RS","FM-12","99999","V020","999,9,C,0000,1","00420,1,9,N","020000,1,N,1","-0067,1","-0100,1","10207,1","99,0000,9,1","","","","","","","07,99,1,06,1,03,1,00450,1,04,1,00,1","","","","","6,1,002,1,+999,9","","","SYN060AAXX  18211 31725 32498 70000 11067 21100 40207 56002 86340;","Q01  00002PRCP99"
"31725099999","2000-10-19T09:00:00","4","48.6166666","133.8333333","52.0","SMIDOVICH, RS","FM-12","99999","V020","230,1,N,0020,1","00420,1,9,N","020000,1,N,1","+0005,1","-0087,1","10148,1","99,0000,9,1","","","","","","","08,99,1,05,1,03,1,00450,1,04,1,99,9","","","999,M,+0020,1","","7,1,007,1,+999,9","","","SYN070AAXX  19091 31725 32498 82302 10005 21087 40148 57007 8534/ 333 10020;","Q01  00002PRCP99"
"31725099999","2000-10-19T21:00:00","4","48.6166666","133.8333333","52.0","SMIDOVICH, RS","FM-12","99999","V020","230,1,N,0010,1","00420,1,9,N","020000,1,N,1","-0006,1","-0015,1","10096,1","","","","","","","","08,99,1,06,1,03,1,00450,1,04,1,99,9","","","","","6,1,001,1,+999,9","","","SYN060AAXX  19211 31725 /2498 82301 11006 21015 40096 56001 8634/;",
"31725099999","2000-10-20T09:00:00","4","48.6166666","133.8333333","52.0","SMIDOVICH, RS","FM-12","99999","V020","999,9,C,0000,1","22000,1,9,N","020000,1,N,1","+0004,1","-0062,1","10162,1","99,0000,9,1","","","","","","00,1,+99999,9,99,9","00,99,1,00,1,00,1,99999,9,00,1,00,1","","","999,M,+0053,1","","2,1,022,1,+999,9","","","SYN064AAXX  20091 31725 32998 00000 10004 21062 40162 52022 333 10053;","Q01  00002PRCP99"
"31725099999","2000-10-20T21:00:00","4","48.6166666","133.8333333","52.0","SMIDOVICH, RS","FM-12","99999","V020","230,1,N,0010,1","00420,1,9,N","050000,1,N,1","-0020,1","-0041,1","10163,1","99,0000,9,1","","","","","","","06,99,1,05,1,03,1,00450,1,04,1,02,1","","","","","7,1,003,1,+999,9","","","SYN060AAXX  20211 31725 32499 62301 11020 21041 40163 57003 85342;","Q01  00002PRCP99"
"31725099999","2000-10-21T09:00:00","4","48.6166666","133.8333333","52.0","SMIDOVICH, RS","FM-12","99999","V020","270,1,N,0030,1","22000,1,9,N","020000,1,N,1","+0012,1","-0081,1","10166,1","99,0000,9,1","","","","","","","03,99,1,03,1,00,1,99999,9,04,1,00,1","","","999,M,+0063,1","","2,1,010,1,+999,9","","","SYN070AAXX  21091 31725 32998 32703 10012 21081 40166 52010 83040 333 10063;","Q01  00002PRCP99"
"31725099999","2000-10-21T21:00:00","4","48.6166666","133.8333333","52.0","SMIDOVICH, RS","FM-12","99999","V020","230,1,N,0010,1","22000,1,9,N","020000,1,N,1","+0036,1","+9999,9","10223,1","99,0000,9,1","","","","","","00,1,+99999,9,99,9","00,99,1,00,1,00,1,99999,9,00,1,00,1","","","","","2,1,012,1,+999,9","","","SYN054AAXX  21211 31725 32998 02301 10036 20084 40223 52012;","Q01  00002PRCP99"
"31725099999","2000-10-22T09:00:00","4","48.6166666","133.8333333","52.0","SMIDOVICH, RS","FM-12","99999","V020","270,1,N,0010,1","22000,1,9,N","020000,1,N,1","+0034,1","-0083,1","10210,1","99,0000,9,1","","","","","","","02,99,1,02,1,00,1,99999,9,04,1,02,1","","","999,M,+0082,1","","4,1,000,1,+999,9","","","SYN070AAXX  22091 31725 32998 22701 10034 21083 40210 54000 82042 333 10082;","Q01  00002PRCP99"
"31725099999","2000-10-22T21:00:00","4","48.6166666","133.8333333","52.0","SMIDOVICH, RS","FM-12","99999","V020","320,1,N,0010,1","99999,9,9,N","020000,1,N,1","-0026,1","-0049,1","10205,1","99,0000,9,1","","","","","","","08,99,1,05,1,00,1,99999,9,04,1,02,1","","","","","7,1,008,1,+999,9","","","SYN060AAXX  22211 31725 32998 83201 11026 21049 40205 57008 85042;","Q01  00002PRCP99"
"31725099999","2000-10-23T09:00:00","4","48.6166666","133.8333333","52.0","SMIDOVICH, RS","FM-12","99999","V020","999,9,C,0000,1","00420,1,9,N","020000,1,N,1","+0029,1","+0005,1","10192,1","99,0000,9,1","","","","","","","08,99,1,06,1,03,1,00450,1,04,1,99,9","","","999,M,+0045,1","","3,1,006,1,+999,9","","","SYN070AAXX  23091 31725 32498 80000 10029 20005 40192 53006 8634/ 333 10045;","Q01  00002PRCP99"
"31725099999","2000-10-23T21:00:00","4","48.6166666","133.8333333","52.0","SMIDOVICH, RS","FM-12","99999","V020","999,9,C,0000,1","00420,1,9,N","020000,1,N,1","+0019,1","+0011,1","10197,1","","","","","","","","08,99,1,06,1,03,1,00450,1,04,1,99,9","","","","","8,1,001,1,+999,9","","","SYN060AAXX  23211 31725 /2498 80000 10019 20011 40197 58001 8634/;",
"31725099999","2000-10-24T09:00:00","4","48.6166666","133.8333333","52.0","SMIDOVICH, RS","FM-12","99999","V020","999,9,C,0000,1","00420,1,9,N","020000,1,N,1","+0094,1","+0064,1","10076,1","","","","","","","","08,99,1,06,1,03,1,00450,1,04,1,99,9","","","999,M,+0094,1","","7,1,038,1,+999,9","","","SYN070AAXX  24091 31725 /2498 80000 10094 20064 40076 57038 8634/ 333 10094;",
"31725099999","2000-10-24T21:00:00","4","48.6166666","133.8333333","52.0","SMIDOVICH, RS","FM-12","99999","V020","270,1,N,0050,1","22000,1,9,N","050000,1,N,1","+0004,1","-0088,1","10057,1","","","","","","","","01,99,1,01,1,05,1,00800,1,00,1,00,1","","","","","2,1,013,1,+999,9","","","SYN070AAXX  24211 31725 /2599 12705 10004 21088 40057 52013 81500 333 91112;",
"31725099999","2000-10-25T09:00:00","4","48.6166666","133.8333333","52.0","SMIDOVICH, RS","FM-12","99999","V020","230,1,N,0040,1","03600,1,9,N","020000,1,N,1","+0008,1","-0119,1","10073,1","99,0000,9,1","","","","","","","08,99,1,02,1,03,1,00450,1,04,1,99,9","","","999,M,+0037,1","","3,1,011,1,+999,9","","","SYN070AAXX  25091 31725 32498 82304 10008 21119 40073 53011 8234/ 333 10037;","Q01  00002PRCP99"
"31725099999","2000-10-25T21:00:00","4","48.6166666","133.8333333","52.0","SMIDOVICH, RS","FM-12","99999","V020","230,1,N,0040,1","22000,1,9,N","050000,1,N,1","-0034,1","-0074,1","10097,1","99,0000,9,1","","","","","","","02,99,1,02,1,00,1,99999,9,04,1,00,1","","","","","2,1,006,1,+999,9","","","SYN060AAXX  25211 31725 32999 22304 11034 21074 40097 52006 82040;","Q01  00002PRCP99"
"31725099999","2000-10-26T09:00:00","4","48.6166666","133.8333333","52.0","SMIDOVICH, RS","FM-12","99999","V020","320,1,N,0060,1","22000,1,9,N","020000,1,N,1","-0005,1","-0149,1","10139,1","99,0000,9,1","","","","","","00,1,+99999,9,99,9","00,99,1,00,1,00,1,99999,9,00,1,00,1","","","120,M,+0028,1","","2,1,025,1,+999,9","","","SYN070AAXX  26091 31725 32998 03206 11005 21149 40139 52025 333 10028 91110;","Q01  00002PRCP99"
"31725099999","2000-10-26T21:00:00","4","48.6166666","133.8333333","52.0","SMIDOVICH, RS","FM-12","99999","V020","270,1,N,0020,1","22000,1,9,N","020000,1,N,1","-0045,1","-0116,1","10191,1","99,0000,9,1","","","","","","","01,99,1,01,1,00,1,99999,9,04,1,00,1","","","","","2,1,006,1,+999,9","","","SYN060AAXX  26211 31725 32998 12702 11045 21116 40191 52006 81040;","Q01  00002PRCP99"
"31725099999","2000-10-27T09:00:00","4","48.6166666","133.8333333","52.0","SMIDOVICH, RS","FM-12","99999","V020","290,1,N,0040,1","22000,1,9,N","050000,1,N,1","+0017,1","-0145,1","10186,1","99,0000,9,1","","","","","","00,1,+99999,9,99,9","00,99,1,00,1,00,1,99999,9,00,1,00,1","","","999,M,+0123,1","","3,1,001,1,+999,9","","","SYN064AAXX  27091 31725 32999 02904 10017 21145 40186 53001 333 10123;","Q01  00002PRCP99"
"31725099999","2000-10-27T21:00:00","4","48.6166666","133.8333333","52.0","SMIDOVICH, RS","FM-12","99999","V020","230,1,N,0010,1","22000,1,9,N","050000,1,N,1","-0055,1","-0111,1","10177,1","99,0000,9,1","","","","","","00,1,+99999,9,99,9","00,99,1,00,1,00,1,99999,9,00,1,00,1","","","","","7,1,009,1,+999,9","","","SYN054AAXX  27211 31725 32999 02301 11055 21111 40177 57009;","Q01  00002PRCP99"
"31725099999","2000-10-28T09:00:00","4","48.6166666","133.8333333","52.0","SMIDOVICH, RS","FM-12","99999","V020","270,1,N,0050,1","22000,1,9,N","020000,1,N,1","+0005,1","-0119,1","10109,1","99,0000,9,1","","","","","","","02,99,1,99,9,00,1,99999,9,04,1,00,1","","","999,M,+0064,1","","7,1,007,1,+999,9","","","SYN070AAXX  28091 31725 32998 22705 10005 21119 40109 57007 80040 333 10064;","Q01+000002SCOTLCQ02  00002PRCP99"
"31725099999","2000-10-29T09:00:00","4","48.6166666","133.8333333","52.0","SMIDOVICH, RS","FM-12","99999","V020","230,1,N,0010,1","22000,1,9,N","020000,1,N,1","-0002,1","-0145,1","10084,1","99,0000,9,1","","","","","","00,1,+99999,9,99,9","00,99,1,00,1,00,1,99999,9,00,1,00,1","","","999,M,+0053,1","","3,1,003,1,+999,9","","","SYN064AAXX  29091 31725 32998 02301 11002 21145 40084 53003 333 10053;","Q01  00002PRCP99"
"31725099999","2000-10-29T21:00:00","4","48.6166666","133.8333333","52.0","SMIDOVICH, RS","FM-12","99999","V020","230,1,N,0030,1","22000,1,9,N","020000,1,N,1","-0065,1","-0116,1","10113,1","99,0000,9,1","","","","","","00,1,+99999,9,99,9","00,99,1,00,1,00,1,99999,9,00,1,00,1","","","","","2,1,004,1,+999,9","","","SYN054AAXX  29211 31725 32998 02303 11065 21116 40113 52004;","Q01  00002PRCP99"
"31725099999","2000-10-30T09:00:00","4","48.6166666","133.8333333","52.0","SMIDOVICH, RS","FM-12","99999","V020","230,1,N,0010,1","03600,1,9,N","020000,1,N,1","+0021,1","-0076,1","10129,1","99,0000,9,1","","","","","","","08,99,1,03,1,03,1,00450,1,04,1,99,9","","","999,M,+0062,1","","3,1,003,1,+999,9","","","SYN070AAXX  30091 31725 32498 82301 10021 21076 40129 53003 8334/ 333 10062;","Q01  00002PRCP99"
"31725099999","2000-10-30T21:00:00","4","48.6166666","133.8333333","52.0","SMIDOVICH, RS","FM-12","99999","V020","230,1,N,0010,1","22000,1,9,N","020000,1,N,1","-0057,1","-0075,1","10152,1","99,0000,9,1","","","","","","00,1,+99999,9,99,9","00,99,1,00,1,00,1,99999,9,00,1,00,1","","","","","1,1,001,1,+999,9","","","SYN054AAXX  30211 31725 32998 02301 11057 21075 40152 51001;","Q01  00002PRCP99"
"31725099999","2000-10-31T09:00:00","4","48.6166666","133.8333333","52.0","SMIDOVICH, RS","FM-12","99999","V020","999,9,C,0000,1","22000,1,9,N","020000,1,N,1","+0006,1","-0055,1","10147,1","99,0000,9,1","","","","","","00,1,+99999,9,99,9","00,99,1,00,1,00,1,99999,9,00,1,00,1","","","999,M,+0079,1","","3,1,007,1,+999,9","","","SYN064AAXX  31091 31725 32998 00000 10006 21055 40147 53007 333 10079;","Q01  00002PRCP99"
"31725099999","2000-10-31T21:00:00","4","48.6166666","133.8333333","52.0","SMIDOVICH, RS","FM-12","99999","V020","270,1,N,0020,1","00420,1,9,N","004000,1,N,1","-0010,1","-0049,1","10160,1","","","","8,1,03,1","2,1,03,1","","","08,99,1,08,1,03,1,00450,1,99,9,99,9","","","","","2,1,008,1,+999,9","85,1","","SYN066AAXX  31211 31725 /1496 82702 11010 21049 40160 52008 78582 883//;",
"31725099999","2000-11-01T09:00:00","4","48.6166666","133.8333333","52.0","SMIDOVICH, RS","FM-12","99999","V020","230,1,N,0010,1","22000,1,9,N","020000,1,N,1","+0020,1","-0064,1","10192,1","","","","","","","00,1,+99999,9,99,9","00,99,1,00,1,00,1,99999,9,00,1,00,1","","","999,M,+0083,1","","2,1,011,1,+999,9","","","SYN064AAXX  01091 31725 /2998 02301 10020 21064 40192 52011 333 10083;",
"31725099999","2000-11-01T21:00:00","4","48.6166666","133.8333333","52.0","SMIDOVICH, RS","FM-12","99999","V020","999,9,C,0000,1","22000,1,9,N","020000,1,N,1","-0055,1","-0066,1","10209,1","99,0000,9,1","","","","","","00,1,+99999,9,99,9","00,99,1,00,1,00,1,99999,9,00,1,00,1","","","","","8,1,002,1,+999,9","","","SYN054AAXX  01211 31725 32998 00000 11055 21066 40209 58002;","Q01  00002PRCP99"
"31725099999","2000-11-02T09:00:00","4","48.6166666","133.8333333","52.0","SMIDOVICH, RS","FM-12","99999","V020","020,1,N,0010,1","99999,9,9,N","020000,1,N,1","+0024,1","-0047,1","10175,1","99,0000,9,1","","","","","","","06,99,1,99,9,00,1,99999,9,04,1,00,1","","","999,M,+0051,1","","3,1,007,1,+999,9","","","SYN070AAXX  02091 31725 32998 60201 10024 21047 40175 53007 80040 333 10051;","Q01+000002SCOTLCQ02  00002PRCP99"
"31725099999","2000-11-02T21:00:00","4","48.6166666","133.8333333","52.0","SMIDOVICH, RS","FM-12","99999","V020","999,9,C,0000,1","99999,9,9,N","020000,1,N,1","-0018,1","-0051,1","10170,1","24,9999,9,9","","","","","","","07,99,1,07,1,00,1,99999,9,04,1,99,9","","","120,N,+9999,9","","2,1,010,1,+999,9","","","SYN076AAXX  02211 31725 32998 70000 11018 21051 40170 52010 8704/ 333 21012 7000/;","Q01 -00122ATMN  "
"31725099999","2000-11-03T09:00:00","4","48.6166666","133.8333333","52.0","SMIDOVICH, RS","FM-12","99999","V020","999,9,C,0000,1","22000,1,9,N","020000,1,N,1","+0022,1","-0066,1","10241,1","99,0000,9,1","","","","","","","02,99,1,02,1,00,1,99999,9,04,1,00,1","","","999,M,+0075,1","","2,1,022,1,+999,9","","","SYN070AAXX  03091 31725 32998 20000 10022 21066 40241 52022 82040 333 10075;","Q01  00002PRCP99"
"31725099999","2000-11-03T21:00:00","4","48.6166666","133.8333333","52.0","SMIDOVICH, RS","FM-12","99999","V020","230,1,N,0030,1","22000,1,9,N","020000,1,N,1","-0020,1","-0036,1","10223,1","99,0000,9,1","","","","","","","03,99,1,03,1,00,1,99999,9,04,1,00,1","","","","","8,1,019,1,+999,9","","","SYN060AAXX  03211 31725 32998 32303 11020 21036 40223 58019 83040;","Q01  00002PRCP99"
"31725099999","2000-11-04T09:00:00","4","48.6166666","133.8333333","52.0","SMIDOVICH, RS","FM-12","99999","V020","050,1,N,0050,1","00420,1,9,N","020000,1,N,1","+0026,1","-0037,1","10090,1","99,0000,9,1","","","","","","","08,99,1,07,1,03,1,00450,1,04,1,99,9","","","120,M,+0036,1","","7,1,024,1,+999,9","","","SYN076AAXX  04091 31725 32498 80505 10026 21037 40090 57024 8734/ 333 10036 91110;","Q01  00002PRCP99"
"31725099999","2000-11-04T18:00:00","4","48.6166666","133.8333333","52.0","SMIDOVICH, RS","FM-12","99999","V020","999,9,C,0000,1","00420,1,9,N","999999,9,N,1","+0008,1","+0008,1","10043,1","","","","7,1,06,1","5,1,06,1","","","08,99,1,08,1,07,1,00450,1,99,9,99,9","","","","","7,1,006,1,+999,9","69,1","","SYN066AAXX  04181 31725 414// 80000 10008 20008 40043 57006 76975 887//;",
"31725099999","2000-11-04T21:00:00","4","48.6166666","133.8333333","52.0","SMIDOVICH, RS","FM-12","99999","V020","230,1,N,0010,1","00420,1,9,N","020000,1,N,1","-0002,1","-0017,1","10049,1","","","","","","","","08,99,1,07,1,03,1,00450,1,04,1,99,9","","","","","1,1,001,1,+999,9","","","SYN060AAXX  04211 31725 /2498 82301 11002 21017 40049 51001 8734/;",
"31725099999","2000-11-05T09:00:00","4","48.6166666","133.8333333","52.0","SMIDOVICH, RS","FM-12","99999","V020","230,1,N,0030,1","99999,9,9,N","020000,1,N,1","+0006,1","-0051,1","10070,1","99,0000,9,1","","","","","","","05,99,1,02,1,05,1,99999,9,04,1,00,1","","","999,M,+0064,1","","2,1,020,1,+999,9","","","SYN070AAXX  05091 31725 32998 52303 10006 21051 40070 52020 82540 333 10064;","Q01  00002PRCP99"
"31725099999","2000-11-05T21:00:00","4","48.6166666","133.8333333","52.0","SMIDOVICH, RS","FM-12","99999","V020","999,9,C,0000,1","22000,1,9,N","020000,1,N,1","-0053,1","-0082,1","10140,1","99,0000,9,1","","","","","","00,1,+99999,9,99,9","00,99,1,00,1,00,1,99999,9,00,1,00,1","","","","","2,1,005,1,+999,9","","","SYN054AAXX  05211 31725 32998 00000 11053 21082 40140 52005;","Q01  00002PRCP99"
"31725099999","2000-11-06T09:00:00","4","48.6166666","133.8333333","52.0","SMIDOVICH, RS","FM-12","99999","V020","230,1,N,0020,1","03600,1,9,N","020000,1,N,1","+0001,1","-0029,1","10139,1","99,0000,9,1","","","","","","","06,99,1,03,1,03,1,00450,1,04,1,02,1","","","999,M,+0053,1","","6,1,002,1,+999,9","","","SYN070AAXX  06091 31725 32498 62302 10001 21029 40139 56002 83342 333 10053;","Q01  00002PRCP99"
"31725099999","2000-11-06T21:00:00","4","48.6166666","133.8333333","52.0","SMIDOVICH, RS","FM-12","99999","V020","999,9,C,0000,1","00420,1,9,N","004000,1,N,1","-0046,1","-0049,1","10102,1","","","","8,1,03,1","1,1,03,1","","","08,99,1,08,1,03,1,00450,1,99,9,99,9","","","","","7,1,007,1,+999,9","85,1","","SYN066AAXX  06211 31725 /1496 80000 11046 21049 40102 57007 78581 883//;",
"31725099999","2000-11-07T09:00:00","4","48.6166666","133.8333333","52.0","SMIDOVICH, RS","FM-12","99999","V020","340,1,N,0030,1","03600,1,9,N","020000,1,N,1","-0027,1","-0116,1","10083,1","99,0000,2,1","","","","","","","08,99,1,01,1,03,1,00450,1,04,1,99,9","","","999,M,+0004,1","","3,1,008,1,+999,9","","","SYN070AAXX  07091 31725 32498 83403 11027 21116 40083 53008 8134/ 333 10004;",
"31725099999","2000-11-07T21:00:00","4","48.6166666","133.8333333","52.0","SMIDOVICH, RS","FM-12","99999","V020","340,1,N,0030,1","22000,1,9,N","020000,1,N,1","-0063,1","-0117,1","10116,1","99,0000,9,1","0000,9,1,999999,9,9","","","","","","03,99,1,03,1,00,1,99999,9,04,1,00,1","30,9","","","","2,1,010,1,+999,9","","","SYN070AAXX  07211 31725 32998 33403 11063 21117 40116 52010 83040 333 42997;","Q01  00002PRCP99"
"31725099999","2000-11-08T09:00:00","4","48.6166666","133.8333333","52.0","SMIDOVICH, RS","FM-12","99999","V020","270,1,N,0030,1","03600,1,9,N","050000,1,N,1","-0055,1","-0149,1","10179,1","99,0000,9,1","","","","","","","07,99,1,02,1,03,1,00450,1,04,1,00,1","","","999,M,-0013,1","","2,1,020,1,+999,9","","","SYN070AAXX  08091 31725 32499 72703 11055 21149 40179 52020 82340 333 11013;","Q01  00002PRCP99"
"31725099999","2000-11-08T21:00:00","4","48.6166666","133.8333333","52.0","SMIDOVICH, RS","FM-12","99999","V020","270,1,N,0030,1","22000,1,9,N","050000,1,N,1","-0124,1","-0176,1","10207,1","99,0000,9,1","0000,9,1,999999,9,9","","","","","","01,99,1,01,1,05,1,00800,1,00,1,00,1","22,9","","","","3,1,001,1,+999,9","","","SYN070AAXX  08211 31725 32599 12703 11124 21176 40207 53001 81500 333 46997;","Q01  00002PRCP99"
"31725099999","2000-11-09T09:00:00","4","48.6166666","133.8333333","52.0","SMIDOVICH, RS","FM-12","99999","V020","290,1,N,0040,1","22000,1,9,N","050000,1,N,1","-0103,1","-0213,1","10222,1","99,0000,9,1","","","","","","00,1,+99999,9,99,9","00,99,1,00,1,00,1,99999,9,00,1,00,1","","","999,M,-0062,1","","3,1,018,1,+999,9","","","SYN064AAXX  09091 31725 32999 02904 11103 21213 40222 53018 333 11062;","Q01  00002PRCP99"
"31725099999","2000-11-09T21:00:00","4","48.6166666","133.8333333","52.0","SMIDOVICH, RS","FM-12","99999","V020","230,1,N,0010,1","22000,1,9,N","050000,1,N,1","-0150,1","-0201,1","10241,1","99,0000,9,1","0000,9,1,999999,9,9","","","","","00,1,+99999,9,99,9","00,99,1,00,1,00,1,99999,9,00,1,00,1","21,9","","","","1,1,002,1,+999,9","","","SYN064AAXX  09211 31725 32999 02301 11150 21201 40241 51002 333 45997;","Q01  00002PRCP99"
"31725099999","2000-11-10T09:00:00","4","48.6166666","133.8333333","52.0","SMIDOVICH, RS","FM-12","99999","V020","270,1,N,0020,1","22000,1,9,N","050000,1,N,1","-0090,1","-0185,1","10223,1","99,0000,9,1","","","","","","","02,99,1,02,1,00,1,99999,9,04,1,00,1","","","999,M,-0054,1","","6,1,001,1,+999,9","","","SYN070AAXX  10091 31725 32999 22702 11090 21185 40223 56001 82040 333 11054;","Q01  00002PRCP99"
"31725099999","2000-11-10T21:00:00","4","48.6166666","133.8333333","52.0","SMIDOVICH, RS","FM-12","99999","V020","270,1,N,0010,1","22000,1,9,N","050000,1,N,1","-0152,1","-0203,1","10216,1","99,0000,9,1","0000,9,1,999999,9,9","","","","","00,1,+99999,9,99,9","00,99,1,00,1,00,1,99999,9,00,1,00,1","21,9","","","","6,1,002,1,+999,9","","","SYN064AAXX  10211 31725 32999 02701 11152 21203 40216 56002 333 45997;","Q01  00002PRCP99"
"31725099999","2000-11-11T09:00:00","4","48.6166666","133.8333333","52.0","SMIDOVICH, RS","FM-12","99999","V020","270,1,N,0010,1","22000,1,9,N","020000,1,N,1","-0084,1","-0174,1","10201,1","99,0000,9,1","","","","","","","03,99,1,03,1,00,1,99999,9,04,1,00,1","","","999,M,-0035,1","","7,1,003,1,+999,9","","","SYN070AAXX  11091 31725 32998 32701 11084 21174 40201 57003 83040 333 11035;","Q01  00002PRCP99"
"31725099999","2000-11-11T21:00:00","4","48.6166666","133.8333333","52.0","SMIDOVICH, RS","FM-12","99999","V020","999,9,C,0000,1","99999,9,9,N","020000,1,N,1","-0088,1","-0116,1","10164,1","99,0000,9,1","","","","","","","08,99,1,05,1,00,1,99999,9,04,1,02,1","","","","","7,1,012,1,+999,9","","","SYN060AAXX  11211 31725 32998 80000 11088 21116 40164 57012 85042;","Q01  00002PRCP99"
"31725099999","2000-11-12T09:00:00","4","48.6166666","133.8333333","52.0","SMIDOVICH, RS","FM-12","99999","V020","270,1,N,0010,1","00420,1,9,N","020000,1,N,1","-0070,1","-0099,1","10135,1","99,0000,9,1","","","8,1,03,1","2,1,03,1","","","08,99,1,06,1,03,1,00450,1,04,1,99,9","","","999,M,-0028,1","","3,1,004,1,+999,9","02,1","","SYN076AAXX  12091 31725 31498 82701 11070 21099 40135 53004 70282 8634/ 333 11028;","Q01  00002PRCP99"
"31725099999","2000-11-12T21:00:00","4","48.6166666","133.8333333","52.0","SMIDOVICH, RS","FM-12","99999","V020","270,1,N,0010,1","22000,1,9,N","020000,1,N,1","-0120,1","-0155,1","10193,1","99,0000,9,1","","","","","","","03,99,1,03,1,00,1,00450,1,04,1,00,1","","","","","2,1,013,1,+999,9","","","SYN060AAXX  12211 31725 32498 32701 11120 21155 40193 52013 83040;","Q01  00002PRCP99"
"31725099999","2000-11-13T09:00:00","4","48.6166666","133.8333333","52.0","SMIDOVICH, RS","FM-12","99999","V020","999,9,C,0000,1","22000,1,9,N","020000,1,N,1","-0064,1","-0124,1","10211,1","99,0000,9,1","","","","","","","02,99,1,02,1,00,1,99999,9,04,1,00,1","","","999,M,-0005,1","","3,1,008,1,+999,9","","","SYN070AAXX  13091 31725 32998 20000 11064 21124 40211 53008 82040 333 11005;","Q01  00002PRCP99"
"31725099999","2000-11-13T21:00:00","4","48.6166666","133.8333333","52.0","SMIDOVICH, RS","FM-12","99999","V020","999,9,C,0000,1","02100,1,9,N","020000,1,N,1","-0103,1","-0116,1","10206,1","99,0000,9,1","0000,9,1,999999,9,9","","","","","","06,99,1,06,1,00,1,02250,1,04,1,00,1","21,9","","","","7,1,005,1,+999,9","","","SYN070AAXX  13211 31725 32898 60000 11103 21116 40206 57005 86040 333 45997;","Q01  00002PRCP99"
"31725099999","2000-11-14T09:00:00","4","48.6166666","133.8333333","52.0","SMIDOVICH, RS","FM-12","99999","V020","230,1,N,0010,1","03600,1,9,N","020000,1,N,1","-0029,1","-0033,1","10134,1","","","","","","","","08,99,1,02,1,06,1,00450,1,08,1,02,1","","","","","7,1,010,1,+999,9","","","SYN076AAXX  14091 31725 /1498 82301 11029 21033 40134 57010 82682 883// 333 11006;",
"31725099999","2000-11-14T21:00:00","4","48.6166666","133.8333333","52.0","SMIDOVICH, RS","FM-12","99999","V020","230,1,N,0030,1","00420,1,9,N","020000,1,N,1","-0074,1","-0108,1","10184,1","99,0000,9,1","0001,9,1,999999,9,9","","","","","","08,99,1,05,1,03,1,00450,1,04,1,99,9","23,9","","","","2,1,009,1,+999,9","","","SYN070AAXX  14211 31725 32498 82303 11074 21108 40184 52009 8534/ 333 47001;","Q01  00002PRCP99"
"31725099999","2000-11-15T09:00:00","4","48.6166666","133.8333333","52.0","SMIDOVICH, RS","FM-12","99999","V020","270,1,N,0100,1","22000,1,9,N","020000,1,N,1","-0110,1","-0252,1","10274,1","99,0000,9,1","","","3,1,03,1","1,1,03,1","","00,1,+99999,9,99,9","00,99,1,00,1,00,1,99999,9,00,1,00,1","","","120,M,-0053,1","","2,1,047,1,+999,9","36,1","","SYN076AAXX  15091 31725 31998 02710 11110 21252 40274 52047 73631 333 11053 91117;","Q01  00002PRCP99"
"31725099999","2000-11-15T21:00:00","4","48.6166666","133.8333333","52.0","SMIDOVICH, RS","FM-12","99999","V020","270,1,N,0030,1","22000,1,9,N","050000,1,N,1","-0167,1","-0286,1","10346,1","99,0000,9,1","0001,9,1,999999,9,9","","","","","00,1,+99999,9,99,9","00,99,1,00,1,00,1,99999,9,00,1,00,1","22,9","","","","2,1,010,1,+999,9","","","SYN064AAXX  15211 31725 32999 02703 11167 21286 40346 52010 333 46001;","Q01  00002PRCP99"
"31725099999","2000-11-16T09:00:00","4","48.6166666","133.8333333","52.0","SMIDOVICH, RS","FM-12","99999","V020","999,9,C,0000,1","22000,1,9,N","050000,1,N,1","-0140,1","-0262,1","10328,1","99,0000,9,1","","","","","","00,1,+99999,9,99,9","00,99,1,00,1,00,1,99999,9,00,1,00,1","","","999,M,-0096,1","","7,1,004,1,+999,9","","","SYN064AAXX  16091 31725 32999 00000 11140 21262 40328 57004 333 11096;","Q01  00002PRCP99"
"31725099999","2000-11-16T21:00:00","4","48.6166666","133.8333333","52.0","SMIDOVICH, RS","FM-12","99999","V020","270,1,N,0010,1","99999,9,9,N","020000,1,N,1","-0165,1","-0245,1","10283,1","99,0000,9,1","0001,9,1,999999,9,9","","","","","","08,99,1,00,1,00,1,99999,9,00,1,07,1","22,9","","","","7,1,018,1,+999,9","","","SYN070AAXX  16211 31725 32998 82701 11165 21245 40283 57018 80007 333 46001;","Q01  00002PRCP99"
"31725099999","2000-11-17T09:00:00","4","48.6166666","133.8333333","52.0","SMIDOVICH, RS","FM-12","99999","V020","340,1,N,0010,1","22000,1,9,N","020000,1,N,1","-0135,1","-0257,1","10238,1","99,0000,9,1","","","","","","","01,99,1,00,1,00,1,99999,9,00,1,06,1","","","999,M,-0099,1","","7,1,007,1,+999,9","","","SYN070AAXX  17091 31725 32998 13401 11135 21257 40238 57007 80006 333 11099;","Q01  00002PRCP99"
"31725099999","2000-11-17T21:00:00","4","48.6166666","133.8333333","52.0","SMIDOVICH, RS","FM-12","99999","V020","340,1,N,0010,1","22000,1,9,N","020000,1,N,1","-0204,1","-0261,1","10236,1","99,0000,9,1","0000,9,1,999999,9,9","","","","","00,1,+99999,9,99,9","00,99,1,00,1,00,1,99999,9,00,1,00,1","22,9","","","","6,1,002,1,+999,9","","","SYN064AAXX  17211 31725 32998 03401 11204 21261 40236 56002 333 46997;","Q01  00002PRCP99"
"31725099999","2000-11-18T09:00:00","4","48.6166666","133.8333333","52.0","SMIDOVICH, RS","FM-12","99999","V020","230,1,N,0020,1","22000,1,9,N","050000,1,N,1","-0140,1","-0262,1","10257,1","99,0000,9,1","","","","","","00,1,+99999,9,99,9","00,99,1,00,1,00,1,99999,9,00,1,00,1","","","999,M,-0103,1","","2,1,012,1,+999,9","","","SYN064AAXX  18091 31725 32999 02302 11140 21262 40257 52012 333 11103;","Q01  00002PRCP99"
"31725099999","2000-11-18T21:00:00","4","48.6166666","133.8333333","52.0","SMIDOVICH, RS","FM-12","99999","V020","230,1,N,0020,1","22000,1,9,N","020000,1,N,1","-0196,1","-0254,1","10300,1","99,0000,9,1","0000,9,1,999999,9,9","","","","","00,1,+99999,9,99,9","00,99,1,00,1,00,1,99999,9,00,1,00,1","21,9","","","","1,1,001,1,+999,9","","","SYN064AAXX  18211 31725 32998 02302 11196 21254 40300 51001 333 45997;","Q01  00002PRCP99"
"31725099999","2000-11-19T09:00:00","4","48.6166666","133.8333333","52.0","SMIDOVICH, RS","FM-12","99999","V020","230,1,N,0010,1","22000,1,9,N","050000,1,N,1","-0168,1","-0259,1","10307,1","99,0000,9,1","","","","","","00,1,+99999,9,99,9","00,99,1,00,1,00,1,99999,9,00,1,00,1","","","999,M,-0110,1","","4,1,000,1,+999,9","","","SYN064AAXX  19091 31725 32999 02301 11168 21259 40307 54000 333 11110;","Q01  00002PRCP99"
"31725099999","2000-11-19T21:00:00","4","48.6166666","133.8333333","52.0","SMIDOVICH, RS","FM-12","99999","V020","270,1,N,0010,1","99999,9,9,N","020000,1,N,1","-0187,1","-0236,1","10281,1","99,0000,9,1","0000,9,1,999999,9,9","","","","","","08,99,1,02,1,00,1,99999,9,04,1,06,1","21,9","","","","7,1,015,1,+999,9","","","SYN070AAXX  19211 31725 32998 82701 11187 21236 40281 57015 82046 333 45998;","Q01  00002PRCP99"
"31725099999","2000-11-20T09:00:00","4","48.6166666","133.8333333","52.0","SMIDOVICH, RS","FM-12","99999","V020","999,9,C,0000,1","99999,9,9,N","020000,1,N,1","-0148,1","-0241,1","10225,1","99,0000,9,1","","","","","","","06,99,1,06,1,00,1,99999,9,04,1,00,1","","","999,M,-0106,1","","7,1,016,1,+999,9","","","SYN070AAXX  20091 31725 32998 60000 11148 21241 40225 57016 86040 333 11106;","Q01  00002PRCP99"
"31725099999","2000-11-20T21:00:00","4","48.6166666","133.8333333","52.0","SMIDOVICH, RS","FM-12","99999","V020","320,1,N,0010,1","22000,1,9,N","050000,1,N,1","-0199,1","-0257,1","10190,1","99,0000,9,1","9999,9,9,999999,9,9","","","","","","02,99,1,00,1,00,1,99999,9,00,1,02,1","21,9","","","","8,1,012,1,+999,9","","","SYN070AAXX  20211 31725 32999 23201 11199 21257 40190 58012 80002 333 45957;","Q01  00002PRCP99Q02  09572SNDP  "
"31725099999","2000-11-21T09:00:00","4","48.6166666","133.8333333","52.0","SMIDOVICH, RS","FM-12","99999","V020","270,1,N,0010,1","99999,9,9,N","050000,1,N,1","-0144,1","-0237,1","10211,1","99,0000,9,1","","","","","","09,1,+99999,9,99,9","09,99,1,09,1,99,9,99999,9,99,9,99,9","","","999,M,-0108,1","","2,1,013,1,+999,9","","","SYN070AAXX  21091 31725 32999 92701 11144 21237 40211 52013 84040 333 11108;","Q01  00002PRCP99"
"31725099999","2000-11-21T21:00:00","4","48.6166666","133.8333333","52.0","SMIDOVICH, RS","FM-12","99999","V020","270,1,N,0010,1","22000,1,9,N","050000,1,N,1","-0201,1","-0267,1","10276,1","99,0000,9,1","0000,9,1,999999,9,9","","","","","00,1,+99999,9,99,9","00,99,1,00,1,00,1,99999,9,00,1,00,1","21,9","","","","2,1,012,1,+999,9","","","SYN064AAXX  21211 31725 32999 02701 11201 21267 40276 52012 333 45997;","Q01  00002PRCP99"
"31725099999","2000-11-22T09:00:00","4","48.6166666","133.8333333","52.0","SMIDOVICH, RS","FM-12","99999","V020","999,9,C,0000,1","09000,1,9,N","020000,1,N,1","-0158,1","-0239,1","10256,1","99,0000,9,1","","","","","","","08,99,1,01,1,05,1,00800,1,00,1,02,1","","","999,M,-0103,1","","7,1,008,1,+999,9","","","SYN070AAXX  22091 31725 32598 80000 11158 21239 40256 57008 81502 333 11103;","Q01  00002PRCP99"
"31725099999","2000-11-22T21:00:00","4","48.6166666","133.8333333","52.0","SMIDOVICH, RS","FM-12","99999","V020","999,9,C,0000,1","99999,9,9,N","020000,1,N,1","-0174,1","-0193,1","10203,1","","0001,9,1,999999,9,9","","7,1,03,1","2,1,03,1","","","08,99,1,02,1,00,1,99999,9,04,1,02,1","23,9","","","","7,1,009,1,+999,9","01,1","","SYN076AAXX  22211 31725 /1998 80000 11174 21193 40203 57009 70172 82042 333 47001;",
"31725099999","2000-11-23T09:00:00","4","48.6166666","133.8333333","52.0","SMIDOVICH, RS","FM-12","99999","V020","999,9,C,0000,1","22000,1,9,N","020000,1,N,1","-0155,1","-0189,1","10221,1","","","","","","","","03,99,1,03,1,00,1,99999,9,04,1,00,1","","","999,M,-0099,1","","3,1,007,1,+999,9","","","SYN070AAXX  23091 31725 /2998 30000 11155 21189 40221 53007 83040 333 11099;",
"31725099999","2000-11-23T21:00:00","4","48.6166666","133.8333333","52.0","SMIDOVICH, RS","FM-12","99999","V020","999,9,C,0000,1","22000,1,9,N","020000,1,N,1","-0196,1","-0229,1","10230,1","99,0000,9,1","0001,9,1,999999,9,9","","","","","00,1,+99999,9,99,9","00,99,1,00,1,00,1,99999,9,00,1,00,1","23,9","","","","4,1,000,1,+999,9","","","SYN064AAXX  23211 31725 32998 00000 11196 21229 40230 54000 333 47001;","Q01  00002PRCP99"
"31725099999","2000-11-24T21:00:00","4","48.6166666","133.8333333","52.0","SMIDOVICH, RS","FM-12","99999","V020","270,1,N,0010,1","22000,1,9,N","050000,1,N,1","-0221,1","-0261,1","10288,1","99,0000,9,1","0000,9,1,999999,9,9","","","","","00,1,+99999,9,99,9","00,99,1,00,1,00,1,99999,9,00,1,00,1","22,9","","","","2,1,005,1,+999,9","","","SYN064AAXX  24211 31725 32999 02701 11221 21261 40288 52005 333 46997;","Q01  00002PRCP99"
"31725099999","2000-11-25T09:00:00","4","48.6166666","133.8333333","52.0","SMIDOVICH, RS","FM-12","99999","V020","999,9,C,0000,1","03600,1,9,N","020000,1,N,1","-0164,1","-0244,1","10259,1","99,0000,9,1","","","","","","","08,99,1,01,1,04,1,00800,1,04,1,06,1","","","999,M,-0141,1","","7,1,010,1,+999,9","","","SYN070AAXX  25091 31725 32598 80000 11164 21244 40259 57010 81446 333 11141;","Q01  00002PRCP99"
"31725099999","2000-11-25T21:00:00","4","48.6166666","133.8333333","52.0","SMIDOVICH, RS","FM-12","99999","V020","999,9,C,0000,1","22000,1,9,N","020000,1,N,1","-0229,1","-0269,1","10257,1","99,0000,9,1","0000,9,1,999999,9,9","","","","","00,1,+99999,9,99,9","00,99,1,00,1,00,1,99999,9,00,1,00,1","23,9","","","","1,1,002,1,+999,9","","","SYN064AAXX  25211 31725 32998 00000 11229 21269 40257 51002 333 47997;","Q01  00002PRCP99"
"31725099999","2000-11-26T09:00:00","4","48.6166666","133.8333333","52.0","SMIDOVICH, RS","FM-12","99999","V020","270,1,N,0010,1","22000,1,9,N","020000,1,N,1","-0167,1","-0236,1","10255,1","99,0000,9,1","","","","","","00,1,+99999,9,99,9","00,99,1,00,1,00,1,99999,9,00,1,00,1","","","999,M,-0113,1","","3,1,004,1,+999,9","","","SYN064AAXX  26091 31725 32998 02701 11167 21236 40255 53004 333 11113;","Q01  00002PRCP99"
"31725099999","2000-11-26T21:00:00","4","48.6166666","133.8333333","52.0","SMIDOVICH, RS","FM-12","99999","V020","320,1,N,0020,1","22000,1,9,N","020000,1,N,1","-0222,1","-0261,1","10236,1","99,0000,9,1","0000,9,1,999999,9,9","","","","","00,1,+99999,9,99,9","00,99,1,00,1,00,1,99999,9,00,1,00,1","23,9","","","","7,1,003,1,+999,9","","","SYN064AAXX  26211 31725 32998 03202 11222 21261 40236 57003 333 47997;","Q01  00002PRCP99"
"31725099999","2000-11-27T09:00:00","4","48.6166666","133.8333333","52.0","SMIDOVICH, RS","FM-12","99999","V020","230,1,N,0020,1","22000,1,9,N","020000,1,N,1","-0140,1","-0192,1","10205,1","99,0000,9,1","","","","","","","01,99,1,00,1,00,1,99999,9,00,1,02,1","","","999,M,-0095,1","","6,1,001,1,+999,9","","","SYN070AAXX  27091 31725 32998 12302 11140 21192 40205 56001 80002 333 11095;","Q01  00002PRCP99"
"31725099999","2000-11-27T21:00:00","4","48.6166666","133.8333333","52.0","SMIDOVICH, RS","FM-12","99999","V020","270,1,N,0010,1","22000,1,9,N","020000,1,N,1","-0204,1","-0261,1","10219,1","99,0000,9,1","0000,9,1,999999,9,9","","","","","00,1,+99999,9,99,9","00,99,1,00,1,00,1,99999,9,00,1,00,1","23,9","","","","3,1,004,1,+999,9","","","SYN064AAXX  27211 31725 32998 02701 11204 21261 40219 53004 333 47997;","Q01  00002PRCP99"
"31725099999","2000-11-28T09:00:00","4","48.6166666","133.8333333","52.0","SMIDOVICH, RS","FM-12","99999","V020","270,1,N,0010,1","22000,1,9,N","050000,1,N,1","-0167,1","-0271,1","10235,1","99,0000,9,1","","","","","","00,1,+99999,9,99,9","00,99,1,00,1,00,1,99999,9,00,1,00,1","","","999,M,-0123,1","","3,1,012,1,+999,9","","","SYN064AAXX  28091 31725 32999 02701 11167 21271 40235 53012 333 11123;","Q01  00002PRCP99"
"31725099999","2000-11-28T21:00:00","4","48.6166666","133.8333333","52.0","SMIDOVICH, RS","FM-12","99999","V020","270,1,N,0010,1","22000,1,9,N","050000,1,N,1","-0218,1","-0258,1","10235,1","99,0000,9,1","0000,9,1,999999,9,9","","","","","","02,99,1,02,1,00,1,99999,9,04,1,00,1","23,9","","","","7,1,009,1,+999,9","","","SYN070AAXX  28211 31725 32999 22701 11218 21258 40235 57009 82040 333 47997;","Q01  00002PRCP99"
"31725099999","2000-11-29T09:00:00","4","48.6166666","133.8333333","52.0","SMIDOVICH, RS","FM-12","99999","V020","270,1,N,0010,1","22000,1,9,N","020000,1,N,1","-0157,1","-0217,1","10219,1","99,0000,9,1","","","","","","","02,99,1,02,1,00,1,99999,9,04,1,00,1","","","999,M,-0116,1","","3,1,010,1,+999,9","","","SYN070AAXX  29091 31725 32998 22701 11157 21217 40219 53010 82040 333 11116;","Q01  00002PRCP99"
"31725099999","2000-11-29T21:00:00","4","48.6166666","133.8333333","52.0","SMIDOVICH, RS","FM-12","99999","V020","230,1,N,0030,1","22000,1,9,N","020000,1,N,1","-0188,1","-0266,1","10267,1","99,0000,9,1","0000,9,1,999999,9,9","","","","","00,1,+99999,9,99,9","00,99,1,00,1,00,1,99999,9,00,1,00,1","23,9","","","","1,1,001,1,+999,9","","","SYN064AAXX  29211 31725 32998 02303 11188 21266 40267 51001 333 47997;","Q01  00002PRCP99"
"31725099999","2000-11-30T09:00:00","4","48.6166666","133.8333333","52.0","SMIDOVICH, RS","FM-12","99999","V020","250,1,N,0020,1","22000,1,9,N","020000,1,N,1","-0145,1","-0196,1","10275,1","99,0000,9,1","","","","","","00,1,+99999,9,99,9","00,99,1,00,1,00,1,99999,9,00,1,00,1","","","999,M,-0081,1","","3,1,005,1,+999,9","","","SYN064AAXX  30091 31725 32998 02502 11145 21196 40275 53005 333 11081;","Q01  00002PRCP99"
"31725099999","2000-11-30T21:00:00","4","48.6166666","133.8333333","52.0","SMIDOVICH, RS","FM-12","99999","V020","250,1,N,0010,1","22000,1,9,N","020000,1,N,1","-0202,1","-0221,1","10271,1","99,0000,9,1","0000,9,1,999999,9,9","","","","","00,1,+99999,9,99,9","00,99,1,00,1,00,1,99999,9,00,1,00,1","23,9","","","","8,1,006,1,+999,9","","","SYN064AAXX  30211 31725 32998 02501 11202 21221 40271 58006 333 47997;","Q01  00002PRCP99"
"31725099999","2000-12-01T09:00:00","4","48.6166666","133.8333333","52.0","SMIDOVICH, RS","FM-12","99999","V020","999,9,C,0000,1","22000,1,9,N","020000,1,N,1","-0134,1","-0177,1","10256,1","99,0000,9,1","","","","","","00,1,+99999,9,99,9","00,99,1,00,1,00,1,99999,9,00,1,00,1","","","999,M,-0071,1","","4,1,000,1,+999,9","","","SYN064AAXX  01091 31725 32998 00000 11134 21177 40256 54000 333 11071;","Q01  00002PRCP99"
"31725099999","2000-12-01T21:00:00","4","48.6166666","133.8333333","52.0","SMIDOVICH, RS","FM-12","99999","V020","230,1,N,0010,1","09000,1,9,N","020000,1,N,1","-0168,1","-0202,1","10195,1","99,0000,9,1","0000,9,1,999999,9,9","","","","","","08,99,1,02,1,03,1,00450,1,00,1,02,1","22,9","","","","7,1,027,1,+999,9","","","SYN070AAXX  01211 31725 32498 82301 11168 21202 40195 57027 82302 333 46997;","Q01  00002PRCP99"
"31725099999","2000-12-02T09:00:00","4","48.6166666","133.8333333","52.0","SMIDOVICH, RS","FM-12","99999","V020","160,1,N,0010,1","00420,1,9,N","004000,1,N,1","-0103,1","-0120,1","10089,1","","","","8,1,03,1","2,1,03,1","","","08,99,1,08,1,03,1,00450,1,99,9,99,9","","","999,M,-0084,1","","7,1,005,1,+999,9","85,1","","SYN076AAXX  02091 31725 /1496 81601 11103 21120 40089 57005 78582 883// 333 11084;",
"31725099999","2000-12-02T21:00:00","4","48.6166666","133.8333333","52.0","SMIDOVICH, RS","FM-12","99999","V020","340,1,N,0050,1","22000,1,9,N","020000,1,N,1","-0175,1","-0234,1","10137,1","99,0000,2,1","","","3,1,03,1","0,1,03,1","","","02,99,1,02,1,00,1,99999,9,04,1,00,1","","","","","4,1,000,1,+999,9","36,1","","SYN076AAXX  02211 31725 31998 23405 11175 21234 40137 54000 73630 82040 333 91110;",
"31725099999","2000-12-03T09:00:00","4","48.6166666","133.8333333","52.0","SMIDOVICH, RS","FM-12","99999","V020","250,1,N,0050,1","22000,1,9,N","020000,1,N,1","-0192,1","-0294,1","10136,1","99,0000,9,1","","","3,1,03,1","0,1,03,1","","00,1,+99999,9,99,9","00,99,1,00,1,00,1,99999,9,00,1,00,1","","","120,M,-0151,1","","3,1,003,1,+999,9","36,1","","SYN076AAXX  03091 31725 31998 02505 11192 21294 40136 53003 73630 333 11151 91112;","Q01  00002PRCP99"
"31725099999","2000-12-03T21:00:00","4","48.6166666","133.8333333","52.0","SMIDOVICH, RS","FM-12","99999","V020","230,1,N,0060,1","22000,1,9,N","020000,1,N,1","-0256,1","-0353,1","10160,1","99,0000,9,1","0002,9,1,999999,9,9","","","","","00,1,+99999,9,99,9","00,99,1,00,1,00,1,99999,9,00,1,00,1","22,9","","","","2,1,005,1,+999,9","","","SYN070AAXX  03211 31725 32998 02306 11256 21353 40160 52005 333 46002 91110;","Q01  00002PRCP99"
"31725099999","2000-12-04T09:00:00","4","48.6166666","133.8333333","52.0","SMIDOVICH, RS","FM-12","99999","V020","270,1,N,0020,1","22000,1,9,N","050000,1,N,1","-0250,1","-0335,1","10146,1","99,0000,9,1","","","","","","00,1,+99999,9,99,9","00,99,1,00,1,00,1,99999,9,00,1,00,1","","","999,M,-0202,1","","7,1,014,1,+999,9","","","SYN064AAXX  04091 31725 32999 02702 11250 21335 40146 57014 333 11202;","Q01  00002PRCP99"
"31725099999","2000-12-04T21:00:00","4","48.6166666","133.8333333","52.0","SMIDOVICH, RS","FM-12","99999","V020","230,1,N,0020,1","22000,1,9,N","050000,1,N,1","-0295,1","-0358,1","10122,1","99,0000,9,1","0002,9,1,999999,9,9","","","","","00,1,+99999,9,99,9","00,99,1,00,1,00,1,99999,9,00,1,00,1","22,9","","","","7,1,003,1,+999,9","","","SYN064AAXX  04211 31725 32999 02302 11295 21358 40122 57003 333 46002;","Q01  00002PRCP99"
"31725099999","2000-12-05T09:00:00","4","48.6166666","133.8333333","52.0","SMIDOVICH, RS","FM-12","99999","V020","230,1,N,0030,1","22000,1,9,N","050000,1,N,1","-0250,1","-0335,1","10156,1","99,0000,9,1","","","","","","00,1,+99999,9,99,9","00,99,1,00,1,00,1,99999,9,00,1,00,1","","","999,M,-0208,1","","2,1,012,1,+999,9","","","SYN064AAXX  05091 31725 32999 02303 11250 21335 40156 52012 333 11208;","Q01  00002PRCP99"
"31725099999","2000-12-05T21:00:00","4","48.6166666","133.8333333","52.0","SMIDOVICH, RS","FM-12","99999","V020","230,1,N,0030,1","99999,9,9,N","020000,1,N,1","-0234,1","-0309,1","10183,1","99,0000,9,1","0002,9,1,999999,9,9","","","","","","06,99,1,00,1,00,1,99999,9,00,1,02,1","22,9","","","","2,1,008,1,+999,9","","","SYN070AAXX  05211 31725 32998 62303 11234 21309 40183 52008 80002 333 46002;","Q01  00002PRCP99"
"31725099999","2000-12-06T09:00:00","4","48.6166666","133.8333333","52.0","SMIDOVICH, RS","FM-12","99999","V020","230,1,N,0010,1","22000,1,9,N","020000,1,N,1","-0208,1","-0275,1","10286,1","99,0000,9,1","","","","","","00,1,+99999,9,99,9","00,99,1,00,1,00,1,99999,9,00,1,00,1","","","999,M,-0142,1","","2,1,016,1,+999,9","","","SYN064AAXX  06091 31725 32998 02301 11208 21275 40286 52016 333 11142;","Q01  00002PRCP99"
"31725099999","2000-12-06T21:00:00","4","48.6166666","133.8333333","52.0","SMIDOVICH, RS","FM-12","99999","V020","999,9,C,0000,1","22000,1,9,N","020000,1,N,1","-0264,1","-0288,1","10281,1","99,0000,9,1","0002,9,1,999999,9,9","","","","","00,1,+99999,9,99,9","00,99,1,00,1,00,1,99999,9,00,1,00,1","22,9","","","","8,1,010,1,+999,9","","","SYN064AAXX  06211 31725 32998 00000 11264 21288 40281 58010 333 46002;","Q01  00002PRCP99"
"31725099999","2000-12-07T09:00:00","4","48.6166666","133.8333333","52.0","SMIDOVICH, RS","FM-12","99999","V020","999,9,C,0000,1","00420,1,9,N","004000,1,N,1","-0167,1","-0193,1","10231,1","","","","8,1,03,1","2,1,03,1","","","08,99,1,08,1,03,1,00450,1,99,9,99,9","","","999,M,-0142,1","","7,1,003,1,+999,9","85,1","","SYN076AAXX  07091 31725 /1496 80000 11167 21193 40231 57003 78582 883// 333 11142;",
"31725099999","2000-12-07T21:00:00","4","48.6166666","133.8333333","52.0","SMIDOVICH, RS","FM-12","99999","V020","270,1,N,0010,1","22000,1,9,N","020000,1,N,1","-0228,1","-0253,1","10215,1","","0002,9,1,999999,9,9","","","","","00,1,+99999,9,99,9","00,99,1,00,1,00,1,99999,9,00,1,00,1","22,9","","","","4,1,000,1,+999,9","","","SYN070AAXX  07211 31725 /2998 02701 11228 21253 40215 54000 81040 333 46002;",
"31725099999","2000-12-08T09:00:00","4","48.6166666","133.8333333","52.0","SMIDOVICH, RS","FM-12","99999","V020","200,1,N,0010,1","22000,1,9,N","020000,1,N,1","-0193,1","-0242,1","10201,1","99,0000,9,1","","","","","","","03,99,1,03,1,00,1,99999,9,04,1,00,1","","","999,M,-0134,1","","3,1,010,1,+999,9","","","SYN070AAXX  08091 31725 32998 32001 11193 21242 40201 53010 83040 333 11134;","Q01  00002PRCP99"
"31725099999","2000-12-08T21:00:00","4","48.6166666","133.8333333","52.0","SMIDOVICH, RS","FM-12","99999","V020","200,1,N,0010,1","22000,1,9,N","020000,1,N,1","-0220,1","-0260,1","10224,1","99,0000,9,1","0002,9,1,999999,9,9","","","","","00,1,+99999,9,99,9","00,99,1,00,1,00,1,99999,9,00,1,00,1","22,9","","","","8,1,005,1,+999,9","","","SYN064AAXX  08211 31725 32998 02001 11220 21260 40224 58005 333 46002;","Q01  00002PRCP99"
"31725099999","2000-12-09T09:00:00","4","48.6166666","133.8333333","52.0","SMIDOVICH, RS","FM-12","99999","V020","270,1,N,0020,1","22000,1,9,N","050000,1,N,1","-0211,1","-0268,1","10187,1","99,0000,9,1","","","","","","","02,99,1,00,1,00,1,99999,9,00,1,02,1","","","999,M,-0144,1","","7,1,008,1,+999,9","","","SYN070AAXX  09091 31725 32999 22702 11211 21268 40187 57008 80002 333 11144;","Q01  00002PRCP99"
"31725099999","2000-12-09T21:00:00","4","48.6166666","133.8333333","52.0","SMIDOVICH, RS","FM-12","99999","V020","320,1,N,0020,1","99999,9,9,N","020000,1,N,1","-0232,1","-0279,1","10146,1","99,0000,9,1","0003,9,1,999999,9,9","","","","","","05,99,1,00,1,00,1,99999,9,00,1,02,1","23,9","","","","7,1,003,1,+999,9","","","SYN070AAXX  09211 31725 32998 53202 11232 21279 40146 57003 80002 333 47003;","Q01  00002PRCP99"
"31725099999","2000-12-10T09:00:00","4","48.6166666","133.8333333","52.0","SMIDOVICH, RS","FM-12","99999","V020","270,1,N,0050,1","22000,1,9,N","020000,1,N,1","-0209,1","-0297,1","10127,1","99,0000,9,1","","","","","","00,1,+99999,9,99,9","00,99,1,00,1,00,1,99999,9,00,1,00,1","","","120,M,-0166,1","","3,1,001,1,+999,9","","","SYN070AAXX  10091 31725 32998 02705 11209 21297 40127 53001 333 11166 91112;","Q01  00002PRCP99"
"31725099999","2000-12-10T21:00:00","4","48.6166666","133.8333333","52.0","SMIDOVICH, RS","FM-12","99999","V020","270,1,N,0040,1","99999,9,9,N","020000,1,N,1","-0214,1","-0291,1","10118,1","99,0000,9,1","0003,9,1,999999,9,9","","","","","","08,99,1,07,1,00,1,99999,9,04,1,99,9","23,9","","","","7,1,007,1,+999,9","","","SYN070AAXX  10211 31725 32998 82704 11214 21291 40118 57007 8704/ 333 47003;","Q01  00002PRCP99"
"31725099999","2000-12-11T09:00:00","4","48.6166666","133.8333333","52.0","SMIDOVICH, RS","FM-12","99999","V020","290,1,N,0050,1","99999,9,9,N","004000,1,N,1","-0196,1","-0298,1","10128,1","99,0000,9,1","","","3,1,03,1","2,1,03,1","","","06,99,1,01,1,00,1,99999,9,04,1,02,1","","","999,M,-0168,1","","1,1,001,1,+999,9","36,1","","SYN076AAXX  11091 31725 31996 62905 11196 21298 40128 51001 73632 81042 333 11168;","Q01  00002PRCP99"
"31725099999","2000-12-11T21:00:00","4","48.6166666","133.8333333","52.0","SMIDOVICH, RS","FM-12","99999","V020","230,1,N,0020,1","22000,1,9,N","020000,1,N,1","-0240,1","-0305,1","10101,1","99,0000,9,1","0003,9,1,999999,9,9","","","","","","02,99,1,01,1,00,1,99999,9,04,1,01,1","22,9","","","","7,1,012,1,+999,9","","","SYN070AAXX  11211 31725 32998 22302 11240 21305 40101 57012 81041 333 46003;","Q01  00002PRCP99"
"31725099999","2000-12-12T09:00:00","4","48.6166666","133.8333333","52.0","SMIDOVICH, RS","FM-12","99999","V020","230,1,N,0010,1","22000,1,9,N","020000,1,N,1","-0202,1","-0291,1","10125,1","99,0000,9,1","","","","","","00,1,+99999,9,99,9","00,99,1,00,1,00,1,99999,9,00,1,00,1","","","999,M,-0154,1","","2,1,019,1,+999,9","","","SYN064AAXX  12091 31725 32998 02301 11202 21291 40125 52019 333 11154;","Q01  00002PRCP99"
"31725099999","2000-12-12T21:00:00","4","48.6166666","133.8333333","52.0","SMIDOVICH, RS","FM-12","99999","V020","230,1,N,0010,1","22000,1,9,N","020000,1,N,1","-0272,1","-0318,1","10150,1","99,0000,9,1","0002,9,1,999999,9,9","","","","","00,1,+99999,9,99,9","00,99,1,00,1,00,1,99999,9,00,1,00,1","22,9","","","","8,1,005,1,+999,9","","","SYN064AAXX  12211 31725 32998 02301 11272 21318 40150 58005 333 46002;","Q01  00002PRCP99"
"31725099999","2000-12-13T09:00:00","4","48.6166666","133.8333333","52.0","SMIDOVICH, RS","FM-12","99999","V020","230,1,N,0010,1","22000,1,9,N","020000,1,N,1","-0197,1","-0255,1","10188,1","99,0000,9,1","","","","","","00,1,+99999,9,99,9","00,99,1,00,1,00,1,99999,9,00,1,00,1","","","999,M,-0133,1","","2,1,012,1,+999,9","","","SYN064AAXX  13091 31725 32998 02301 11197 21255 40188 52012 333 11133;","Q01  00002PRCP99"
"31725099999","2000-12-13T21:00:00","4","48.6166666","133.8333333","52.0","SMIDOVICH, RS","FM-12","99999","V020","230,1,N,0010,1","99999,9,9,N","020000,1,N,1","-0228,1","-0268,1","10187,1","99,0000,9,1","0002,9,1,999999,9,9","","","","","","08,99,1,03,1,00,1,99999,9,04,1,02,1","22,9","","","","3,1,003,1,+999,9","","","SYN070AAXX  13211 31725 32998 82301 11228 21268 40187 53003 83042 333 46002;","Q01  00002PRCP99"
"31725099999","2000-12-14T09:00:00","4","48.6166666","133.8333333","52.0","SMIDOVICH, RS","FM-12","99999","V020","270,1,N,0010,1","22000,1,9,N","020000,1,N,1","-0161,1","-0212,1","10199,1","99,0000,9,1","","","","","","00,1,+99999,9,99,9","00,99,1,00,1,00,1,99999,9,00,1,00,1","","","999,M,-0114,1","","3,1,005,1,+999,9","","","SYN064AAXX  14091 31725 32998 02701 11161 21212 40199 53005 333 11114;","Q01  00002PRCP99"
"31725099999","2000-12-14T21:00:00","4","48.6166666","133.8333333","52.0","SMIDOVICH, RS","FM-12","99999","V020","999,9,C,0000,1","22000,1,9,N","020000,1,N,1","-0241,1","-0266,1","10182,1","99,0000,9,1","0002,9,1,999999,9,9","","","","","00,1,+99999,9,99,9","00,99,1,00,1,00,1,99999,9,00,1,00,1","22,9","","","","7,1,016,1,+999,9","","","SYN064AAXX  14211 31725 32998 00000 11241 21266 40182 57016 333 46002;","Q01  00002PRCP99"
"31725099999","2000-12-15T09:00:00","4","48.6166666","133.8333333","52.0","SMIDOVICH, RS","FM-12","99999","V020","320,1,N,0010,1","99999,9,9,N","020000,1,N,1","-0140,1","-0182,1","10028,1","99,0000,9,1","","","","","","","08,99,1,02,1,00,1,99999,9,04,1,02,1","","","999,M,-0113,1","","7,1,028,1,+999,9","","","SYN070AAXX  15091 31725 32998 83201 11140 21182 40028 57028 82042 333 11113;","Q01  00002PRCP99"
"31725099999","2000-12-15T21:00:00","4","48.6166666","133.8333333","52.0","SMIDOVICH, RS","FM-12","99999","V020","230,1,N,0010,1","00420,1,9,N","020000,1,N,1","-0169,1","-0188,1","10107,1","","","","8,1,03,1","2,1,03,1","","","08,99,1,05,1,03,1,00450,1,00,1,02,1","","","","","2,1,004,1,+999,9","02,1","","SYN070AAXX  15211 31725 /1498 82301 11169 21188 40107 52004 70282 85302 333;",
"31725099999","2000-12-16T09:00:00","4","48.6166666","133.8333333","52.0","SMIDOVICH, RS","FM-12","99999","V020","270,1,N,0030,1","03600,1,9,N","020000,1,N,1","-0188,1","-0256,1","10193,1","99,0000,9,1","","","","","","","06,99,1,03,1,03,1,00450,1,04,1,00,1","","","999,M,-0123,1","","2,1,023,1,+999,9","","","SYN070AAXX  16091 31725 32498 62703 11188 21256 40193 52023 83340 333 11123;","Q01  00002PRCP99"
"31725099999","2000-12-16T21:00:00","4","48.6166666","133.8333333","52.0","SMIDOVICH, RS","FM-12","99999","V020","340,1,N,0010,1","22000,1,9,N","020000,1,N,1","-0236,1","-0268,1","10233,1","99,0000,9,1","0005,9,1,999999,9,9","","","","","","03,99,1,03,1,00,1,00450,1,04,1,00,1","23,9","","","","2,1,003,1,+999,9","","","SYN070AAXX  16211 31725 32498 33401 11236 21268 40233 52003 83040 333 47005;","Q01  00002PRCP99"
"31725099999","2000-12-17T09:00:00","4","48.6166666","133.8333333","52.0","SMIDOVICH, RS","FM-12","99999","V020","230,1,N,0010,1","22000,1,9,N","020000,1,N,1","-0202,1","-0243,1","10247,1","99,0000,9,1","","","","","","","02,99,1,00,1,00,1,99999,9,00,1,01,1","","","999,M,-0135,1","","3,1,010,1,+999,9","","","SYN070AAXX  17091 31725 32998 22301 11202 21243 40247 53010 80001 333 11135;","Q01  00002PRCP99"
"31725099999","2000-12-17T21:00:00","4","48.6166666","133.8333333","52.0","SMIDOVICH, RS","FM-12","99999","V020","320,1,N,0010,1","22000,1,9,N","020000,1,N,1","-0231,1","-0263,1","10267,1","99,0000,9,1","0005,9,1,999999,9,9","","","","","00,1,+99999,9,99,9","00,99,1,00,1,00,1,99999,9,00,1,00,1","23,9","","","","2,1,006,1,+999,9","","","SYN064AAXX  17211 31725 32998 03201 11231 21263 40267 52006 333 47005;","Q01  00002PRCP99"
"31725099999","2000-12-18T09:00:00","4","48.6166666","133.8333333","52.0","SMIDOVICH, RS","FM-12","99999","V020","999,9,C,0000,1","22000,1,9,N","020000,1,N,1","-0195,1","-0253,1","10263,1","99,0000,9,1","","","","","","","02,99,1,99,9,00,1,01750,1,04,1,00,1","","","999,M,-0147,1","","7,1,003,1,+999,9","","","SYN070AAXX  18091 31725 32798 20000 11195 21253 40263 57003 87040 333 11147;","Q01+000072SCOTLCQ02  00002PRCP99"
"31725099999","2000-12-18T21:00:00","4","48.6166666","133.8333333","52.0","SMIDOVICH, RS","FM-12","99999","V020","999,9,C,0000,1","01500,1,9,N","020000,1,N,1","-0217,1","-0265,1","10226,1","99,0000,9,1","0005,9,1,999999,9,9","","","","","","08,99,1,07,1,00,1,01750,1,04,1,99,9","23,9","","","","7,1,007,1,+999,9","","","SYN070AAXX  18211 31725 32798 80000 11217 21265 40226 57007 8704/ 333 47005;","Q01  00002PRCP99"
"31725099999","2000-12-19T21:00:00","4","48.6166666","133.8333333","52.0","SMIDOVICH, RS","FM-12","99999","V020","999,9,C,0000,1","00420,1,9,N","004000,1,N,1","-0198,1","-0231,1","10244,1","","0005,9,1,999999,9,9","","8,1,03,1","2,1,03,1","","","08,99,1,08,1,03,1,00450,1,99,9,99,9","23,9","","","","7,1,017,1,+999,9","85,1","","SYN076AAXX  19211 31725 /1496 80000 11198 21231 40244 57017 78582 883// 333 47005;",
"31725099999","2000-12-20T09:00:00","4","48.6166666","133.8333333","52.0","SMIDOVICH, RS","FM-12","99999","V020","320,1,N,0010,1","00420,1,9,N","004000,1,N,1","-0173,1","-0199,1","10168,1","","","","8,1,03,1","2,1,03,1","","","08,99,1,07,1,03,1,00450,1,04,1,99,9","","","999,M,-0148,1","","7,1,010,1,+999,9","85,1","","SYN076AAXX  20091 31725 /1496 83201 11173 21199 40168 57010 78582 8734/ 333 11148;",
"31725099999","2000-12-20T21:00:00","4","48.6166666","133.8333333","52.0","SMIDOVICH, RS","FM-12","99999","V020","999,9,C,0000,1","22000,1,9,N","020000,1,N,1","-0294,1","-0317,1","10159,1","99,0000,2,1","0006,9,1,999999,9,9","","","","","","03,99,1,03,1,00,1,99999,9,04,1,00,1","23,9","","","","4,1,000,1,+999,9","","","SYN070AAXX  20211 31725 32998 30000 11294 21317 40159 54000 83040 333 47006;",
"31725099999","2000-12-21T09:00:00","4","48.6166666","133.8333333","52.0","SMIDOVICH, RS","FM-12","99999","V020","230,1,N,0010,1","22000,1,9,N","020000,1,N,1","-0261,1","-0300,1","10182,1","99,0000,9,1","","","","","","00,1,+99999,9,99,9","00,99,1,00,1,00,1,99999,9,00,1,00,1","","","999,M,-0186,1","","2,1,016,1,+999,9","","","SYN064AAXX  21091 31725 32998 02301 11261 21300 40182 52016 333 11186;","Q01  00002PRCP99"
"31725099999","2000-12-21T21:00:00","4","48.6166666","133.8333333","52.0","SMIDOVICH, RS","FM-12","99999","V020","320,1,N,0020,1","22000,1,9,N","020000,1,N,1","-0331,1","-0360,1","10230,1","99,0000,9,1","0006,9,1,999999,9,9","","","","","00,1,+99999,9,99,9","00,99,1,00,1,00,1,99999,9,00,1,00,1","23,9","","","","2,1,009,1,+999,9","","","SYN064AAXX  21211 31725 32998 03202 11331 21360 40230 52009 333 47006;","Q01  00002PRCP99"
"31725099999","2000-12-22T09:00:00","4","48.6166666","133.8333333","52.0","SMIDOVICH, RS","FM-12","99999","V020","999,9,C,0000,1","22000,1,9,N","020000,1,N,1","-0282,1","-0320,1","10241,1","99,0000,9,1","","","","","","00,1,+99999,9,99,9","00,99,1,00,1,00,1,99999,9,00,1,00,1","","","999,M,-0205,1","","8,1,002,1,+999,9","","","SYN064AAXX  22091 31725 32998 00000 11282 21320 40241 58002 333 11205;","Q01  00002PRCP99"
"31725099999","2000-12-22T21:00:00","4","48.6166666","133.8333333","52.0","SMIDOVICH, RS","FM-12","99999","V020","999,9,C,0000,1","22000,1,9,N","020000,1,N,1","-0337,1","-0365,1","10238,1","99,0000,9,1","0006,9,1,999999,9,9","","","","","00,1,+99999,9,99,9","00,99,1,00,1,00,1,99999,9,00,1,00,1","23,9","","","","8,1,006,1,+999,9","","","SYN064AAXX  22211 31725 32998 00000 11337 21365 40238 58006 333 47006;","Q01  00002PRCP99"
"31725099999","2000-12-23T09:00:00","4","48.6166666","133.8333333","52.0","SMIDOVICH, RS","FM-12","99999","V020","230,1,N,0010,1","22000,1,9,N","020000,1,N,1","-0273,1","-0312,1","10216,1","99,0000,9,1","","","","","","","01,99,1,01,1,00,1,99999,9,04,1,00,1","","","999,M,-0192,1","","3,1,001,1,+999,9","","","SYN070AAXX  23091 31725 32998 12301 11273 21312 40216 53001 81040 333 11192;","Q01  00002PRCP99"
"31725099999","2000-12-23T21:00:00","4","48.6166666","133.8333333","52.0","SMIDOVICH, RS","FM-12","99999","V020","320,1,N,0010,1","22000,1,9,N","020000,1,N,1","-0316,1","-0345,1","10206,1","99,0000,9,1","0006,9,1,999999,9,9","","","","","00,1,+99999,9,99,9","00,99,1,00,1,00,1,99999,9,00,1,00,1","23,9","","","","6,1,002,1,+999,9","","","SYN064AAXX  23211 31725 32998 03201 11316 21345 40206 56002 333 47006;","Q01  00002PRCP99"
"31725099999","2000-12-24T09:00:00","4","48.6166666","133.8333333","52.0","SMIDOVICH, RS","FM-12","99999","V020","999,9,C,0000,1","22000,1,9,N","020000,1,N,1","-0274,1","-0304,1","10218,1","99,0000,9,1","","","","","","00,1,+99999,9,99,9","00,99,1,00,1,00,1,99999,9,00,1,00,1","","","999,M,-0220,1","","3,1,005,1,+999,9","","","SYN064AAXX  24091 31725 32998 00000 11274 21304 40218 53005 333 11220;","Q01  00002PRCP99"
"31725099999","2000-12-24T21:00:00","4","48.6166666","133.8333333","52.0","SMIDOVICH, RS","FM-12","99999","V020","999,9,C,0000,1","22000,1,9,N","020000,1,N,1","-0312,1","-0336,1","10221,1","99,0000,9,1","0006,9,1,999999,9,9","","","","","00,1,+99999,9,99,9","00,99,1,00,1,00,1,99999,9,00,1,00,1","23,9","","","","4,1,000,1,+999,9","","","SYN064AAXX  24211 31725 32998 00000 11312 21336 40221 54000 333 47006;","Q01  00002PRCP99"
"31725099999","2000-12-25T09:00:00","4","48.6166666","133.8333333","52.0","SMIDOVICH, RS","FM-12","99999","V020","320,1,N,0020,1","00060,1,9,N","004900,1,N,1","-0222,1","-0269,1","10203,1","","","","","","","","08,99,1,08,1,03,1,00075,1,99,9,99,9","","","999,M,+0018,1","","2,1,002,1,+999,9","","","SYN076AAXX  25091 31725 //149 83202 11222 21269 40203 52002 78582 883// 333 12018;",
"31725099999","2000-12-25T21:00:00","4","48.6166666","133.8333333","52.0","SMIDOVICH, RS","FM-12","99999","V020","270,1,N,0020,1","99999,9,9,N","020000,1,N,1","-0200,1","-0233,1","10211,1","","0007,9,1,999999,9,9","","","","","","08,99,1,07,1,00,1,99999,9,04,1,99,9","23,9","","","","2,1,007,1,+999,9","","","SYN070AAXX  25211 31725 /2998 82702 11200 21233 40211 52007 8704/ 333 47007;",
"31725099999","2000-12-26T09:00:00","4","48.6166666","133.8333333","52.0","SMIDOVICH, RS","FM-12","99999","V020","230,1,N,0020,1","03600,1,9,N","020000,1,N,1","-0224,1","-0263,1","10259,1","99,0000,9,1","","","","","","","06,99,1,02,1,03,1,00450,1,04,1,01,1","","","999,M,-0174,1","","2,1,009,1,+999,9","","","SYN070AAXX  26091 31725 32498 62302 11224 21263 40259 52009 82341 333 11174;","Q01  00002PRCP99"
"31725099999","2000-12-26T21:00:00","4","48.6166666","133.8333333","52.0","SMIDOVICH, RS","FM-12","99999","V020","270,1,N,0030,1","22000,1,9,N","020000,1,N,1","-0242,1","-0281,1","10280,1","99,0000,9,1","0007,9,1,999999,9,9","","","","","00,1,+99999,9,99,9","00,99,1,00,1,00,1,99999,9,00,1,00,1","23,9","","","","2,1,004,1,+999,9","","","SYN064AAXX  26211 31725 32998 02703 11242 21281 40280 52004 333 47007;","Q01  00002PRCP99"
"31725099999","2000-12-27T09:00:00","4","48.6166666","133.8333333","52.0","SMIDOVICH, RS","FM-12","99999","V020","230,1,N,0010,1","22000,1,9,N","020000,1,N,1","-0241,1","-0289,1","10266,1","99,0000,9,1","","","","","","","02,99,1,00,1,00,1,99999,9,00,1,02,1","","","999,M,-0172,1","","7,1,011,1,+999,9","","","SYN070AAXX  27091 31725 32998 22301 11241 21289 40266 57011 80002 333 11172;","Q01  00002PRCP99"
"31725099999","2000-12-27T21:00:00","4","48.6166666","133.8333333","52.0","SMIDOVICH, RS","FM-12","99999","V020","320,1,N,0020,1","22000,1,9,N","020000,1,N,1","-0327,1","-0357,1","10281,1","99,0000,9,1","0007,9,1,999999,9,9","","","","","00,1,+99999,9,99,9","00,99,1,00,1,00,1,99999,9,00,1,00,1","23,9","","","","1,1,001,1,+999,9","","","SYN064AAXX  27211 31725 32998 03202 11327 21357 40281 51001 333 47007;","Q01  00002PRCP99"
"31725099999","2000-12-28T09:00:00","4","48.6166666","133.8333333","52.0","SMIDOVICH, RS","FM-12","99999","V020","999,9,C,0000,1","22000,1,9,N","020000,1,N,1","-0250,1","-0288,1","10289,1","99,0000,9,1","","","","","","00,1,+99999,9,99,9","00,99,1,00,1,00,1,99999,9,00,1,00,1","","","999,M,-0188,1","","3,1,005,1,+999,9","","","SYN064AAXX  28091 31725 32998 00000 11250 21288 40289 53005 333 11188;","Q01  00002PRCP99"
"31725099999","2000-12-28T21:00:00","4","48.6166666","133.8333333","52.0","SMIDOVICH, RS","FM-12","99999","V020","999,9,C,0000,1","22000,1,9,N","020000,1,N,1","-0338,1","-0361,1","10310,1","99,0000,9,1","0007,9,1,999999,9,9","","","","","00,1,+99999,9,99,9","00,99,1,00,1,00,1,99999,9,00,1,00,1","23,9","","","","2,1,005,1,+999,9","","","SYN064AAXX  28211 31725 32998 00000 11338 21361 40310 52005 333 47007;","Q01  00002PRCP99"
"31725099999","2000-12-29T09:00:00","4","48.6166666","133.8333333","52.0","SMIDOVICH, RS","FM-12","99999","V020","200,1,N,0010,1","99999,9,9,N","020000,1,N,1","-0246,1","-0285,1","10294,1","99,0000,9,1","","","","","","","05,99,1,05,1,00,1,99999,9,04,1,00,1","","","999,M,-0201,1","","7,1,003,1,+999,9","","","SYN070AAXX  29091 31725 32998 52001 11246 21285 40294 57003 85040 333 11201;","Q01  00002PRCP99"
"31725099999","2000-12-29T21:00:00","4","48.6166666","133.8333333","52.0","SMIDOVICH, RS","FM-12","99999","V020","270,1,N,0010,1","22000,1,9,N","020000,1,N,1","-0314,1","-0336,1","10281,1","99,0000,9,1","0007,9,1,999999,9,9","","","","","","04,99,1,04,1,00,1,99999,9,04,1,00,1","23,9","","","","8,1,007,1,+999,9","","","SYN070AAXX  29211 31725 32998 42701 11314 21336 40281 58007 84040 333 47007;","Q01  00002PRCP99"
"31725099999","2000-12-30T09:00:00","4","48.6166666","133.8333333","52.0","SMIDOVICH, RS","FM-12","99999","V020","360,1,N,0020,1","22000,1,9,N","020000,1,N,1","-0225,1","-0265,1","10239,1","99,0000,9,1","","","","","","","08,99,1,02,1,04,1,00450,1,00,1,01,1","","","999,M,-0197,1","","7,1,010,1,+999,9","","","SYN070AAXX  30091 31725 32498 83602 11225 21265 40239 57010 82401 333 11197;","Q01  00002PRCP99"
"31725099999","2000-12-30T21:00:00","4","48.6166666","133.8333333","52.0","SMIDOVICH, RS","FM-12","99999","V020","360,1,N,0020,1","00420,1,9,N","020000,1,N,1","-0223,1","-0262,1","10185,1","99,0000,9,1","0007,9,1,999999,9,9","","","","","","08,99,1,06,1,03,1,00450,1,00,1,01,1","23,9","","","","7,1,011,1,+999,9","","","SYN070AAXX  30211 31725 32498 83602 11223 21262 40185 57011 86301 333 47007;","Q01  00002PRCP99"
"31725099999","2000-12-31T09:00:00","4","48.6166666","133.8333333","52.0","SMIDOVICH, RS","FM-12","99999","V020","999,9,C,0000,1","99999,9,9,N","020000,1,N,1","-0191,1","-0249,1","10177,1","99,0000,9,1","","","","","","","06,99,1,00,1,00,1,99999,9,00,1,02,1","","","999,M,-0157,1","","7,1,005,1,+999,9","","","SYN070AAXX  31091 31725 32998 60000 11191 21249 40177 57005 80002 333 11157;","Q01  00002PRCP99"
"31725099999","2000-12-31T21:00:00","4","48.6166666","133.8333333","52.0","SMIDOVICH, RS","FM-12","99999","V020","999,9,C,0000,1","22000,1,9,N","020000,1,N,1","-0296,1","-0326,1","10202,1","99,0000,9,1","0006,9,1,999999,9,9","","","","","00,1,+99999,9,99,9","00,99,1,00,1,00,1,99999,9,00,1,00,1","23,9","","","","3,1,008,1,+999,9","","","SYN064AAXX  31211 31725 32998 00000 11296 21326 40202 53008 333 47006;","Q01  00002PRCP99"
